name,Tel,region,address,class,longitude,latitude,name_pinyin,address_pinyin,region_pinyin
京城百工坊,67111381,左安门,光明路乙12号（夕照寺街口）,Museum,116.434853,39.883713,jing cheng bai gong fang,guang ming lu yi 12 hao （ xi zhao si jie kou ）,zuo an men
百年印象摄影画廊,64381784,798/大山子,酒仙桥路4号,Exhibition Centre,116.495628,39.984051,bai nian yin xiang she ying hua lang,jiu xian qiao lu 4 hao,798 / da shan zi
东京画廊,59784838,798/大山子,酒仙桥路2号798艺术区陶瓷三街E02号,Exhibition Centre,116.495476,39.98344,dong jing hua lang,jiu xian qiao lu 2 hao 798 yi zhu qu tao ci san jie E 02 hao,798 / da shan zi
红门画廊,,崇文门,崇文门东大街东便门角楼,Art Gallery,116.434262,39.901633,hong men hua lang,chong wen men dong da jie dong bian men jiao lou,chong wen men
国宜广场,63950810,公主坟/万寿路,西三环中路19号,Square,116.309193,39.904403,guo yi guang chang,xi san huan zhong lu 19 hao,gong zhu fen / wan shou lu
北京大学-地质博物馆,62756088,颐和园,颐和园路5号北京大学燕园内,Museum,116.309937,39.991894,bei jing da xue - di zhi bo wu guan,yi he yuan lu 5 hao bei jing da xue yan yuan nei,yi he yuan
大葆台西汉墓博物馆,83612852,世界公园,郭公庄707号,Museum,116.297859,39.806305,da bao tai xi han mu bo wu guan,guo gong zhuang 707 hao,shi jie gong yuan
大钟寺古钟博物馆,82139050;82132630,双榆树,北三环西路甲31号,Museum,116.338181,39.969074,da zhong si gu zhong bo wu guan,bei san huan xi lu jia 31 hao,shuang yu shu
中国第四纪冰川遗迹陈列馆,88722585,模式口,模式口大街28号,Exhibition Gallery,116.161873,39.937763,zhong guo di si ji bing chuan yi ji chen lie guan,mo shi kou da jie 28 hao,mo shi kou
北京古代建筑博物馆,63172150;63017620,虎坊桥,东经路21号,Museum,116.392044,39.877522,bei jing gu dai jian zhu bo wu guan,dong jing lu 21 hao,hu fang qiao
古陶文明博物馆,63538811;63538884,右安门,右安门内西街12号,Museum,116.3573,39.87336,gu tao wen ming bo wu guan,you an men nei xi jie 12 hao,you an men
观复博物馆,64338887;64337775,金盏,大山子张万坟金南路18号,Museum,116.534325,40.006969,guan fu bo wu guan,da shan zi zhang wan fen jin nan lu 18 hao,jin zhan
中国航天博物馆,68755656,南苑/德茂桥,万源路1号,Museum,116.423546,39.804871,zhong guo hang tian bo wu guan,wan yuan lu 1 hao,nan yuan / de mao qiao
北京焦庄户地道战遗址纪念馆,60461906,顺义区,焦庄户村38号,Memorial Hall,116.870066,40.233788,bei jing jiao zhuang hu di dao zhan yi zhi ji nian guan,jiao zhuang hu cun 38 hao,shun yi qu
中国人民抗日战争纪念馆,63777088;63777188,卢沟桥,卢沟桥宛平城内街101号,Memorial Hall,116.225955,39.851771,zhong guo ren min kang ri zhan zheng ji nian guan,lu gou qiao wan ping cheng nei jie 101 hao,lu gou qiao
北京鲁迅博物馆,50872677,阜成门,新街口街道宫门口二条19号（阜成门地铁站B东北口步行260米）,Museum,116.358696,39.925732,bei jing lu xun bo wu guan,xin jie kou jie dao gong men kou er tiao 19 hao （ fu cheng men di tie zhan B dong bei kou bu xing 260 mi ）,fu cheng men
密云区博物馆,69053677,密云果园,果园街道西门外大街2号,Museum,116.836227,40.377277,mi yun qu bo wu guan,guo yuan jie dao xi men wai da jie 2 hao,mi yun guo yuan
民族文化宫博物馆,83195280,西单,复兴门内大街49号,Museum,116.369019,39.908096,min zu wen hua gong bo wu guan,fu xing men nei da jie 49 hao,xi dan
奇石馆,62048190,安定门,安德路102号,Exhibition Gallery,116.391968,39.95126,qi shi guan,an de lu 102 hao,an ding men
北京石刻艺术博物馆,62173543,魏公村,五塔寺路24号,Museum,116.330467,39.94463,bei jing shi ke yi zhu bo wu guan,wu ta si lu 24 hao,wei gong cun
首都博物馆,63370491;63370492,复兴门,复兴门外大街16号,Museum,116.342067,39.906412,shou du bo wu guan,fu xing men wai da jie 16 hao,fu xing men
北京Planetarium,68312517,西直门/动物园,西直门外大街138号,Planetarium,116.336899,39.937424,bei jing P l a n e t a r i u m,xi zhi men wai da jie 138 hao,xi zhi men / dong wu yuan
通州博物馆,69555161,新华大街,西大街9号,Museum,116.667381,39.908012,tong zhou bo wu guan,xi da jie 9 hao,xin hua da jie
王府井古人类文化遗址博物馆,85186306,王府井/东单,东长安街与王府井大街交叉口东北100米,Museum,116.412819,39.909153,wang fu jing gu ren lei wen hua yi zhi bo wu guan,dong chang an jie yu wang fu jing da jie jiao cha kou dong bei 100 mi,wang fu jing / dong dan
西周燕都遗址博物馆,61393475;61393049,窦店镇,琉璃河镇董家林村7区1号,Museum,116.056877,39.616669,xi zhou yan du yi zhi bo wu guan,liu li he zhen dong jia lin cun 7 qu 1 hao,dou dian zhen
北大红楼,52208928;52208929,王府井/东单,五四大街29号,Memorial Hall,116.405319,39.924675,bei da hong lou,wu si da jie 29 hao,wang fu jing / dong dan
北京艺术博物馆,68413380;68456997,紫竹桥,西三环北路万寿寺内,Museum,116.311386,39.946651,bei jing yi zhu bo wu guan,xi san huan bei lu wan shou si nei,zi zhu qiao
北京周口店北京人遗址博物馆,53230037,房山区,周口店镇周口店大街1号,Museum,115.929717,39.690099,bei jing zhou kou dian bei jing ren yi zhi bo wu guan,zhou kou dian zhen zhou kou dian da jie 1 hao,fang shan qu
中国地质博物馆,66557858,西四,西四羊肉胡同15号,Museum,116.371742,39.923393,zhong guo di zhi bo wu guan,xi si yang rou hu tong 15 hao,xi si
中国古动物馆,88369280;88369210,西直门/动物园,"西直门外大街142号（北京动物园售票处西300米路南,北京Planetarium西50米）",Museum,116.333946,39.937428,zhong guo gu dong wu guan,"xi zhi men wai da jie 142 hao （ bei jing dong wu yuan shou piao chu xi 300 mi lu nan , bei jing P l a n e t a r i u m xi 50 mi ）",xi zhi men / dong wu yuan
中国国家博物馆,65116400,王府井/东单,东长安街16号（天安门广场东侧）,Museum,116.401398,39.905415,zhong guo guo jia bo wu guan,dong chang an jie 16 hao （ tian an men guang chang dong ce ）,wang fu jing / dong dan
中国航空博物馆,66916919;61784882,小汤山镇,小汤山镇顺沙路中国航空博物馆,Museum,116.366646,40.185047,zhong guo hang kong bo wu guan,xiao tang shan zhen shun sha lu zhong guo hang kong bo wu guan,xiao tang shan zhen
北京民俗博物馆,65510151,朝外大街,朝阳门外大街141号,Museum,116.443962,39.92408,bei jing min su bo wu guan,zhao yang men wai da jie 141 hao,zhao wai da jie
中国钱币博物馆,66024178,前门/大栅栏,西交民巷17号,Museum,116.395073,39.902348,zhong guo qian bi bo wu guan,xi jiao min xiang 17 hao,qian men / da zha lan
中国人民革命军事博物馆,66866244;66866248,公主坟/万寿路,复兴路9号,Museum,116.323875,39.909151,zhong guo ren min ge ming jun shi bo wu guan,fu xing lu 9 hao,gong zhu fen / wan shou lu
中国现代文学馆,57311800,对外经贸,文学馆路45号,Exhibition Gallery,116.430054,39.984692,zhong guo xian dai wen xue guan,wen xue guan lu 45 hao,dui wai jing mao
中国印刷博物馆,60261243,黄村,兴华北路25号（清源路地铁站A西北口步行210米）,Museum,116.331459,39.743484,zhong guo yin shua bo wu guan,xing hua bei lu 25 hao （ qing yuan lu di tie zhan A xi bei kou bu xing 210 mi ）,huang cun
中国邮政邮票博物馆,65213894,建国门/北京站,贡院西街6号D座（近长安大戏院）,Museum,116.431206,39.910816,zhong guo you zheng you piao bo wu guan,gong yuan xi jie 6 hao D zuo （ jin chang an da xi yuan ）,jian guo men / bei jing zhan
中国紫檀博物馆,85752818,高碑店,建国路23号（地铁1号线高碑店站向西300米）,Museum,116.526093,39.910671,zhong guo zi tan bo wu guan,jian guo lu 23 hao （ di tie 1 hao xian gao bei dian zhan xiang xi 300 mi ）,gao bei dian
中华民族博物院,62063646;62063647,亚运村,民族园路1号,Museum,116.390867,39.98538,zhong hua min zu bo wu yuan,min zu yuan lu 1 hao,ya yun cun
中央民族大学民族博物馆,68933341;68932390,魏公村,中关村南大街27号,Museum,116.318069,39.948967,zhong yang min zu da xue min zu bo wu guan,zhong guan cun nan da jie 27 hao,wei gong cun
北京自然博物馆,67027702;67024431,天坛,天桥南大街126号,Museum,116.399811,39.883171,bei jing zi ran bo wu guan,tian qiao nan da jie 126 hao,tian tan
八达岭野生动物世界,69122591,八达岭,八达岭镇216省道水泉沟,Wildlife Park,115.996861,40.35117,ba da ling ye sheng dong wu shi jie,ba da ling zhen 216 sheng dao shui quan gou,ba da ling
八大处公园,88964661;88961812,八大处,八大处路3号,Religion,116.184358,39.962705,ba da chu gong yuan,ba da chu lu 3 hao,ba da chu
半壁店国家森林公园,89231397,大兴区,庞安路,Forest Park,116.438622,39.613209,ban bi dian guo jia sen lin gong yuan,pang an lu,da xing qu
宝联体育公园,57170857;57171211,紫竹桥,北洼西里48号（近地铁10号线、6号线慈寿寺站）,City Park,116.299042,39.936211,bao lian ti yu gong yuan,bei wa xi li 48 hao （ jin di tie 10 hao xian 、 6 hao xian ci shou si zhan ）,zi zhu qiao
北滨河公园,62011470,德外大街,德外大街安德路102号,City Park,116.391304,39.950478,bei bin he gong yuan,de wai da jie an de lu 102 hao,de wai da jie
北海公园,64037972,地安门,文津街1号,Garden,116.388764,39.928252,bei hai gong yuan,wen jin jie 1 hao,di an men
北京动物园,68390274;68314411,西直门/动物园,西直门外大街137号,Zoo,116.336731,39.942097,bei jing dong wu yuan,xi zhi men wai da jie 137 hao,xi zhi men / dong wu yuan
北京野生动物园,89216606;89216666,大兴区,106国道榆垡镇万亩森林,Wildlife Park,116.333611,39.496262,bei jing ye sheng dong wu yuan,106 guo dao yu fa zhen wan mu sen lin,da xing qu
国家植物园,82598771,香山/植物园,香山路与中轴路交叉口东北角,Botanical Garden,116.210907,39.998135,guo jia zhi wu yuan,xiang shan lu yu zhong zhou lu jiao cha kou dong bei jiao,xiang shan / zhi wu yuan
菖蒲河公园,,王府井/东单,菖蒲河沿9号（天安门东地铁站B东北口步行200米）,City Park,116.403618,39.908562,chang pu he gong yuan,chang pu he yan 9 hao （ tian an men dong di tie zhan B dong bei kou bu xing 200 mi ）,wang fu jing / dong dan
东单公园,65129353,王府井/东单,大华路4号,City Park,116.417107,39.9049,dong dan gong yuan,da hua lu 4 hao,wang fu jing / dong dan
丰台科技园生态主题公园,63730113,看丹桥/新华街,科兴路1号(科怡路口)（丰台南路地铁站D西南口步行410米）,Park/Square,116.295235,39.838959,feng tai ke ji yuan sheng tai zhu ti gong yuan,ke xing lu 1 hao ( ke yi lu kou ) （ feng tai nan lu di tie zhan D xi nan kou bu xing 410 mi ）,kan dan qiao / xin hua jie
福海公园,,大红门,永外高庄138号,City Park,116.402,39.847157,fu hai gong yuan,yong wai gao zhuang 138 hao,da hong men
古城公园,68878597,古城/八角,古城南路1号,Park/Square,116.193321,39.911777,gu cheng gong yuan,gu cheng nan lu 1 hao,gu cheng / ba jiao
北京国际雕塑公园,68650422,鲁谷,石景山路2号（地铁玉泉路A出口西南400米）,Cultural Park,116.245079,39.906017,bei jing guo ji diao su gong yuan,shi jing shan lu 2 hao （ di tie yu quan lu A chu kou xi nan 400 mi ）,lu gu
昊天公园,69354447,良乡,东关街73号,Park/Square,116.154602,39.733765,hao tian gong yuan,dong guan jie 73 hao,liang xiang
黑山公园,69842990,门头沟城区,黑山大街12号,City Park,116.096481,39.94075,hei shan gong yuan,hei shan da jie 12 hao,men tou gou cheng qu
红领巾公园,85824746,十里堡,八里庄5号,City Park,116.491402,39.926601,hong ling jin gong yuan,ba li zhuang 5 hao,shi li bao
花乡公园,63713852,世界公园,丰葆路,Park/Square,116.297295,39.805218,hua xiang gong yuan,feng bao lu,shi jie gong yuan
槐房钓鱼公园,,大红门,槐房路,City Park,116.378571,39.81871,huai fang diao yu gong yuan,huai fang lu,da hong men
黄渠公园,65754850,定福庄,黄渠村（褡裢坡地铁站B东北口步行470米）,City Park,116.568497,39.927597,huang qu gong yuan,huang qu cun （ da lian po di tie zhan B dong bei kou bu xing 470 mi ）,ding fu zhuang
会城门公园,63467342,首都博物馆/莲花池东路,双贝子坟路1号,City Park,116.333214,39.901096,hui cheng men gong yuan,shuang bei zi fen lu 1 hao,shou du bo wu guan / lian hua chi dong lu
景藏健康公园,58590706,北苑家园,奥运村安立路81号（北五环仰山桥向北）,Park/Square,116.40853,40.037822,jing cang jian kang gong yuan,ao yun cun an li lu 81 hao （ bei wu huan yang shan qiao xiang bei ）,bei yuan jia yuan
景山公园,64038098,地安门,景山西街44号（故宫后门对面）,Garden,116.396935,39.925797,jing shan gong yuan,jing shan xi jie 44 hao （ gu gong hou men dui mian ）,di an men
莲花池公园,63972892,北京西站/六里桥,西三环中路38号,City Park,116.314919,39.892105,lian hua chi gong yuan,xi san huan zhong lu 38 hao,bei jing xi zhan / liu li qiao
柳荫公园,84131660,安定门,安定门外黄寺大街8号,City Park,116.402122,39.960835,liu yin gong yuan,an ding men wai huang si da jie 8 hao,an ding men
龙潭公园,67144336;67186358,左安门,龙潭路8号,City Park,116.440735,39.878754,long tan gong yuan,long tan lu 8 hao,zuo an men
马甸公园,138****0720,牡丹园/北太平庄,G6辅路与裕民路交叉口西侧,City Park,116.379868,39.972294,ma dian gong yuan,G 6 fu lu yu yu min lu jiao cha kou xi ce,mu dan yuan / bei tai ping zhuang
北京明城墙遗址公园,65270574;65270080,崇文门,崇文门东大街9号,Cultural Park,116.427933,39.901272,bei jing ming cheng qiang yi zhi gong yuan,chong wen men dong da jie 9 hao,chong wen men
南馆公园,84012558,东直门,西羊管胡同甲1号,City Park,116.427696,39.943535,nan guan gong yuan,xi yang guan hu tong jia 1 hao,dong zhi men
金隅南湖公园,64738813,望京,阜通西大街20号,City Park,116.460472,39.982311,jin yu nan hu gong yuan,fu tong xi da jie 20 hao,wang jing
南口公园,69775448,南口镇,南口西大桥西侧,City Park,116.117912,40.234161,nan kou gong yuan,nan kou xi da qiao xi ce,nan kou zhen
南礼士路公园,62023200,月坛,南礼士路58号（南礼士路地铁站B东北口步行340米）,City Park,116.354645,39.910748,nan li shi lu gong yuan,nan li shi lu 58 hao （ nan li shi lu di tie zhan B dong bei kou bu xing 340 mi ）,yue tan
南苑公园,67992403,新宫,南苑西路5号,City Park,116.378693,39.806465,nan yuan gong yuan,nan yuan xi lu 5 hao,xin gong
人定湖公园,62023200,德外大街,德胜街道安德路六铺炕15号（黄寺大街南侧）,City Park,116.38559,39.957405,ren ding hu gong yuan,de sheng jie dao an de lu liu pu kang 15 hao （ huang si da jie nan ce ）,de wai da jie
日坛公园,85616301;85635038,建外大街,日坛北路6号,City Park,116.44383,39.915566,ri tan gong yuan,ri tan bei lu 6 hao,jian wai da jie
三元桥文化园,84542268,亮马桥/三元桥,三元桥新源里街心绿地,City Park,116.45079,39.949593,san yuan qiao wen hua yuan,san yuan qiao xin yuan li jie xin lv di,liang ma qiao / san yuan qiao
石榴庄公园,,大红门,南四环中路大红门东桥凉水河南,City Park,116.422508,39.83342,shi liu zhuang gong yuan,nan si huan zhong lu da hong men dong qiao liang shui he nan,da hong men
北京世界公园,83613681,世界公园,花乡街道大葆台158号,Theme Park,116.287921,39.810482,bei jing shi jie gong yuan,hua xiang jie dao da bao tai 158 hao,shi jie gong yuan
双龙公园,,北京欢乐谷,北杨庄路138号,City Park,116.48288,39.869556,shuang long gong yuan,bei yang zhuang lu 138 hao,bei jing huan le gu
双秀公园,62011695;82089805,牡丹园/北太平庄,北三环中路20号,City Park,116.374817,39.966297,shuang xiu gong yuan,bei san huan zhong lu 20 hao,mu dan yuan / bei tai ping zhuang
双榆树公园,,双榆树,科学院南路31号,City Park,116.324814,39.970451,shuang yu shu gong yuan,ke xue yuan nan lu 31 hao,shuang yu shu
顺城公园,,阜成门,阜成门桥东100米（宫门口四条南）,Cultural Park,116.357201,39.913258,shun cheng gong yuan,fu cheng men qiao dong 100 mi （ gong men kou si tiao nan ）,fu cheng men
顺义公园,69441755,顺义城区,光明南街26号,City Park,116.662003,40.120822,shun yi gong yuan,guang ming nan jie 26 hao,shun yi cheng qu
四得公园,64353759,酒仙桥,将台乡将台西路9号,City Park,116.474869,39.972145,si de gong yuan,jiang tai xiang jiang tai xi lu 9 hao,jiu xian qiao
四季青公园,,远大路,蓝靛厂北路,City Park,116.287476,39.968742,si ji qing gong yuan,lan dian chang bei lu,yuan da lu
太阳宫公园,84574426,太阳宫,十字口东街（近太阳宫路）,City Park,116.455856,39.975361,tai yang gong gong yuan,shi zi kou dong jie （ jin tai yang gong lu ）,tai yang gong
天坛公园,67013036;67012483,天坛,天坛东路天坛东里甲1号,Garden,116.411034,39.881775,tian tan gong yuan,tian tan dong lu tian tan dong li jia 1 hao,tian tan
万春园公园,81524984,梨园,玉桥中路19号,City Park,116.677231,39.893257,wan chun yuan gong yuan,yu qiao zhong lu 19 hao,li yuan
万芳亭公园,67211666,洋桥/木樨园,南三环西路3号,City Park,116.37571,39.858597,wan fang ting gong yuan,nan san huan xi lu 3 hao,yang qiao / mu xi yuan
万柳公园,82706909,苏州桥,新宫门路,City Park,116.293381,39.979977,wan liu gong yuan,xin gong men lu,su zhou qiao
万寿公园,63540841;63542172,右安门,白纸坊东街甲29号（陶然亭地铁站A西北口步行480米）,City Park,116.368248,39.879787,wan shou gong yuan,bai zhi fang dong jie jia 29 hao （ tao ran ting di tie zhan A xi bei kou bu xing 480 mi ）,you an men
望京公园,64382268,望京,崔各庄地区彩虹路2号,City Park,116.498512,39.994781,wang jing gong yuan,cui ge zhuang di qu cai hong lu 2 hao,wang jing
卧龙公园,69445460,顺义城区,顺白路2号,City Park,116.640556,40.14093,wo long gong yuan,shun bai lu 2 hao,shun yi cheng qu
顺义夕阳红公园,,石园,府前中街8号,City Park,116.670982,40.113068,shun yi xi yang hong gong yuan,fu qian zhong jie 8 hao,shi yuan
西海子公园,80882290,新华大街,新华街道西海子西路12号,City Park,116.664116,39.914635,xi hai zi gong yuan,xin hua jie dao xi hai zi xi lu 12 hao,xin hua da jie
香河园公园,,左家庄,左家庄街道机场高速与左家庄东街交叉路口往西约50米,City Park,116.448906,39.95385,xiang he yuan gong yuan,zuo jia zhuang jie dao ji chang gao su yu zuo jia zhuang dong jie jiao cha lu kou wang xi yue 50 mi,zuo jia zhuang
香山公园,62591222,香山/植物园,香山街道买卖街40号,Garden,116.188598,39.990826,xiang shan gong yuan,xiang shan jie dao mai mai jie 40 hao,xiang shan / zhi wu yuan
兴隆公园,85759918,高碑店,兴隆庄甲8号（近高碑店地铁站）,City Park,116.533592,39.912609,xing long gong yuan,xing long zhuang jia 8 hao （ jin gao bei dian di tie zhan ）,gao bei dian
宣武艺园,83116736,牛街,槐柏树街12号（近宣武医院、长椿街地铁站西南口）,City Park,116.359192,39.895138,xuan wu yi yuan,huai bai shu jie 12 hao （ jin xuan wu yi yuan 、 chang chun jie di tie zhan xi nan kou ）,niu jie
窑洼湖公园,67316688,朝阳区,北工大路与奥林匹克路交叉口北480米,City Park,116.484222,39.882345,yao wa hu gong yuan,bei gong da lu yu ao lin pi ke lu jiao cha kou bei 480 mi,zhao yang qu
迎宾公园,,城关街道,城关街道燕房路,Park/Square,115.995987,39.700714,ying bin gong yuan,cheng guan jie dao yan fang lu,cheng guan jie dao
中山公园,66055431,东城区,东华门街道中华路4号（天安门西侧）,Garden,116.394402,39.910706,zhong shan gong yuan,dong hua men jie dao zhong hua lu 4 hao （ tian an men xi ce ）,dong cheng qu
八达岭全教学滑雪场,69129922;69129988,八达岭,八达岭镇经济开发区66号,Ski Resort,115.957841,40.347022,ba da ling quan jiao xue hua xue chang,ba da ling zhen jing ji kai fa qu 66 hao,ba da ling
怀北国际滑雪场,89696677,青龙峡,河防口村548号,Ski Resort,116.656303,40.447449,huai bei guo ji hua xue chang,he fang kou cun 548 hao,qing long xia
军都山滑雪场,60725888,蟒山国家森林公园,崔村镇真顺村588号,Ski Resort,116.331245,40.239677,jun du shan hua xue chang,cui cun zhen zhen shun cun 588 hao,mang shan guo jia sen lin gong yuan
南山滑雪场,89091909;84411182,南山滑雪场,河南寨镇圣水头村,Ski Resort,116.861755,40.331215,nan shan hua xue chang,he nan zhai zhen sheng shui tou cun,nan shan hua xue chang
万科石京龙滑雪场,69191617;69191615,龙庆峡,中羊坊村旧小路龙聚山庄北区东邻,Ski Resort,115.96978,40.525173,wan ke shi jing long hua xue chang,zhong yang fang cun jiu xiao lu long ju shan zhuang bei qu dong lin,long qing xia
云佛滑雪场,61008900,密云水库,溪翁庄镇313省道云佛滑雪场,Ski Resort,116.881516,40.473934,yun fo hua xue chang,xi weng zhuang zhen 313 sheng dao yun fo hua xue chang,mi yun shui ku
安亲王府,,崇文门,东交民巷15号法国使馆旧址,Historical Building,116.410721,39.90276,an qin wang fu,dong jiao min xiang 15 hao fa guo shi guan jiu zhi,chong wen men
八达岭长城,61118002;69122222,八达岭,军都山关沟古道北口,Acient Ruins,116.016777,40.356159,ba da ling chang cheng,jun du shan guan gou gu dao bei kou,ba da ling
白河峡谷营地,139****0339,白河湾,琉璃庙镇青石岭村,Other Attractions/Side Trip,116.681654,40.663221,bai he xia gu ying di,liu li miao zhen qing shi ling cun,bai he wan
北京后花园,60707588;69768087,昌平区,后二路,Natural Scenery,116.077477,40.137981,bei jing hou hua yuan,hou er lu,chang ping qu
白马关堡,,密云区其他,西火路与白南路交叉路口往东北约130米,Acient Ruins,116.916054,40.714813,bai ma guan bao,xi huo lu yu bai nan lu jiao cha lu kou wang dong bei yue 130 mi,mi yun qu qi ta
妙应寺白塔,66166099,阜成门,阜成门内大街171,Historical Building,116.363335,39.924885,miao ying si bai ta,fu cheng men nei da jie 171,fu cheng men
白云观,63463531;63396074,复兴门,白云观街9号,Religion,116.343773,39.90126,bai yun guan,bai yun guan jie 9 hao,fu xing men
百望山森林公园,62884356;62884508,百望山森林公园/309医院,黑山扈北口19号,Forest Park,116.255619,40.02997,bai wang shan sen lin gong yuan,hei shan hu bei kou 19 hao,bai wang shan sen lin gong yuan / 309 yi yuan
北京海洋馆,62176655,北下关,高梁桥斜街乙18号,Aquarium,116.340965,39.944674,bei jing hai yang guan,gao liang qiao xie jie yi 18 hao,bei xia guan
碧云寺,62594463;62591222,香山/植物园,香山买卖街40号香山公园内,Religion,116.19136,39.997486,bi yun si,xiang shan mai mai jie 40 hao xiang shan gong yuan nei,xiang shan / zhi wu yuan
蔡锷故居,,新街口,棉花胡同66号,Former Residence of Celebrity,116.376465,39.937786,cai e gu ju,mian hua hu tong 66 hao,xin jie kou
蔡元培故居,65275840,王府井/东单,东堂子胡同75号（灯市口地铁站C东南口步行430米）,Former Residence of Celebrity,116.418419,39.914402,cai yuan pei gu ju,dong tang zi hu tong 75 hao （ deng shi kou di tie zhan C dong nan kou bu xing 430 mi ）,wang fu jing / dong dan
程砚秋故居,,西四,西四北三条39号,Former Residence of Celebrity,116.367714,39.927856,cheng yan qiu gu ju,xi si bei san tiao 39 hao,xi si
北京大观园,63582011;63544993,右安门,南菜园西街12号,Garden,116.35614,39.871433,bei jing da guan yuan,nan cai yuan xi jie 12 hao,you an men
大寒岭关城,87012690,门头沟区,018县道,Historical Building,115.819058,39.940858,da han ling guan cheng,018 xian dao,men tou gou qu
敕建大觉禅寺,62456163;62456162,海淀区,苏家坨镇大觉寺路9号,Religion,116.106022,40.052825,chi jian da jue shan si,su jia tuo zhen da jue si lu 9 hao,hai dian qu
地坛公园,64214657,雍和宫/地坛,安定门外大街,Acient Ruins,116.415459,39.954182,di tan gong yuan,an ding men wai da jie,yong he gong / di tan
法海禅寺,88715776,模式口,模式口大街48号,Historical Building,116.159459,39.941479,fa hai shan si,mo shi kou da jie 48 hao,mo shi kou
法源寺,63534171,牛街,法源寺前街7号,Religion,116.369888,39.885384,fa yuan si,fa yuan si qian jie 7 hao,niu jie
冯国璋故居,,地安门,帽儿胡同13号（南锣鼓巷地铁站E西北口步行450米）,Former Residence of Celebrity,116.401283,39.936455,feng guo zhang gu ju,mao er hu tong 13 hao （ nan luo gu xiang di tie zhan E xi bei kou bu xing 450 mi ）,di an men
北京凤凰岭,62455933,海淀区,苏家坨镇凤凰岭路19号,Natural Scenery,116.084178,40.107709,bei jing feng huang ling,su jia tuo zhen feng huang ling lu 19 hao,hai dian qu
缸瓦市基督教堂,66176181;66172838,西四,西四南大街57号（西四丁字路口南侧路西）,Religion,116.373155,39.921385,gang wa shi ji du jiao tang,xi si nan da jie 57 hao （ xi si ding zi lu kou nan ce lu xi ）,xi si
龚自珍故居,,宣武门,上斜街50号,Former Residence of Celebrity,116.369118,39.897587,gong zi zhen gu ju,shang xie jie 50 hao,xuan wu men
古崖居景区,69110333,延庆区其他,古龙路东门营村,Acient Ruins,115.775452,40.462917,gu ya ju jing qu,gu long lu dong men ying cun,yan qing qu qi ta
故宫博物院,4009501925,王府井/东单,景山前街4号,Museum,116.397049,39.917965,gu gong bo wu yuan,jing shan qian jie 4 hao,wang fu jing / dong dan
郭守敬纪念馆,83224626,后海/什刹海,德胜门西大街甲60号汇通祠内,Memorial Hall,116.374237,39.948044,guo shou jing ji nian guan,de sheng men xi da jie jia 60 hao hui tong ci nei,hou hai / shi cha hai
孔庙和国子监博物馆,64075259;64057214,雍和宫/地坛,国子监街15号,Museum,116.413933,39.946651,kong miao he guo zi jian bo wu guan,guo zi jian jie 15 hao,yong he gong / di tan
和敬公主府,64019808,东四,张自忠路7号（原铁狮子胡同）,Historical Building,116.413437,39.934841,he jing gong zhu fu,zhang zi zhong lu 7 hao （ yuan tie shi zi hu tong ）,dong si
红螺寺,60681639;60681175,红螺寺,怀柔镇卢庄村北红螺东路2号,Religion,116.62487,40.383263,hong luo si,huai rou zhen lu zhuang cun bei hong luo dong lu 2 hao,hong luo si
鸿焱湖风景区,,怀柔区,桥梓镇沙峪口水库,Natural Scenery,116.48407,40.286706,hong yan hu feng jing qu,qiao zi zhen sha yu kou shui ku,huai rou qu
虎峪自然风景区,69771720,昌平区,南口地区虎峪路,Natural Scenery,116.106789,40.325191,hu yu zi ran feng jing qu,nan kou di qu hu yu lu,chang ping qu
黄花城水库,69648041,黄花城水长城,九渡河镇,Dam,116.345894,40.420753,huang hua cheng shui ku,jiu du he zhen,huang hua cheng shui chang cheng
纪晓岚故居纪念馆,63036712,虎坊桥,大栅栏街道珠市口西大街241号（陕西巷南口）,Memorial Hall,116.387245,39.890057,ji xiao lan gu ju ji nian guan,da zha lan jie dao zhu shi kou xi da jie 241 hao （ shan xi xiang nan kou ）,hu fang qiao
箭扣长城,61611765,渤海镇/慕田峪长城,雁栖镇西栅子村,Historical Building,116.534496,40.446585,jian kou chang cheng,yan qi zhen xi zha zi cun,bo hai zhen / mu tian yu chang cheng
戒台寺,69805942;69806611,门头沟区,永定镇,Religion,116.086519,39.87049,jie tai si,yong ding zhen,men tou gou qu
京东大峡谷,60968317;60968260,平谷区,昌金路山东庄镇鱼子山村,Natural Scenery,117.168597,40.245186,jing dong da xia gu,chang jin lu shan dong zhuang zhen yu zi shan cun,ping gu qu
京东石林峡风景区,69989816;60987922,石林峡,雕窝村73号,Natural Scenery,117.241455,40.262119,jing dong shi lin xia feng jing qu,diao wo cun 73 hao,shi lin xia
精灵谷自然风景区,69016269;136****8016,密云区其他,石城镇琉辛路45号,Natural Scenery,116.781154,40.595542,jing ling gu zi ran feng jing qu,shi cheng zhen liu xin lu 45 hao,mi yun qu qi ta
敬谨亲王府,,西单,教育街3号,Historical Building,116.372749,39.905262,jing jin qin wang fu,jiao yu jie 3 hao,xi dan
九谷口自然风景区,89696677,青龙峡,河防口村548号（近雁栖湖）,Natural Scenery,116.650459,40.448132,jiu gu kou zi ran feng jing qu,he fang kou cun 548 hao （ jin yan qi hu ）,qing long xia
九眼楼生态长城展示区,60186019,渤海镇/慕田峪长城,四海镇石窑村,Acient Ruins,116.491074,40.491745,jiu yan lou sheng tai chang cheng zhan shi qu,si hai zhen shi yao cun,bo hai zhen / mu tian yu chang cheng
居庸关长城,60761005;69771665,居庸关长城,南口镇居庸关村,Historical Building,116.073051,40.291023,ju yong guan chang cheng,nan kou zhen ju yong guan cun,ju yong guan chang cheng
可园,183****1301,地安门,帽儿胡同7-13号(南锣鼓巷地铁站E西北口步行400米),Natural Scenery,116.401894,39.936516,ke yuan,mao er hu tong 7 - 13 hao ( nan luo gu xiang di tie zhan E xi bei kou bu xing 400 mi ),di an men
敕赐和平寺,69778491,昌平区,南口镇花塔村,Religion,116.064766,40.223297,chi si he ping si,nan kou zhen hua ta cun,chang ping qu
黎元洪故居,,王府井/东单,王府井大街27号,Memorial Hall,116.410568,39.922607,li yuan hong gu ju,wang fu jing da jie 27 hao,wang fu jing / dong dan
牛街礼拜寺,63532564,牛街,牛街18号,Religion,116.364594,39.885674,niu jie li bai si,niu jie 18 hao,niu jie
礼亲王府,,西四,西城根南街9号（近西安门）,Historical Building,116.37645,39.920647,li qin wang fu,xi cheng gen nan jie 9 hao （ jin xi an men ）,xi si
李大钊烈士陵园,62591044,香山/植物园,香山万安里1号,Cemetery,116.231453,39.981068,li da zhao lie shi ling yuan,xiang shan wan an li 1 hao,xiang shan / zhi wu yuan
历代帝王庙博物馆,66517739,阜成门,新街口街道阜成门内大街131号,Religion,116.367355,39.924026,li dai di wang miao bo wu guan,xin jie kou jie dao fu cheng men nei da jie 131 hao,fu cheng men
濂泉响谷,61611740,渤海镇/慕田峪长城,八道河乡八道河村,Natural Scenery,116.57502,40.495392,lian quan xiang gu,ba dao he xiang ba dao he cun,bo hai zhen / mu tian yu chang cheng
林白水故居,,虎坊桥,棉花巷2号（虎坊桥地铁站A西北口步行440米）,Former Residence of Celebrity,116.379417,39.890312,lin bai shui gu ju,mian hua xiang 2 hao （ hu fang qiao di tie zhan A xi bei kou bu xing 440 mi ）,hu fang qiao
龙泉峪长城,135****2020,黄花城水长城,龙泉峪4号,Historical Building,116.274261,40.409771,long quan yu chang cheng,long quan yu 4 hao,huang hua cheng shui chang cheng
吕祖宫,66068978,复兴门,顺城街15号,Religion,116.357254,39.912895,lv zu gong,shun cheng jie 15 hao,fu xing men
落坡岭风景区,51860409,门头沟区,109国道与大台路交叉口西北50米,Natural Scenery,115.981262,39.986881,luo po ling feng jing qu,109 guo dao yu da tai lu jiao cha kou xi bei 50 mi,men tou gou qu
茅盾故居,64040520,南锣鼓巷/鼓楼东大街,后圆恩寺胡同13号,Memorial Hall,116.404739,39.93861,mao dun gu ju,hou yuan en si hu tong 13 hao,nan luo gu xiang / gu lou dong da jie
梅兰芳纪念馆,83223598-8001,新街口,护国寺大街9号,Memorial Hall,116.379417,39.935562,mei lan fang ji nian guan,hu guo si da jie 9 hao,xin jie kou
黑龙潭风景区,61016289;61016295,密云区其他,密关路石城镇大关桥西侧,Natural Scenery,116.776405,40.565098,hei long tan feng jing qu,mi guan lu shi cheng zhen da guan qiao xi ce,mi yun qu qi ta
密云水库,69014489,密云区其他,琉辛路,Modern Building,116.957751,40.514187,mi yun shui ku,liu xin lu,mi yun qu qi ta
妙峰山风景名胜区,61882936;61882920,门头沟区,妙峰山镇涧沟村,Natural Scenery,116.026185,40.063017,miao feng shan feng jing ming sheng qu,miao feng shan zhen jian gou cun,men tou gou qu
明皇文化艺术馆,69747257,昌平镇,西关环岛西北侧,Exhibition Centre,116.213211,40.224319,ming huang wen hua yi zhu guan,xi guan huan dao xi bei ce,chang ping zhen
明十三陵,60761005,十三陵水库,昌赤路十三陵定陵,Acient Ruins,116.235741,40.280537,ming shi san ling,chang chi lu shi san ling ding ling,shi san ling shui ku
慕田峪长城,61626876;61626022,渤海镇/慕田峪长城,渤海镇怀黄路慕田峪环岛旁,Historical Building,116.565078,40.431632,mu tian yu chang cheng,bo hai zhen huai huang lu mu tian yu huan dao pang,bo hai zhen / mu tian yu chang cheng
那王府,86080641,安定门,宝钞胡同甲19号,Historical Building,116.398972,39.946522,na wang fu,bao chao hu tong jia 19 hao,an ding men
北京麋鹿生态实验中心,69280675,大兴区,鹿苑路(近旧忠路)南海子公园麋鹿苑内,Museum,116.457545,39.777035,bei jing mi lu sheng tai shi yan zhong xin,lu yuan lu ( jin jiu zhong lu ) nan hai zi gong yuan mi lu yuan nei,da xing qu
欧阳予倩故居,,东四,张自忠路甲5号（张自忠路地铁站A西北口步行240米）,Memorial Hall,116.413788,39.933884,ou yang yu qian gu ju,zhang zi zhong lu jia 5 hao （ zhang zi zhong lu di tie zhan A xi bei kou bu xing 240 mi ）,dong si
蒲洼狩猎场,61371400,房山区,西南深山区蒲洼乡芦子水村,Other Attractions/Side Trip,115.555328,39.764679,pu wa shou lie chang,xi nan shen shan qu pu wa xiang lu zi shui cun,fang shan qu
齐白石故居,,复兴门,跨车胡同13号,Former Residence of Celebrity,116.364166,39.914574,qi bai shi gu ju,kua che hu tong 13 hao,fu xing men
崇礼住宅,,东四,东四六条63-65号,Historical Building,116.419991,39.930378,chong li zhu zhai,dong si liu tiao 63 - 65 hao,dong si
庆王府,63443666,后海/什刹海,定阜街3号院,Historical Building,116.380745,39.935982,qing wang fu,ding fu jie 3 hao yuan,hou hai / shi cha hai
燃灯佛舍利塔,,新华大街,大成街临1号,Religion,116.665756,39.915611,ran deng fo she li ta,da cheng jie lin 1 hao,xin hua da jie
僧格林沁祠,,地安门,地安门东大街47号,Religion,116.407005,39.933685,seng ge lin qin ci,di an men dong da jie 47 hao,di an men
上方山云水洞,61315542,上方山国家森林公园,韩村河镇上方山水云洞,Natural Scenery,115.813812,39.667839,shang fang shan yun shui dong,han cun he zhen shang fang shan shui yun dong,shang fang shan guo jia sen lin gong yuan
京报馆,63152362;185****1925,虎坊桥,魏染胡同30号（虎坊桥地铁站A西北口步行410米）,Historical Building,116.380722,39.891064,jing bao guan,wei ran hu tong 30 hao （ hu fang qiao di tie zhan A xi bei kou bu xing 410 mi ）,hu fang qiao
圣莲山风景区,4008087179,房山区,史家营乡贾金路乡柳林水村,Natural Scenery,115.699615,39.841507,sheng lian shan feng jing qu,shi jia ying xiang jia jin lu xiang liu lin shui cun,fang shan qu
十渡风景名胜区,185****2413,十渡镇,十渡镇九渡大街9号,Natural Scenery,115.504501,39.658657,shi du feng jing ming sheng qu,shi du zhen jiu du da jie 9 hao,shi du zhen
石花洞,60312243;60312170,河北镇,河北镇南车营村石花洞路石花洞景区,Natural Scenery,115.946274,39.795734,shi hua dong,he bei zhen nan che ying cun shi hua dong lu shi hua dong jing qu,he bei zhen
水关长城,61118002,八达岭,石佛寺村（京藏高速水关长城出口处）,Historical Building,116.032066,40.343105,shui guan chang cheng,shi fo si cun （ jing cang gao su shui guan chang cheng chu kou chu ）,ba da ling
顺承郡王府,,西四,旧赵登禹路三十二号,Historical Building,116.363777,39.922951,shun cheng jun wang fu,jiu zhao deng yu lu san shi er hao,xi si
司马台长城,81009999;81008141,司马台长城,司马台村,Historical Building,117.287102,40.65786,si ma tai chang cheng,si ma tai cun,si ma tai chang cheng
宋庆龄故居,64044205;64015256,后海/什刹海,后海北沿46号,Former Residence of Celebrity,116.383072,39.945522,song qing ling gu ju,hou hai bei yan 46 hao,hou hai / shi cha hai
肃亲王府,,王府井/东单,正义路与东长安街交叉口南280米,Historical Building,116.407318,39.905342,su qin wang fu,zheng yi lu yu dong chang an jie jiao cha kou nan 280 mi,wang fu jing / dong dan
孙中山行馆,,地安门,张自忠路23号,Former Residence of Celebrity,116.410995,39.933914,sun zhong shan xing guan,zhang zi zhong lu 23 hao,di an men
谭嗣同故居,86553939,广内大街,牛街街道北半截胡同41号(近菜市口大街),Memorial Hall,116.374039,39.886436,tan si tong gu ju,niu jie jie dao bei ban jie hu tong 41 hao ( jin cai shi kou da jie ),guang nei da jie
潭柘寺景区,60861699;60863929,潭柘寺,潭柘寺风景区,Religion,116.030594,39.903419,tan zhe si jing qu,tan zhe si feng jing qu,tan zhe si
涛贝勒府,,后海/什刹海,柳荫街27号13中,Historical Building,116.384544,39.936951,tao bei le fu,liu yin jie 27 hao 13 zhong,hou hai / shi cha hai
桃源仙谷,61025667;61025309,密云区其他,石城镇南石城村,Natural Scenery,116.794136,40.541542,tao yuan xian gu,shi cheng zhen nan shi cheng cun,mi yun qu qi ta
田汉故居,,东四,细管胡同9号附近,Former Residence of Celebrity,116.41552,39.937164,tian han gu ju,xi guan hu tong 9 hao fu jin,dong si
团河行宫,61285872,黄村,团河路,Historical Building,116.378791,39.747578,tuan he xing gong,tuan he lu,huang cun
万松老人塔,,西四,西四砖塔胡同口南侧（西四肯德基对面）,Historical Building,116.373253,39.922096,wan song lao ren ta,xi si zhuan ta hu tong kou nan ce （ xi si ken de ji dui mian ）,xi si
文丞相祠,64014968,东四,府学胡同63号,Religion,116.410423,39.936062,wen cheng xiang ci,fu xue hu tong 63 hao,dong si
卧佛寺,82598771,香山/植物园,香山街道卧佛寺路北京植物园,Religion,116.207275,40.007477,wo fo si,xiang shan jie dao wo fo si lu bei jing zhi wu yuan,xiang shan / zhi wu yuan
西什库天主堂,66175198,西四,西什库大街33号,Religion,116.378777,39.925026,xi shi ku tian zhu tang,xi shi ku da jie 33 hao,xi si
贤良祠,,地安门,地安门西大街103号（东官房车站旁）,Religion,116.386902,39.933716,xian liang ci,di an men xi da jie 103 hao （ dong guan fang che zhan pang ）,di an men
辛亥滦州革命先烈纪念园,65824516,海淀区,温泉路北京老年医院内,Cemetery,116.165314,40.050629,xin hai luan zhou ge ming xian lie ji nian yuan,wen quan lu bei jing lao nian yi yuan nei,hai dian qu
徐悲鸿纪念馆,62276936,新街口,新街口北大街53号,Memorial Hall,116.371567,39.945068,xu bei hong ji nian guan,xin jie kou bei da jie 53 hao,xin jie kou
循郡王府,,安定门,安定门内大街方家胡同13-15号,Historical Building,116.414558,39.944405,xun jun wang fu,an ding men nei da jie fang jia hu tong 13 - 15 hao,an ding men
燕古长城遗址,,昌平区,长峪城登山步道西北侧90米,Acient Ruins,115.899078,40.217508,yan gu chang cheng yi zhi,chang yu cheng deng shan bu dao xi bei ce 90 mi,chang ping qu
阳台山自然风景区,62456816,海淀区,阳台山路北京市第四十七中学西侧,Natural Scenery,116.10553,40.068069,yang tai shan zi ran feng jing qu,yang tai shan lu bei jing shi di si shi qi zhong xue xi ce,hai dian qu
杨椒山祠,,宣武门,宣外大街达智桥12号,Religion,116.373177,39.896584,yang jiao shan ci,xuan wai da jie da zhi qiao 12 hao,xuan wu men
野鸭湖国家湿地公园,69131458,康庄,康庄镇刘浩营村,Natural Scenery,115.847504,40.413631,ye ya hu guo jia shi di gong yuan,kang zhuang zhen liu hao ying cun,kang zhuang
颐和园,62881144,颐和园,新建宫门路19号,Garden,116.281403,39.997612,yi he yuan,xin jian gong men lu 19 hao,yi he yuan
银狐洞,60363236,房山区,下英水村北一区49号,Natural Scenery,115.903481,39.798519,yin hu dong,xia ying shui cun bei yi qu 49 hao,fang shan qu
雍和宫,84191906;84191907,安定门,雍和宫大街28号,Historical Building,116.417313,39.947235,yong he gong,yong he gong da jie 28 hao,an ding men
于谦祠,,王府井/东单,西裱褙胡同甲23号（东单地铁站C东南口步行290米）,Religion,116.423264,39.907684,yu qian ci,xi biao bei hu tong jia 23 hao （ dong dan di tie zhan C dong nan kou bu xing 290 mi ）,wang fu jing / dong dan
元大都城垣遗址公园,84648252,安贞,对外经贸大学南门对面,Acient Ruins,116.40779,39.97583,yuan da du cheng yuan yi zhi gong yuan,dui wai jing mao da xue nan men dui mian,an zhen
圆明园遗址公园,82539566;62628501,颐和园,青龙桥街道清华西路28号（近地铁4号线圆明园站）,Acient Ruins,116.303329,40.006519,yuan ming yuan yi zhi gong yuan,qing long qiao jie dao qing hua xi lu 28 hao （ jin di tie 4 hao xian yuan ming yuan zhan ）,yi he yuan
袁崇焕墓和祠,67187057,广渠门内,本家润园C区东门,Religion,116.438087,39.895222,yuan chong huan mu he ci,ben jia run yuan C qu dong men,guang qu men nei
袁督师庙,,左安门,龙潭路8号龙潭公园内（西北角）,Religion,116.436836,39.880295,yuan du shi miao,long tan lu 8 hao long tan gong yuan nei （ xi bei jiao ）,zuo an men
月坛公园,68020940,月坛,月坛北街甲6号,Garden,116.352234,39.916424,yue tan gong yuan,yue tan bei jie jia 6 hao,yue tan
云居寺,61389612;61389604,云居滑雪场,大石窝镇水头村,Religion,115.775017,39.609077,yun ju si,da shi wo zhen shui tou cun,yun ju hua xue chang
斋堂城遗址,,爨底下村,斋堂村102309号,Acient Ruins,115.704788,39.977283,zhai tang cheng yi zhi,zhai tang cun 102309 hao,cuan di xia cun
斋堂水库,64823746,爨底下村,斋堂水库（109国道南300米）,Modern Building,115.675346,39.963058,zhai tang shui ku,zhai tang shui ku （ 109 guo dao nan 300 mi ）,cuan di xia cun
詹天佑纪念馆,69121006;69121516,八达岭,216省道八达岭旅游风景区内,Memorial Hall,116.006799,40.358429,zhan tian you ji nian guan,216 sheng dao ba da ling lv you feng jing qu nei,ba da ling
张恨水故居,,西四,砖塔胡同95号,Former Residence of Celebrity,116.367584,39.922291,zhang hen shui gu ju,zhuan ta hu tong 95 hao,xi si
张之洞故居,,地安门,白米斜街11号,Former Residence of Celebrity,116.395332,39.934837,zhang zhi dong gu ju,bai mi xie jie 11 hao,di an men
郑亲王府,,西单,大木仓胡同35号,Historical Building,116.370689,39.91206,zheng qin wang fu,da mu cang hu tong 35 hao,xi dan
中央广播电视塔,88416232;68450715,航天桥,西三环中路11号,Aerial View,116.307107,39.919074,zhong yang guang bo dian shi ta,xi san huan zhong lu 11 hao,hang tian qiao
朱彝尊故居,,宣武门,海柏胡同16号,Former Residence of Celebrity,116.378052,39.896626,zhu yi zun gu ju,hai bai hu tong 16 hao,xuan wu men
太平洋海底世界,68714695,航天桥,西三环中路11号中央广播电视塔下,Aquarium,116.306258,39.919084,tai ping yang hai di shi jie,xi san huan zhong lu 11 hao zhong yang guang bo dian shi ta xia,hang tian qiao
富国海底世界,65913398;65935263,三里屯/工体,三里屯街道工体南路工人体育场南门,Aquarium,116.446564,39.928001,fu guo hai di shi jie,san li tun jie dao gong ti nan lu gong ren ti yu chang nan men,san li tun / gong ti
北京石景山游乐园,88925159,古城/八角,石景山路25号,Amusement Park,116.208758,39.911978,bei jing shi jing shan you le yuan,shi jing shan lu 25 hao,gu cheng / ba jiao
中青旅遨游网（亚运村连锁店）,89192052,亚运村,慧忠里103号洛克时代B座1楼1010室,Travel Agency,116.406904,40.002225,zhong qing lv ao you wang （ ya yun cun lian suo dian ）,hui zhong li 103 hao luo ke shi dai B zuo 1 lou 1010 shi,ya yun cun
中国Travel Agency,8008107171,左家庄,曙光大厦C座2层,Travel Agency,116.451424,39.963604,zhong guo T r a v e l   A g e n c y,shu guang da sha C zuo 2 ceng,zuo jia zhuang
森林国际Travel Agency,57282825,牡丹园/北太平庄,北三环中路甲3号,Travel Agency,116.390312,39.969112,sen lin guo ji T r a v e l   A g e n c y,bei san huan zhong lu jia 3 hao,mu dan yuan / bei tai ping zhuang
中青旅遨游网,89192068,苏州桥,长春桥路万柳亿城中心A座1层101室,Travel Agency,116.302483,39.960297,zhong qing lv ao you wang,chang chun qiao lu wan liu yi cheng zhong xin A zuo 1 ceng 101 shi,su zhou qiao
中国妇女Travel Agency,186****3550,王府井/东单,灯市口大街50号好润大厦1-3层,Travel Agency,116.415413,39.918503,zhong guo fu nv T r a v e l   A g e n c y,deng shi kou da jie 50 hao hao run da sha 1 - 3 ceng,wang fu jing / dong dan
邮电国际Travel Agency,65098833,朝阳公园/团结湖,朝阳北路225号318室,Travel Agency,116.463913,39.923634,you dian guo ji T r a v e l   A g e n c y,zhao yang bei lu 225 hao 318 shi,zhao yang gong yuan / tuan jie hu
中国康辉Travel Agency,58690940;58690941,建外大街,东三环中路39号建外SOHO东区9号商铺9327室,Travel Agency,116.458321,39.906399,zhong guo kang hui T r a v e l   A g e n c y,dong san huan zhong lu 39 hao jian wai S O H O dong qu 9 hao shang pu 9327 shi,jian wai da jie
黄金假日旅行网,68589990,阜成门,阜外大街二号万通金融中心A座六层,Travel Agency,116.353951,39.922882,huang jin jia ri lv xing wang,fu wai da jie er hao wan tong jin rong zhong xin A zuo liu ceng,fu cheng men
港中旅,63574003,广内大街,广安门内大街338号港中旅大厦15楼,Travel Agency,116.353958,39.888901,gang zhong lv,guang an men nei da jie 338 hao gang zhong lv da sha 15 lou,guang nei da jie
中青旅遨游网,89192082,广外大街,广安门外大街305号西堤红山二区朝南底商1-29号,Travel Agency,116.334131,39.893311,zhong qing lv ao you wang,guang an men wai da jie 305 hao xi di hong shan er qu zhao nan di shang 1 - 29 hao,guang wai da jie
华远国际Travel Agency,68038261,月坛,南礼士路36号,Travel Agency,116.353493,39.922241,hua yuan guo ji T r a v e l   A g e n c y,nan li shi lu 36 hao,yue tan
中国康辉Travel Agency,65877701,朝阳公园/团结湖,农展馆南路5号京朝大厦1层,Travel Agency,116.469833,39.934364,zhong guo kang hui T r a v e l   A g e n c y,nong zhan guan nan lu 5 hao jing zhao da sha 1 ceng,zhao yang gong yuan / tuan jie hu
北京青年Travel Agency,80447789,劲松/潘家园,潘家园南里12号潘家园大厦3层北区,Travel Agency,116.450575,39.871685,bei jing qing nian T r a v e l   A g e n c y,pan jia yuan nan li 12 hao pan jia yuan da sha 3 ceng bei qu,jing song / pan jia yuan
中国职工国际Travel Agency,65128680;85610361,建外大街,日坛路1号日坛宾馆二层,Travel Agency,116.440686,39.917046,zhong guo zhi gong guo ji T r a v e l   A g e n c y,ri tan lu 1 hao ri tan bin guan er ceng,jian wai da jie
中青旅遨游网,89192055,上地,上地东路上地佳园23号楼一层6号,Travel Agency,116.316315,40.034985,zhong qing lv ao you wang,shang di dong lu shang di jia yuan 23 hao lou yi ceng 6 hao,shang di
中青旅遨游网,89192091,亮马桥/三元桥,曙光曙光西里b座,Travel Agency,116.451347,39.96072,zhong qing lv ao you wang,shu guang shu guang xi li b zuo,liang ma qiao / san yuan qiao
中青旅遨游网,89192081,复兴门,太平桥大街98-5号中海凯旋1号楼3单元1层,Travel Agency,116.365132,39.913882,zhong qing lv ao you wang,tai ping qiao da jie 98 - 5 hao zhong hai kai xuan 1 hao lou 3 dan yuan 1 ceng,fu xing men
中青旅遨游网,89192059,望京,望京湖光中街一号LOFTEL大厦首层,Travel Agency,116.46682,39.99751,zhong qing lv ao you wang,wang jing hu guang zhong jie yi hao L O F T E L da sha shou ceng,wang jing
中国康辉Travel Agency,83988398,西单,华远北街2号通港大厦1楼,Travel Agency,116.372643,39.913525,zhong guo kang hui T r a v e l   A g e n c y,hua yuan bei jie 2 hao tong gang da sha 1 lou,xi dan
中青旅遨游网,89192098,西直门/动物园,交大东路钻河中心2号楼1层122室,Travel Agency,116.350658,39.944538,zhong qing lv ao you wang,jiao da dong lu zuan he zhong xin 2 hao lou 1 ceng 122 shi,xi zhi men / dong wu yuan
中国康辉Travel Agency,63108885,宣武门,宣武门外大街8号庄胜崇光百货6层西,Travel Agency,116.375389,39.89629,zhong guo kang hui T r a v e l   A g e n c y,xuan wu men wai da jie 8 hao zhuang sheng chong guang bai huo 6 ceng xi,xuan wu men
中国国际Travel Agency,4000079065,雍和宫/地坛,建外大街28号,Travel Agency,116.42083,39.948772,zhong guo guo ji T r a v e l   A g e n c y,jian wai da jie 28 hao,yong he gong / di tan
中国铁道Travel Agency,69448699,顺义城区,新顺南大街9号,Travel Agency,116.650848,40.127342,zhong guo tie dao T r a v e l   A g e n c y,xin shun nan da jie 9 hao,shun yi cheng qu
金帆水上运动俱乐部,,后海/什刹海,德胜门内大街105号西南40米西北方向150米,Water Park,116.380836,39.943825,jin fan shui shang yun dong ju le bu,de sheng men nei da jie 105 hao xi nan 40 mi xi bei fang xiang 150 mi,hou hai / shi cha hai
燕山公园,69341357,房山区,迎风中路14号,Park/Square,115.957008,39.726963,yan shan gong yuan,ying feng zhong lu 14 hao,fang shan qu
乔波室内滑雪场,60413499,马坡牛栏山镇,顺安路6号,Ski Resort,116.661389,40.199979,qiao bo shi nei hua xue chang,shun an lu 6 hao,ma po niu lan shan zhen
北京金隅凤山温泉度假村,60711188;60713942,昌平镇,南邵镇蟒山路10号（近水库路）,Hot Spring,116.284482,40.249643,bei jing jin yu feng shan wen quan du jia cun,nan shao zhen mang shan lu 10 hao （ jin shui ku lu ）,chang ping zhen
北京欢乐谷,67389898;67383333-8004,北京欢乐谷,南磨房地区东四环小武基北路,Theme Park,116.494705,39.867229,bei jing huan le gu,nan mo fang di qu dong si huan xiao wu ji bei lu,bei jing huan le gu
天池乐活汤泉,69332332;69331586,燕山,向阳街道高家坡路11号,Hot Spring,115.946014,39.730549,tian chi le huo tang quan,xiang yang jie dao gao jia po lu 11 hao,yan shan
北宫国家森林公园,83840830,丰台区,大灰厂东路55号,Forest Park,116.117752,39.866119,bei gong guo jia sen lin gong yuan,da hui chang dong lu 55 hao,feng tai qu
中国美术馆,64006326;64011816,王府井/东单,五四大街1号,Art Gallery,116.408951,39.925079,zhong guo mei zhu guan,wu si da jie 1 hao,wang fu jing / dong dan
圣恩禅寺,60725927,昌平区,崔村镇香堂文化新村10区,Religion,116.364662,40.252185,sheng en shan si,cui cun zhen xiang tang wen hua xin cun 10 qu,chang ping qu
川谷度假村,136****6834,神堂峪,栖镇神堂峪南不夜谷门口,Other Attractions/Side Trip,116.64679,40.413948,chuan gu du jia cun,qi zhen shen tang yu nan bu ye gu men kou,shen tang yu
银锭桥三号,,后海/什刹海,后海银锭桥胡同3号(银锭桥南5米),Natural Scenery,116.393394,39.938801,yin ding qiao san hao,hou hai yin ding qiao hu tong 3 hao ( yin ding qiao nan 5 mi ),hou hai / shi cha hai
北京展览馆,57960055;57960023,西直门/动物园,西直门外大街135号(近地铁西直门站),Exhibition Centre,116.344131,39.940483,bei jing zhan lan guan,xi zhi men wai da jie 135 hao ( jin di tie xi zhi men zhan ),xi zhi men / dong wu yuan
宋庄画家村画廊,69598343;186****8869,宋庄,宋庄镇任庄村北1号,Art Gallery,116.749985,39.951881,song zhuang hua jia cun hua lang,song zhuang zhen ren zhuang cun bei 1 hao,song zhuang
天安门广场,63095745,天安门广场,东长安街与广场东侧路交叉口西南角,Square,116.397552,39.903568,tian an men guang chang,dong chang an jie yu guang chang dong ce lu jiao cha kou xi nan jiao,tian an men guang chang
北京前门大栅栏,63109680,前门/大栅栏,大栅栏街6号（近前门地铁站I口、前门大街）,Leisure Block,116.397041,39.896202,bei jing qian men da zha lan,da zha lan jie 6 hao （ jin qian men di tie zhan I kou 、 qian men da jie ）,qian men / da zha lan
南宫旅游景区,83316030;83313778,南宫,王佐镇南宫南路1号,Other Attractions/Side Trip,116.152122,39.794563,nan gong lv you jing qu,wang zuo zhen nan gong nan lu 1 hao,nan gong
北京渔阳国际滑雪场,69908282;185****8666,平谷区,大旺务村688号,Ski Resort,117.147703,40.077147,bei jing yu yang guo ji hua xue chang,da wang wu cun 688 hao,ping gu qu
阳光星期八公园,68242059,五棵松,金沟河路26号,City Park,116.254463,39.916153,yang guang xing qi ba gong yuan,jin gou he lu 26 hao,wu ke song
天鹅国旅,,劲松/潘家园,农光南里1号龙辉大厦内（近劲松洋华堂）,Travel Agency,116.461662,39.880554,tian e guo lv,nong guang nan li 1 hao long hui da sha nei （ jin jing song yang hua tang ）,jing song / pan jia yuan
北京电影旅游城,82043638,牡丹园/北太平庄,北三环中路77号,Film Base,116.357796,39.968636,bei jing dian ying lv you cheng,bei san huan zhong lu 77 hao,mu dan yuan / bei tai ping zhuang
白草畔自然风景区,60369037;60369038,霞云岭国家森林公园,108国道四马台村,Natural Scenery,115.612893,39.784564,bai cao pan zi ran feng jing qu,108 guo dao si ma tai cun,xia yun ling guo jia sen lin gong yuan
爨底下村,69818988,爨底下村,斋堂镇109国道爨柏景区内,Acient Town,115.646083,39.99561,cuan di xia cun,zhai tang zhen 109 guo dao cuan bai jing qu nei,cuan di xia cun
玲珑公园,88131225,航天桥,八里庄北里3号（慈寿寺地铁站C2东南口步行280米）,City Park,116.295227,39.929131,ling long gong yuan,ba li zhuang bei li 3 hao （ ci shou si di tie zhan C 2 dong nan kou bu xing 280 mi ）,hang tian qiao
北京上方山国家森林公园,61315542;61315543,上方山国家森林公园,046县道上方山国家森林公园,Forest Park,115.826675,39.67403,bei jing shang fang shan guo jia sen lin gong yuan,046 xian dao shang fang shan guo jia sen lin gong yuan,shang fang shan guo jia sen lin gong yuan
南新仓文化休闲街,64010849,东四,东四十条22号(近东门仓胡同),Leisure Block,116.43116,39.932449,nan xin cang wen hua xiu xian jie,dong si shi tiao 22 hao ( jin dong men cang hu tong ),dong si
海淀公园,62850569,苏州桥,海淀公园路与铜牛路交叉口东南角,City Park,116.295269,39.987077,hai dian gong yuan,hai dian gong yuan lu yu tong niu lu jiao cha kou dong nan jiao,su zhou qiao
钟楼,84027869;84027870,地安门,钟楼湾胡同临字9号,Historical Building,116.395859,39.942432,zhong lou,zhong lou wan hu tong lin zi 9 hao,di an men
神舟国旅,84716758,望京,阜安西路望京西园三区316号楼2楼（近阜通西大街）,Travel Agency,116.474899,39.998138,shen zhou guo lv,fu an xi lu wang jing xi yuan san qu 316 hao lou 2 lou （ jin fu tong xi da jie ）,wang jing
老北京微缩景园,69771805,南口镇,南口地区南辛路,Film Base,116.165848,40.252934,lao bei jing wei suo jing yuan,nan kou di qu nan xin lu,nan kou zhen
中国铁道博物馆,64381317;64381517,金盏,酒仙桥北路1号院北侧,Museum,116.516345,39.997657,zhong guo tie dao bo wu guan,jiu xian qiao bei lu 1 hao yuan bei ce,jin zhan
皇城根遗址公园,,王府井/东单,北河沿大街与五四大街交叉口南100米路东,Acient Ruins,116.406563,39.92252,huang cheng gen yi zhi gong yuan,bei he yan da jie yu wu si da jie jiao cha kou nan 100 mi lu dong,wang fu jing / dong dan
东方阁美术馆,84211186,和平里/国展中心,和平里东街与民旺北胡同交叉口西南100米,Art Gallery,116.424843,39.952553,dong fang ge mei zhu guan,he ping li dong jie yu min wang bei hu tong jiao cha kou xi nan 100 mi,he ping li / guo zhan zhong xin
北京画院美术馆,65025171,朝阳公园/团结湖,朝阳公园南路12号,Art Gallery,116.473091,39.93306,bei jing hua yuan mei zhu guan,zhao yang gong yuan nan lu 12 hao,zhao yang gong yuan / tuan jie hu
至高美术馆,82560366;133****5688,苏州桥,长春桥路5号新起点家园-5,Art Gallery,116.303871,39.960697,zhi gao mei zhu guan,chang chun qiao lu 5 hao xin qi dian jia yuan - 5,su zhou qiao
中国国家画院美术馆,68411369,紫竹桥,西三环北路54号,Art Gallery,116.310638,39.938038,zhong guo guo jia hua yuan mei zhu guan,xi san huan bei lu 54 hao,zi zhu qiao
凯旋画廊,57623012,798/大山子,酒仙桥路798艺术区2号院A05,Art Gallery,116.492661,39.986382,kai xuan hua lang,jiu xian qiao lu 798 yi zhu qu 2 hao yuan A 05,798 / da shan zi
偏锋画廊,59789562,798/大山子,酒仙桥路2号北京798艺术区2号路B11号,Art Gallery,116.498039,39.986431,pian feng hua lang,jiu xian qiao lu 2 hao bei jing 798 yi zhu qu 2 hao lu B 11 hao,798 / da shan zi
美嘉环球Travel Agency,64949979,亚运村,亚运村大屯路169号3楼,Travel Agency,116.377853,40.002393,mei jia huan qiu T r a v e l   A g e n c y,ya yun cun da tun lu 169 hao 3 lou,ya yun cun
昌平公园,,昌平镇,鼓楼南街28号,City Park,116.237106,40.218147,chang ping gong yuan,gu lou nan jie 28 hao,chang ping zhen
双龙峡,69819310;69819988,爨底下村,斋堂镇火村,Natural Scenery,115.71759,39.950989,shuang long xia,zhai tang zhen huo cun,cuan di xia cun
北京灵水举人村,69812890,门头沟区,斋堂镇灵水村,Acient Town,115.731773,40.004105,bei jing ling shui ju ren cun,zhai tang zhen ling shui cun,men tou gou qu
北京世界花卉大观园,87500840;87503548,草桥/公益西桥,南四环中路235号,Botanical Garden,116.351964,39.836211,bei jing shi jie hua hui da guan yuan,nan si huan zhong lu 235 hao,cao qiao / gong yi xi qiao
北京自来水博物馆,64650787,东直门,东直门外香河园街3号,Museum,116.437408,39.946014,bei jing zi lai shui bo wu guan,dong zhi men wai xiang he yuan jie 3 hao,dong zhi men
南锣鼓巷,139****2634;155****6033,安定门,南锣鼓巷与地安门东大街交叉口北侧,Leisure Block,116.402405,39.937176,nan luo gu xiang,nan luo gu xiang yu di an men dong da jie jiao cha kou bei ce,an ding men
烟袋斜街,64001606,地安门,地安门外大街50号,Leisure Block,116.394745,39.939323,yan dai xie jie,di an men wai da jie 50 hao,di an men
保利艺术博物馆,65008117,东直门,朝阳门北大街1号新保利大厦云楼9层（近地铁二号线东四十条站D口）,Museum,116.432709,39.932621,bao li yi zhu bo wu guan,zhao yang men bei da jie 1 hao xin bao li da sha yun lou 9 ceng （ jin di tie er hao xian dong si shi tiao zhan D kou ）,dong zhi men
中国国旅,4006008888,王府井/东单,东单北大街1号国旅大厦,Travel Agency,116.417191,39.915283,zhong guo guo lv,dong dan bei da jie 1 hao guo lv da sha,wang fu jing / dong dan
什刹海冰场,66125717,后海/什刹海,前海南沿5号,City Park,116.38781,39.940479,shi cha hai bing chang,qian hai nan yan 5 hao,hou hai / shi cha hai
昌平区博物馆,69741095,昌平镇,府学路10号昌平区图书馆2层,Museum,116.255165,40.220995,chang ping qu bo wu guan,fu xue lu 10 hao chang ping qu tu shu guan 2 ceng,chang ping zhen
碧水风荷公园,,清河,小营桥西侧（近小营环岛）,City Park,116.338539,40.039829,bi shui feng he gong yuan,xiao ying qiao xi ce （ jin xiao ying huan dao ）,qing he
蟠龙山长城,81052790,古北口,古北口村（近古御道）,Historical Building,117.167191,40.685432,pan long shan chang cheng,gu bei kou cun （ jin gu yu dao ）,gu bei kou
京东大溶洞,60971708,平谷区,黄松峪乡黑豆峪村,Natural Scenery,117.254676,40.211954,jing dong da rong dong,huang song yu xiang hei dou yu cun,ping gu qu
物华艺术馆,64668215,亮马桥/三元桥,霞光里6号,Art Gallery,116.458523,39.958807,wu hua yi zhu guan,xia guang li 6 hao,liang ma qiao / san yuan qiao
索尼探梦,65018800,朝阳公园/团结湖,朝阳公园南路1号朝阳公园内（南侧）,Science Museum,116.481499,39.937363,suo ni tan meng,zhao yang gong yuan nan lu 1 hao zhao yang gong yuan nei （ nan ce ）,zhao yang gong yuan / tuan jie hu
劳动人民文化宫,65116776,王府井/东单,东长安街天安门东侧,Human Heritage,116.400002,39.910767,lao dong ren min wen hua gong,dong chang an jie tian an men dong ce,wang fu jing / dong dan
康庄公园,69250081,黄村,滨河东里东,City Park,116.342239,39.755596,kang zhuang gong yuan,bin he dong li dong,huang cun
钓鱼台银杏大道,,航天桥,三里河路与月坛南街交叉口西北角,Pedestrian Zone,116.334297,39.918346,diao yu tai yin xing da dao,san li he lu yu yue tan nan jie jiao cha kou xi bei jiao,hang tian qiao
基督教会崇文门教堂,65133549;65242193,崇文门,后沟胡同丁2号,Other Attractions/Side Trip,116.420456,39.902912,ji du jiao hui chong wen men jiao tang,hou gou hu tong ding 2 hao,chong wen men
中旅假日Travel Agency,65032344,朝阳门,朝阳门南大街18号,Travel Agency,116.436333,39.917454,zhong lv jia ri T r a v e l   A g e n c y,zhao yang men nan da jie 18 hao,zhao yang men
铁路祥和Travel Agency,63215855,首都博物馆/莲花池东路,复兴路6号（军事博物馆地铁站C1东南口步行390米）,Travel Agency,116.328559,39.906697,tie lu xiang he T r a v e l   A g e n c y,fu xing lu 6 hao （ jun shi bo wu guan di tie zhan C 1 dong nan kou bu xing 390 mi ）,shou du bo wu guan / lian hua chi dong lu
好园,65121342,王府井/东单,史家胡同53号（灯市口地铁站A西北口步行260米）,Other Attractions/Side Trip,116.419434,39.918686,hao yuan,shi jia hu tong 53 hao （ deng shi kou di tie zhan A xi bei kou bu xing 260 mi ）,wang fu jing / dong dan
红螺湖鸟岛,60681238,红螺寺,红螺寺路与中刘路交叉口东北角,Natural Scenery,116.625854,40.361614,hong luo hu niao dao,hong luo si lu yu zhong liu lu jiao cha kou dong bei jiao,hong luo si
先农坛,,前门/天坛,东经路21号,Historical Building,116.391411,39.877125,xian nong tan,dong jing lu 21 hao,qian men / tian tan
玉渡山自然风景区,69190280,玉渡山风景区,玉海路北1号,Natural Scenery,115.899048,40.531639,yu du shan zi ran feng jing qu,yu hai lu bei 1 hao,yu du shan feng jing qu
普度寺,85112897,王府井/东单,南池子大街与普渡寺前巷交叉口东100米,Religion,116.404739,39.913441,pu du si,nan chi zi da jie yu pu du si qian xiang jiao cha kou dong 100 mi,wang fu jing / dong dan
回龙观体育文化公园,,回龙观,回龙观东大街与文华路交叉口,Cultural Park,116.342135,40.077913,hui long guan ti yu wen hua gong yuan,hui long guan dong da jie yu wen hua lu jiao cha kou,hui long guan
中国国际Travel Agency总社,138****8345,亦庄,荣华中路7号院4号楼1层1084室,Travel Agency,116.501274,39.801743,zhong guo guo ji T r a v e l   A g e n c y zong she,rong hua zhong lu 7 hao yuan 4 hao lou 1 ceng 1084 shi,yi zhuang
常营公园,,常营,幺家店路与民族家园中路交叉口北侧,City Park,116.58136,39.935905,chang ying gong yuan,yao jia dian lu yu min zu jia yuan zhong lu jiao cha kou bei ce,chang ying
李四光纪念馆,88815625,魏公村,民族大学南路11号(近中国地质科学院地质力学研究所),Memorial Hall,116.31675,39.946312,li si guang ji nian guan,min zu da xue nan lu 11 hao ( jin zhong guo di zhi ke xue yuan di zhi li xue yan jiu suo ),wei gong cun
前门大街,65253176,前门/大栅栏,小江胡同1号,Leisure Block,116.397842,39.895168,qian men da jie,xiao jiang hu tong 1 hao,qian men / da zha lan
天毓山庄,69306878;69306678,房山区,周口店镇辛庄民族村,Other Attractions/Side Trip,115.937775,39.666206,tian yu shan zhuang,zhou kou dian zhen xin zhuang min zu cun,fang shan qu
什刹海火神庙,64008882,地安门,地安门外大街77号（8号线什刹海站南50米）,Religion,116.395607,39.937141,shi cha hai huo shen miao,di an men wai da jie 77 hao （ 8 hao xian shi cha hai zhan nan 50 mi ）,di an men
通教寺,64055918,东直门,东直门内北小街针线胡同19号,Religion,116.426292,39.944149,tong jiao si,dong zhi men nei bei xiao jie zhen xian hu tong 19 hao,dong zhi men
南官房胡同39号四合院,66572057,地安门,南官房胡同39号,Historical Building,116.390411,39.937096,nan guan fang hu tong 3 9 hao si he yuan,nan guan fang hu tong 39 hao,di an men
长陵,60761008;60762279,明十三陵,怀长路明十三陵长陵景区,Acient Ruins,116.24955,40.30061,chang ling,huai chang lu ming shi san ling chang ling jing qu,ming shi san ling
辽金城垣博物馆,63054992,北京南站/开阳里,右安门外玉林小区甲40号,Museum,116.358833,39.862724,liao jin cheng yuan bo wu guan,you an men wai yu lin xiao qu jia 40 hao,bei jing nan zhan / kai yang li
八奇洞景区,60863056;60863057,潭柘寺,潭柘寺镇八奇洞景区,Natural Scenery,116.029793,39.894547,ba qi dong jing qu,tan zhe si zhen ba qi dong jing qu,tan zhe si
人民英雄纪念碑,,天安门广场,天安门广场,Revolutionary Site,116.39769,39.904633,ren min ying xiong ji nian bei,tian an men guang chang,tian an men guang chang
白河堡水库,60162064,百里画廊,香营乡,Modern Building,116.172952,40.645951,bai he bao shui ku,xiang ying xiang,bai li hua lang
中国国际Travel Agency,66035933;66011122,复兴门,复兴门内大街99号,Travel Agency,116.358936,39.90803,zhong guo guo ji T r a v e l   A g e n c y,fu xing men nei da jie 99 hao,fu xing men
中国国际Travel Agency,85999369,大望路,光华路与郎家园路交叉口西北方向50米左右,Travel Agency,116.473419,39.913742,zhong guo guo ji T r a v e l   A g e n c y,guang hua lu yu lang jia yuan lu jiao cha kou xi bei fang xiang 50 mi zuo you,da wang lu
中国国旅,64733371,望京,中环南路9号望京大厦A座1层,Travel Agency,116.470212,39.985932,zhong guo guo lv,zhong huan nan lu 9 hao wang jing da sha A zuo 1 ceng,wang jing
中国国旅,82255712,牡丹园/北太平庄,北太平庄路18号城建大厦B座303室,Travel Agency,116.3712,39.968644,zhong guo guo lv,bei tai ping zhuang lu 18 hao cheng jian da sha B zuo 303 shi,mu dan yuan / bei tai ping zhuang
中国国际Travel Agency,82382290,五道口,花园路街道北四环学院桥东北角处,Travel Agency,116.348143,39.986334,zhong guo guo ji T r a v e l   A g e n c y,hua yuan lu jie dao bei si huan xue yuan qiao dong bei jiao chu,wu dao kou
中国国际Travel Agency,85253171,悠唐生活广场,朝外大街19号华普国际大厦16层东区,Travel Agency,116.43885,39.924931,zhong guo guo ji T r a v e l   A g e n c y,zhao wai da jie 19 hao hua pu guo ji da sha 16 ceng dong qu,you tang sheng huo guang chang
中国国际Travel Agency,64174272,东直门,东直门外东中街甲2号,Travel Agency,116.446171,39.944311,zhong guo guo ji T r a v e l   A g e n c y,dong zhi men wai dong zhong jie jia 2 hao,dong zhi men
中国国际Travel Agency,65123075,王府井/东单,灯市口大街57号院4,Travel Agency,116.41304,39.91897,zhong guo guo ji T r a v e l   A g e n c y,deng shi kou da jie 57 hao yuan 4,wang fu jing / dong dan
上地公园,82785522,上地,信息路上地3街环岛西南角（近上地环岛）,City Park,116.310349,40.035088,shang di gong yuan,xin xi lu shang di 3 jie huan dao xi nan jiao （ jin shang di huan dao ）,shang di
王府井Pedestrian Zone,,王府井/东单,东长安街与王府井大街交叉口北500米路东,Leisure Block,116.412407,39.913399,wang fu jing P e d e s t r i a n   Z o n e,dong chang an jie yu wang fu jing da jie jiao cha kou bei 500 mi lu dong,wang fu jing / dong dan
朝阳文化馆,85993958,建外大街,朝阳门外小庄金台路17号,Exhibition Centre,116.470268,39.91695,zhao yang wen hua guan,zhao yang men wai xiao zhuang jin tai lu 17 hao,jian wai da jie
王府井天主教堂,65240634,王府井/东单,王府井大街74号教堂（教堂附属楼）,Religion,116.412086,39.91737,wang fu jing tian zhu jiao tang,wang fu jing da jie 74 hao jiao tang （ jiao tang fu shu lou ）,wang fu jing / dong dan
梨园主题公园,,梨园,八通线临河里地铁站旁（近加州小镇）,City Park,116.678238,39.874187,li yuan zhu ti gong yuan,ba tong xian lin he li di tie zhan pang （ jin jia zhou xiao zhen ）,li yuan
清河燕清体育文化公园,62936340,清河,毛纺路26号,City Park,116.338989,40.034489,qing he yan qing ti yu wen hua gong yuan,mao fang lu 26 hao,qing he
德宝温泉会议中心,69375447;69375500,良乡,良乡多宝路1号,Hot Spring,116.149666,39.737099,de bao wen quan hui yi zhong xin,liang xiang duo bao lu 1 hao,liang xiang
西黄寺博物馆,58350902;58334652,德外大街,安贞街道德胜门外黄寺大街11号,Museum,116.390434,39.964764,xi huang si bo wu guan,an zhen jie dao de sheng men wai huang si da jie 11 hao,de wai da jie
圣泉山旅游风景区,60637288,红螺寺,桥梓镇口头村（京承高速）,Religion,116.578578,40.369313,sheng quan shan lv you feng jing qu,qiao zi zhen kou tou cun （ jing cheng gao su ）,hong luo si
灵慧山景区,89601286,红螺寺,西甘路甘涧峪村,Natural Scenery,116.582375,40.398983,ling hui shan jing qu,xi gan lu gan jian yu cun,hong luo si
和平国际Travel Agency,56024063,和平里/国展中心,东土城路13号金孔雀商务大厦二层,Travel Agency,116.431816,39.950733,he ping guo ji T r a v e l   A g e n c y,dong tu cheng lu 13 hao jin kong que shang wu da sha er ceng,he ping li / guo zhan zhong xin
花市清真寺,67167531,崇文门,西花市大街80号,Religion,116.423561,39.896828,hua shi qing zhen si,xi hua shi da jie 80 hao,chong wen men
北京穆斯林大厦,65126550,王府井/东单,王府井大街241号,Modern Building,116.410767,39.914715,bei jing mu si lin da sha,wang fu jing da jie 241 hao,wang fu jing / dong dan
九天普化宫,,朝外大街,朝外大街百脑汇后,Human Heritage,116.444901,39.92403,jiu tian pu hua gong,zhao wai da jie bai nao hui hou,zhao wai da jie
国际企业文化园,,亦庄,亦庄开发区五环文化园西路6号院,City Park,116.486336,39.808495,guo ji qi ye wen hua yuan,yi zhuang kai fa qu wu huan wen hua yuan xi lu 6 hao yuan,yi zhuang
基督教堂海淀堂,62562975,中关村,海淀西大街39号（近理想国际大厦）,Religion,116.30761,39.983253,ji du jiao tang hai dian tang,hai dian xi da jie 39 hao （ jin li xiang guo ji da sha ）,zhong guan cun
后海,64070792,后海/什刹海,什刹海街道鼓楼西大街,Natural Scenery,116.385497,39.942347,hou hai,shi cha hai jie dao gu lou xi da jie,hou hai / shi cha hai
安贞社区街心公园,,安贞,北三环中路安贞西里小区内,City Park,116.398758,39.972347,an zhen she qu jie xin gong yuan,bei san huan zhong lu an zhen xi li xiao qu nei,an zhen
红军公园,85383072,朝阳区,大鲁店北路萧太后河公园,Park/Square,116.582211,39.845048,hong jun gong yuan,da lu dian bei lu xiao tai hou he gong yuan,zhao yang qu
世界地热博览园,83318032;83318649,云岗,王佐镇南宫南路1号,Botanical Garden,116.152229,39.79463,shi jie di re bo lan yuan,wang zuo zhen nan gong nan lu 1 hao,yun gang
法海寺森林公园,68875776;88715776,模式口,翠微山南麓模式口28号,Forest Park,116.160414,39.940572,fa hai si sen lin gong yuan,cui wei shan nan lu mo shi kou 28 hao,mo shi kou
密云全民体育健身园,69040992,密云鼓楼,滨河路与光明街交叉口西南140米,City Park,116.837288,40.372044,mi yun quan min ti yu jian shen yuan,bin he lu yu guang ming jie jiao cha kou xi nan 140 mi,mi yun gu lou
东交民巷天主堂,65135170,崇文门,东交民巷甲13号,Religion,116.412094,39.902924,dong jiao min xiang tian zhu tang,dong jiao min xiang jia 13 hao,chong wen men
大通旅游,22198888,怀柔区,多家营业网点,Travel Agency,116.586861,40.632389,da tong lv you,duo jia ying ye wang dian,huai rou qu
宛平城Pedestrian Zone,,卢沟桥,城内街与东关南街交口宛平城Pedestrian Zone,Pedestrian Zone,116.230072,39.851955,wan ping cheng P e d e s t r i a n   Z o n e,cheng nei jie yu dong guan nan jie jiao kou wan ping cheng P e d e s t r i a n   Z o n e,lu gou qiao
虹鳟鱼一条沟,61728862,神堂峪,雁栖地区,Other Attractions/Side Trip,116.600988,40.411898,hong zun yu yi tiao gou,yan qi di qu,shen tang yu
国家动物博物馆,64807975;64806899,亚运村,北辰西路1号院5号（近大屯路中国科学院动物研究所）,Museum,116.381432,40.00256,guo jia dong wu bo wu guan,bei chen xi lu 1 hao yuan 5 hao （ jin da tun lu zhong guo ke xue yuan dong wu yan jiu suo ）,ya yun cun
荷花市场,,后海/什刹海,地安门西大街51号,Sightseeing District,116.391289,39.934963,he hua shi chang,di an men xi da jie 51 hao,hou hai / shi cha hai
丫髻山旅游风景区,61972535;61974009,平谷区,刘家店镇北吉山村,Natural Scenery,116.969203,40.27393,ya ji shan lv you feng jing qu,liu jia dian zhen bei ji shan cun,ping gu qu
怀柔水库,51913789,怀柔区,台关路梅苑花园西侧,Modern Building,116.617256,40.322095,huai rou shui ku,tai guan lu mei yuan hua yuan xi ce,huai rou qu
北京人艺戏剧博物馆,85120006,王府井/东单,王府井大街22号首都剧场4层,Museum,116.411835,39.921585,bei jing ren yi xi ju bo wu guan,wang fu jing da jie 22 hao shou du ju chang 4 ceng,wang fu jing / dong dan
北京节水展馆,88159532,航天桥,恩济庄46号C区（近恩济西街）,Exhibition Gallery,116.28466,39.929356,bei jing jie shui zhan guan,en ji zhuang 46 hao C qu （ jin en ji xi jie ）,hang tian qiao
报国寺,63173169,广内大街,广安门内街道广安门内,Religion,116.359535,39.891216,bao guo si,guang an men nei jie dao guang an men nei,guang nei da jie
明北京城城墙遗迹,,复兴门,西二环与宣武门西大街交叉口东北角（宣武门西大街-广安门北滨河路）,Acient Ruins,116.357285,39.900223,ming bei jing cheng cheng qiang yi ji,xi er huan yu xuan wu men xi da jie jiao cha kou dong bei jiao （ xuan wu men xi da jie - guang an men bei bin he lu ）,fu xing men
灵境胡同,87013388,西单,西单北大街,Leisure Block,116.377991,39.914616,ling jing hu tong,xi dan bei da jie,xi dan
观光南瓜园,80532226,通州区,于家务回族乡于家务卫生室西2公里,Park/Square,116.686455,39.717651,guan guang nan gua yuan,yu jia wu hui zu xiang yu jia wu wei sheng shi xi 2 gong li,tong zhou qu
将府公园,64331580;64360177,酒仙桥,东八间房村临甲10号,City Park,116.512343,39.975539,jiang fu gong yuan,dong ba jian fang cun lin jia 10 hao,jiu xian qiao
北京张裕爱斐堡国际酒庄,89092999;89089999,密云区其他,巨各庄镇宁菜路与密三路交汇处东南侧,Other Attractions/Side Trip,116.902296,40.375652,bei jing zhang yu ai fei bao guo ji jiu zhuang,ju ge zhuang zhen ning cai lu yu mi san lu jiao hui chu dong nan ce,mi yun qu qi ta
草场地艺术区,64326910,望京,崔各庄乡草场地（近五元桥）,Creative Industry Center,116.50177,39.998753,cao chang di yi zhu qu,cui ge zhuang xiang cao chang di （ jin wu yuan qiao ）,wang jing
密云石城旅游服务,,桃源仙谷,卫生院西北门旁,Travel Agency,116.82222,40.543934,mi yun shi cheng lv you fu wu,wei sheng yuan xi bei men pang,tao yuan xian gu
柳沟民俗村,61192790;159****6385,柳沟,井庄镇柳果路与西北路交叉口,Countryside Tourism,116.097295,40.446717,liu gou min su cun,jing zhuang zhen liu guo lu yu xi bei lu jiao cha kou,liu gou
北小河公园,64708518,望京,望京西路师家坟156号,City Park,116.455231,40.005207,bei xiao he gong yuan,wang jing xi lu shi jia fen 156 hao,wang jing
碧海公园,,旧宫,庑殿路与宣颐路交叉口西南侧,City Park,116.438797,39.810417,bi hai gong yuan,wu dian lu yu xuan yi lu jiao cha kou xi nan ce,jiu gong
东小口森林公园,,立水桥,天通苑南街道黑泉路与西小口路交叉口东南侧,Forest Park,116.394112,40.048733,dong xiao kou sen lin gong yuan,tian tong yuan nan jie dao hei quan lu yu xi xiao kou lu jiao cha kou dong nan ce,li shui qiao
北京奥林匹克公园,84992008,亚运村,奥运村街道北辰东路15号,City Park,116.392465,40.015175,bei jing ao lin pi ke gong yuan,ao yun cun jie dao bei chen dong lu 15 hao,ya yun cun
富莱茵国际Travel Agency,87202842,沙子口,沙子口路76号富莱茵花园12号楼3层,Travel Agency,116.407451,39.859761,fu lai yin guo ji T r a v e l   A g e n c y,sha zi kou lu 76 hao fu lai yin hua yuan 12 hao lou 3 ceng,sha zi kou
千年古村高碑店,87740826;87740205,高碑店,高碑店桥向南200米,Acient Town,116.527939,39.900299,qian nian gu cun gao bei dian,gao bei dian qiao xiang nan 200 mi,gao bei dian
北京励志堂科举匾额博物馆,87739693;188****2155,朝阳区,文化新大街1366号,Museum,116.540752,39.89858,bei jing li zhi tang ke ju bian e bo wu guan,wen hua xin da jie 1366 hao,zhao yang qu
柏林寺,64045080,安定门,戏楼胡同1号(雍和宫东侧),Religion,116.419868,39.946285,bai lin si,xi lou hu tong 1 hao ( yong he gong dong ce ),an ding men
北京朝来森林公园,,望京,新勇路朝来农艺园对面,Forest Park,116.454201,40.031303,bei jing zhao lai sen lin gong yuan,xin yong lu zhao lai nong yi yuan dui mian,wang jing
海洋国旅Travel Agency,86718329,牡丹园/北太平庄,学院南路4号鑫荣泉532室,Travel Agency,116.368996,39.958256,hai yang guo lv T r a v e l   A g e n c y,xue yuan nan lu 4 hao xin rong quan 532 shi,mu dan yuan / bei tai ping zhuang
神舟国际Travel Agency,86660608,劲松/潘家园,松榆北路2号,Travel Agency,116.462017,39.875624,shen zhou guo ji T r a v e l   A g e n c y,song yu bei lu 2 hao,jing song / pan jia yuan
太申祥和山庄,80713806,回龙观,史各庄街道北清路5号,Garden,116.285166,40.096008,tai shen xiang he shan zhuang,shi ge zhuang jie dao bei qing lu 5 hao,hui long guan
北京基督教青年会,65287743,王府井/东单,东单北大街3号青年会大楼10层,Religion,116.417564,39.914742,bei jing ji du jiao qing nian hui,dong dan bei da jie 3 hao qing nian hui da lou 10 ceng,wang fu jing / dong dan
尚隐·泉都市生活馆,83826666,青塔,双林东路8号,Hot Spring,116.256414,39.877354,shang yin · quan du shi sheng huo guan,shuang lin dong lu 8 hao,qing ta
北京百年世界老电话博物馆,89585816;89585806,通州区,宋庄镇潞邑东路疃里东区庄园G3-108,Museum,116.701546,39.94622,bei jing bai nian shi jie lao dian hua bo wu guan,song zhuang zhen lu yi dong lu tuan li dong qu zhuang yuan G 3 - 108,tong zhou qu
三影堂摄影艺术中心,64322663,金盏,崔各庄乡草场地155号A,Art Gallery,116.508209,40.001678,san ying tang she ying yi zhu zhong xin,cui ge zhuang xiang cao chang di 155 hao A,jin zhan
科技大学会议中心,62315522,五道口,北四环中路251号,Other Attractions/Side Trip,116.363007,39.98769,ke ji da xue hui yi zhong xin,bei si huan zhong lu 251 hao,wu dao kou
宁郡王府,,王府井/东单,北极阁三条71号（东单地铁站F东北口步行300米）,Human Heritage,116.418762,39.910713,ning jun wang fu,bei ji ge san tiao 71 hao （ dong dan di tie zhan F dong bei kou bu xing 300 mi ）,wang fu jing / dong dan
广福观,,后海/什刹海,鼓楼烟袋斜街37号（近石碑胡同）,Religion,116.394859,39.939388,guang fu guan,gu lou yan dai xie jie 37 hao （ jin shi bei hu tong ）,hou hai / shi cha hai
华清温泉宾馆,84826665,天通苑,立水桥甲2号（近天通苑）,Hot Spring,116.417908,40.057858,hua qing wen quan bin guan,li shui qiao jia 2 hao （ jin tian tong yuan ）,tian tong yuan
石景山区石刻文物园,88724148,模式口,模式口大街与模南小区路交叉口西40米,Exhibition Gallery,116.15789,39.935223,shi jing shan qu shi ke wen wu yuan,mo shi kou da jie yu mo nan xiao qu lu jiao cha kou xi 40 mi,mo shi kou
汉石桥湿地公园,61411577;61411200,顺义区,汉石桥村木燕路59号,Natural Scenery,116.807968,40.123215,han shi qiao shi di gong yuan,han shi qiao cun mu yan lu 59 hao,shun yi qu
龙潭西湖公园,67118324,左安门,龙潭路甲1号,Park/Square,116.431526,39.877304,long tan xi hu gong yuan,long tan lu jia 1 hao,zuo an men
何扬吴茜现代绘画馆,84338157,金盏,金盏乡长店村1128号,Exhibition Centre,116.554008,39.998516,he yang wu qian xian dai hui hua guan,jin zhan xiang chang dian cun 1128 hao,jin zhan
同仁堂博物馆,67026919,崇文门,东兴隆街52号（新世界1期车库对面）,Museum,116.416313,39.896141,tong ren tang bo wu guan,dong xing long jie 52 hao （ xin shi jie 1 qi che ku dui mian ）,chong wen men
静福寺,,香山/植物园,碧云寺北1公里许木兰陀山麓,Religion,116.190903,40.003635,jing fu si,bi yun si bei 1 gong li xu mu lan tuo shan lu,xiang shan / zhi wu yuan
中国马文化博物馆,81182120,八达岭,阳光路8号阳光雪山城堡,Museum,115.946571,40.351551,zhong guo ma wen hua bo wu guan,yang guang lu 8 hao yang guang xue shan cheng bao,ba da ling
金星公园,,黄村,滨河街,City Park,116.339317,39.761963,jin xing gong yuan,bin he jie,huang cun
知春公园,85874568,双榆树,科学院南路101号-113号,City Park,116.325882,39.974155,zhi chun gong yuan,ke xue yuan nan lu 101 hao - 113 hao,shuang yu shu
菩萨山风景区,,昌平区,流村镇菩萨鹿,Natural Scenery,115.981766,40.101055,pu sa shan feng jing qu,liu cun zhen pu sa lu,chang ping qu
后桑峪村天主教堂,,门头沟区,斋堂镇后桑峪村,Religion,115.76738,40.005615,hou sang yu cun tian zhu jiao tang,zhai tang zhen hou sang yu cun,men tou gou qu
北京老爷车博物馆,61677039,怀柔电影旅游拍摄基地,杨宋镇凤翔一园19号,Museum,116.678383,40.299171,bei jing lao ye che bo wu guan,yang song zhen feng xiang yi yuan 19 hao,huai rou dian ying lv you pai she ji di
长园渔场,61627120,神堂峪,雁栖地区,Natural Scenery,116.632607,40.41098,chang yuan yu chang,yan qi di qu,shen tang yu
密云时光公园,,密云县县城,公园街（密云二中对面）,City Park,116.845619,40.38171,mi yun shi guang gong yuan,gong yuan jie （ mi yun er zhong dui mian ）,mi yun xian xian cheng
金桥旅游公司,88813020,魏公村,西三环北路19-1号北京外国语大学宾馆,Travel Agency,116.308708,39.955888,jin qiao lv you gong si,xi san huan bei lu 19 - 1 hao bei jing wai guo yu da xue bin guan,wei gong cun
双泉寺,88951890,石景山区,黑陈路168号,Religion,116.159027,39.972851,shuang quan si,hei chen lu 168 hao,shi jing shan qu
永定门公园,67692146,天坛,天坛街道永定门东滨河路18号,City Park,116.399048,39.87648,yong ding men gong yuan,tian tan jie dao yong ding men dong bin he lu 18 hao,tian tan
平西情报联络站纪念馆,69806535,门头沟区,涧沟村村委会斜对面,Memorial Hall,116.039112,40.064352,ping xi qing bao lian luo zhan ji nian guan,jian gou cun cun wei hui xie dui mian,men tou gou qu
西城城隍庙,,复兴门,复兴门金融大街33号,Religion,116.3601,39.910458,xi cheng cheng huang miao,fu xing men jin rong da jie 33 hao,fu xing men
中华圣公会教堂旧址,,宣武门,佟麟阁路85号（新华社西门对面),Acient Ruins,116.368271,39.902164,zhong hua sheng gong hui jiao tang jiu zhi,tong lin ge lu 85 hao （ xin hua she xi men dui mian ),xuan wu men
雾雨飞虹谷景区,,桃源仙谷,琉辛路龙云山风景区内(南侧),Natural Scenery,116.805061,40.564476,wu yu fei hong gu jing qu,liu xin lu long yun shan feng jing qu nei ( nan ce ),tao yuan xian gu
北方温泉会议中心,61353521;151****2355,良乡,梅花街7号,Hot Spring,116.163887,39.743072,bei fang wen quan hui yi zhong xin,mei hua jie 7 hao,liang xiang
水头民俗旅游村,61389096,房山区,大石窝镇水头村,Countryside Tourism,115.766518,39.611256,shui tou min su lv you cun,da shi wo zhen shui tou cun,fang shan qu
水峪民俗村,61305049,霞云岭国家森林公园,南窖乡水峪村,Acient Town,115.830765,39.761494,shui yu min su cun,nan jiao xiang shui yu cun,xia yun ling guo jia sen lin gong yuan
西河民俗旅游村,61347969,十渡镇,永乐店镇西河村,Countryside Tourism,115.573746,39.637791,xi he min su lv you cun,yong le dian zhen xi he cun,shi du zhen
御康郊野公园,,世界公园,花乡六圈村丰葆路168号,City Park,116.281761,39.814903,yu kang jiao ye gong yuan,hua xiang liu quan cun feng bao lu 168 hao,shi jie gong yuan
堂上民俗旅游村,60368194,房山区,京昆路与堂上煤矿路交叉口东160米,Cultural Village,115.588028,39.780979,tang shang min su lv you cun,jing kun lu yu tang shang mei kuang lu jiao cha kou dong 160 mi,fang shan qu
大峪沟民俗旅游村,61339981,房山区,张坊镇大峪沟村,Countryside Tourism,115.739105,39.592445,da yu gou min su lv you cun,zhang fang zhen da yu gou cun,fang shan qu
四马台民俗旅游村,60369038,霞云岭国家森林公园,霞云岭乡四马台村,Countryside Tourism,115.63147,39.782303,si ma tai min su lv you cun,xia yun ling xiang si ma tai cun,xia yun ling guo jia sen lin gong yuan
七渡民俗旅游村,61344088,十渡镇,十渡镇七渡村,Countryside Tourism,115.622681,39.642597,qi du min su lv you cun,shi du zhen qi du cun,shi du zhen
五合民俗旅游村,61344725,十渡镇,X018,Countryside Tourism,115.624794,39.650692,wu he min su lv you cun,X 018,shi du zhen
北京南宫民族温泉养生园,83392508;83317817,南宫,王佐镇迎宾路南宫世界地热博览园内,Hot Spring,116.153513,39.792713,bei jing nan gong min zu wen quan yang sheng yuan,wang zuo zhen ying bin lu nan gong shi jie di re bo lan yuan nei,nan gong
民航博物馆,84323666,金盏,机场辅路200号,Museum,116.538051,40.017811,min hang bo wu guan,ji chang fu lu 200 hao,jin zhan
五棵松奥林匹克文化公园,,五棵松,万寿路街道西四环中路辅路,Cultural Park,116.275208,39.912373,wu ke song ao lin pi ke wen hua gong yuan,wan shou lu jie dao xi si huan zhong lu fu lu,wu ke song
东王庄休闲广场,,五道口,东王庄小区北侧（近北京林业大学）,Square,116.343407,39.999359,dong wang zhuang xiu xian guang chang,dong wang zhuang xiao qu bei ce （ jin bei jing lin ye da xue ）,wu dao kou
柏峪民俗旅游村,69818988,爨底下村,斋堂镇北12公里,Countryside Tourism,115.611077,40.013567,bai yu min su lv you cun,zhai tang zhen bei 12 gong li,cuan di xia cun
北京市乡村民俗旅游村韭园村,,门头沟区,王平镇韭园村,Natural Scenery,115.991142,39.97084,bei jing shi xiang cun min su lv you cun jiu yuan cun,wang ping zhen jiu yuan cun,men tou gou qu
江水河民俗旅游村,,门头沟区,灵山名胜风景区,Countryside Tourism,115.502777,40.031105,jiang shui he min su lv you cun,ling shan ming sheng feng jing qu,men tou gou qu
八亩堰民俗旅游村,,门头沟区,八亩堰村百花山脚下,Countryside Tourism,115.560135,39.858143,ba mu yan min su lv you cun,ba mu yan cun bai hua shan jiao xia,men tou gou qu
稻香湖生态园,62460391,上庄,稻香湖路与稻香湖北路交叉口东南角,Botanical Garden,116.179506,40.096926,dao xiang hu sheng tai yuan,dao xiang hu lu yu dao xiang hu bei lu jiao cha kou dong nan jiao,shang zhuang
北京工艺懋隆艺术馆,65762457,管庄,三间房东路1号（近朝阳路）,Art Gallery,116.579758,39.919895,bei jing gong yi mao long yi zhu guan,san jian fang dong lu 1 hao （ jin zhao yang lu ）,guan zhuang
仙龙岛乐园,,十渡镇,十大路北京十渡风景名胜区,Water Park,115.55938,39.640862,xian long dao le yuan,shi da lu bei jing shi du feng jing ming sheng qu,shi du zhen
万丰公园,,六里桥/丽泽桥,万丰路莲怡园小区西侧,City Park,116.292015,39.883228,wan feng gong yuan,wan feng lu lian yi yuan xiao qu xi ce,liu li qiao / li ze qiao
东风公园,,朝阳区,姚家园北二路1号（梵谷水郡东1.1公里）,Park/Square,116.516251,39.956329,dong feng gong yuan,yao jia yuan bei er lu 1 hao （ fan gu shui jun dong 1 . 1 gong li ）,zhao yang qu
太阳宫体育休闲公园,,太阳宫,太阳宫中路6号,City Park,116.449371,39.979977,tai yang gong ti yu xiu xian gong yuan,tai yang gong zhong lu 6 hao,tai yang gong
海棠公园,,十八里店,海棠街十八里店乡老君堂村,Park/Square,116.504906,39.835865,hai tang gong yuan,hai tang jie shi ba li dian xiang lao jun tang cun,shi ba li dian
北京青年Travel Agency,81117766,西单,西长安街15号民航营业大厦B座241室（近西单文化广场）,Travel Agency,116.377945,39.908005,bei jing qing nian T r a v e l   A g e n c y,xi chang an jie 15 hao min hang ying ye da sha B zuo 241 shi （ jin xi dan wen hua guang chang ）,xi dan
定慧寺,,五棵松,阜成路66号,Religion,116.278984,39.923519,ding hui si,fu cheng lu 66 hao,wu ke song
官园公园,62011470,西直门/动物园,后广平胡同36号旁,City Park,116.360954,39.935604,guan yuan gong yuan,hou guang ping hu tong 36 hao pang,xi zhi men / dong wu yuan
阳光假期,65188959;65189966-168,建国门/北京站,建国门内大街18号恒基中心办公楼3座701-702室（近北京火车站）,Travel Agency,116.427842,39.906789,yang guang jia qi,jian guo men nei da jie 18 hao heng ji zhong xin ban gong lou 3 zuo 701 - 702 shi （ jin bei jing huo che zhan ）,jian guo men / bei jing zhan
中国铁道博物馆,67051638,前门/大栅栏,前门大街甲2号,Museum,116.400414,39.899799,zhong guo tie dao bo wu guan,qian men da jie jia 2 hao,qian men / da zha lan
东韵民族艺术博物馆,84329101,金盏,孙河乡前苇沟村村北甲1号,Museum,116.557358,40.025059,dong yun min zu yi zhu bo wu guan,sun he xiang qian wei gou cun cun bei jia 1 hao,jin zhan
崔永平皮影艺术博物馆,60502692,马驹桥,马驹桥金桥花园16号楼411-413号,Museum,116.546379,39.750328,cui yong ping pi ying yi zhu bo wu guan,ma ju qiao jin qiao hua yuan 16 hao lou 411 - 413 hao,ma ju qiao
北京教学植物园,87550306,左安门,龙潭湖3号,Botanical Garden,116.434662,39.874214,bei jing jiao xue zhi wu yuan,long tan hu 3 hao,zuo an men
石景山Science Museum,68863652,古城/八角,八角西街40号,Science Museum,116.199356,39.913242,shi jing shan S c i e n c e   M u s e u m,ba jiao xi jie 40 hao,gu cheng / ba jiao
东高地青少年Science Museum,68753706;68384070,南苑/德茂桥,万源西里28栋,Science Museum,116.42038,39.802799,dong gao di qing shao nian S c i e n c e   M u s e u m,wan yuan xi li 28 dong,nan yuan / de mao qiao
中国医学科学院药用植物园,62899713,上地,西北旺马连洼北路151号,Botanical Garden,116.272583,40.034649,zhong guo yi xue ke xue yuan yao yong zhi wu yuan,xi bei wang ma lian wa bei lu 151 hao,shang di
北京金台艺术馆,65011074,朝阳公园/团结湖,农展馆南路1号朝阳公园西1门内,Museum,116.475296,39.935966,bei jing jin tai yi zhu guan,nong zhan guan nan lu 1 hao zhao yang gong yuan xi 1 men nei,zhao yang gong yuan / tuan jie hu
山戎文化陈列馆,69199534,玉渡山风景区,玉皇庙村玉海路,Exhibition Gallery,115.89959,40.514893,shan rong wen hua chen lie guan,yu huang miao cun yu hai lu,yu du shan feng jing qu
延庆博物馆,69143788,延庆城区,妫水北街24号,Museum,115.977776,40.466976,yan qing bo wu guan,gui shui bei jie 24 hao,yan qing cheng qu
怀柔博物馆,69695699,怀柔城区,府前街9号院12号,Museum,116.634377,40.31646,huai rou bo wu guan,fu qian jie 9 hao yuan 12 hao,huai rou cheng qu
中国佛教图书文物馆,63533772,牛街,法源寺前街7号,Exhibition Centre,116.370346,39.884556,zhong guo fo jiao tu shu wen wu guan,fa yuan si qian jie 7 hao,niu jie
禁毒教育基地教育展览馆,87392503,五方桥,黄厂路,Science Museum,116.551689,39.858696,jin du jiao yu ji di jiao yu zhan lan guan,huang chang lu,wu fang qiao
北京服装学院民族服饰博物馆,64288067,对外经贸,樱花园东街甲2号北京服装学院服装综合楼3层,Museum,116.429756,39.974068,bei jing fu zhuang xue yuan min zu fu shi bo wu guan,ying hua yuan dong jie jia 2 hao bei jing fu zhuang xue yuan fu zhuang zong he lou 3 ceng,dui wai jing mao
纳兰性德史迹陈列馆,80713599,上庄,上庄乡上庄村翠湖水乡旅游度假区内,Exhibition Gallery,116.198105,40.106609,na lan xing de shi ji chen lie guan,shang zhuang xiang shang zhuang cun cui hu shui xiang lv you du jia qu nei,shang zhuang
中国印钞造币博物馆,88016028,西直门/动物园,西直门外大街甲143号凯旋大厦（近动物园）,Museum,116.33313,39.939293,zhong guo yin chao zao bi bo wu guan,xi zhi men wai da jie jia 143 hao kai xuan da sha （ jin dong wu yuan ）,xi zhi men / dong wu yuan
北京动物园科普馆,68390274,西直门/动物园,西直门外大街137号,Exhibition Centre,116.335426,39.942375,bei jing dong wu yuan ke pu guan,xi zhi men wai da jie 137 hao,xi zhi men / dong wu yuan
黄松峪地质博物馆,157****4757,平谷区,黑豆峪村京东大溶洞风景区,Museum,117.258826,40.215499,huang song yu di zhi bo wu guan,hei dou yu cun jing dong da rong dong feng jing qu,ping gu qu
国家电力展示中心,85956391,大望路,建国路75号,Exhibition Centre,116.483299,39.90958,guo jia dian li zhan shi zhong xin,jian guo lu 75 hao,da wang lu
朱启钤故居,,建国门/北京站,赵堂子胡同3号（近朝阳门南小街）,Former Residence of Celebrity,116.429092,39.914639,zhu qi qian gu ju,zhao tang zi hu tong 3 hao （ jin zhao yang men nan xiao jie ）,jian guo men / bei jing zhan
东升八家郊野公园,62997227,清河,双清路5号,City Park,116.336823,40.019386,dong sheng ba jia jiao ye gong yuan,shuang qing lu 5 hao,qing he
北京当代艺术馆,69599903,宋庄,庄500号,Art Gallery,116.728432,39.957352,bei jing dang dai yi zhu guan,zhuang 500 hao,song zhuang
宋庄美术馆,80856950,宋庄,小堡工业区路宋庄小堡艺术园区甲2号,Art Gallery,116.713669,39.964199,song zhuang mei zhu guan,xiao bao gong ye qu lu song zhuang xiao bao yi zhu yuan qu jia 2 hao,song zhuang
上上美术馆,89578568,宋庄,小堡环岛东北角,Art Gallery,116.718941,39.960251,shang shang mei zhu guan,xiao bao huan dao dong bei jiao,song zhuang
中国华侨历史博物馆,64070943;64093039,北新桥/簋街,东直门北小街与草园胡同交叉口西北角,Museum,116.42514,39.942932,zhong guo hua qiao li shi bo wu guan,dong zhi men bei xiao jie yu cao yuan hu tong jiao cha kou xi bei jiao,bei xin qiao / gui jie
玛莱特红酒庄园,186****0775,大兴区,葡萄观光园1号（采辛路旁）,Other Attractions/Side Trip,116.654381,39.667442,ma lai te hong jiu zhuang yuan,pu tao guan guang yuan 1 hao （ cai xin lu pang ）,da xing qu
第十二中学生态博物馆,83666020,六里桥/丽泽桥,益泽路15号,Museum,116.309128,39.861752,di shi er zhong xue sheng tai bo wu guan,yi ze lu 15 hao,liu li qiao / li ze qiao
北京大学-校史馆,62765931,颐和园,颐和园路5号北京大学内（近畅春园路）,Exhibition Centre,116.306061,39.993298,bei jing da xue - xiao shi guan,yi he yuan lu 5 hao bei jing da xue nei （ jin chang chun yuan lu ）,yi he yuan
北京中医药大学中医药博物馆,64286672;64286835,芍药居,北三环东路11号北京中医药大学逸夫Science Museum内,Museum,116.426674,39.970512,bei jing zhong yi yao da xue zhong yi yao bo wu guan,bei san huan dong lu 11 hao bei jing zhong yi yao da xue yi fu S c i e n c e   M u s e u m nei,shao yao ju
中国人民大学博物馆,62515691,双榆树,中关村大街59号中国人民大学人文楼(近当代商城),Museum,116.313652,39.96999,zhong guo ren min da xue bo wu guan,zhong guan cun da jie 59 hao zhong guo ren min da xue ren wen lou ( jin dang dai shang cheng ),shuang yu shu
中国化工博物馆,82677217,中关村,北四环西路62号中国化工集团大厦3楼,Museum,116.308792,39.984379,zhong guo hua gong bo wu guan,bei si huan xi lu 62 hao zhong guo hua gong ji tuan da sha 3 lou,zhong guan cun
隆长寺,,西四,西四北三条3号（近大红罗厂）,Religion,116.372566,39.927921,long chang si,xi si bei san tiao 3 hao （ jin da hong luo chang ）,xi si
清真普寿寺,66033896,西四,锦什坊街63号（近金融街）,Religion,116.36232,39.921841,qing zhen pu shou si,jin shi fang jie 63 hao （ jin jin rong jie ）,xi si
北京佛教居士林,66112834,西四,西安门大街129号,Human Heritage,116.376381,39.922737,bei jing fo jiao ju shi lin,xi an men da jie 129 hao,xi si
古刹护国关帝庙,,西四,砖塔胡同68号（西四地铁站D西南口步行400米）,Religion,116.369598,39.922058,gu cha hu guo guan di miao,zhuan ta hu tong 68 hao （ xi si di tie zhan D xi nan kou bu xing 400 mi ）,xi si
UCCA尤伦斯当代艺术中心,57800200,798/大山子,酒仙桥路4号798艺术区内（近大山子桥）,Art Gallery,116.495201,39.984119,U C C A you lun si dang dai yi zhu zhong xin,jiu xian qiao lu 4 hao 798 yi zhu qu nei （ jin da shan zi qiao ）,798 / da shan zi
祖大寿祠,,阜成门,富国街(旧祖家街)3号,Religion,116.367592,39.931355,zu da shou ci,fu guo jie ( jiu zu jia jie ) 3 hao,fu cheng men
减河公园,89403358,顺义城区,右堤路绿港家园1区对面,City Park,116.667252,40.135063,jian he gong yuan,you di lu lv gang jia yuan 1 qu dui mian,shun yi cheng qu
北二环城市公园,,雍和宫/地坛,安定门（鼓楼大街地铁站F东北口步行110米）,City Park,116.404678,39.9487,bei er huan cheng shi gong yuan,an ding men （ gu lou da jie di tie zhan F dong bei kou bu xing 110 mi ）,yong he gong / di tan
中国国际科技会展中心,,牡丹园/北太平庄,裕民路12号（健德门地铁站D西南口步行330米）,Other Attractions/Side Trip,116.382217,39.973877,zhong guo guo ji ke ji hui zhan zhong xin,yu min lu 12 hao （ jian de men di tie zhan D xi nan kou bu xing 330 mi ）,mu dan yuan / bei tai ping zhuang
庆丰公园,67735955;67780738,国贸/建外,东三环中路39号,City Park,116.463547,39.90316,qing feng gong yuan,dong san huan zhong lu 39 hao,guo mao / jian wai
中国地质大学博物馆,82322204,五道口,学院路29号中国地质大学逸夫楼10-12层,Museum,116.352661,39.990997,zhong guo di zhi da xue bo wu guan,xue yuan lu 29 hao zhong guo di zhi da xue yi fu lou 10 - 12 ceng,wu dao kou
新发地海子公园,,西红门,新村街道京开高速（海子公园）,City Park,116.348923,39.816666,xin fa di hai zi gong yuan,xin cun jie dao jing kai gao su （ hai zi gong yuan ）,xi hong men
中国葡萄博物馆,80273611,大兴区,采育镇万亩葡萄观光园东南侧,Museum,116.650291,39.660419,zhong guo pu tao bo wu guan,cai yu zhen wan mu pu tao guan guang yuan dong nan ce,da xing qu
中央音乐学院查阜西纪念馆,66425712,复兴门,鲍家街43号中央音乐学院图书馆楼2楼,Memorial Hall,116.358246,39.902477,zhong yang yin le xue yuan cha fu xi ji nian guan,bao jia jie 43 hao zhong yang yin le xue yuan tu shu guan lou 2 lou,fu xing men
冀热察挺进军司令部旧址陈列馆,186****9394,爨底下村,斋堂镇马栏村下109进入斋马路前进6公里,Exhibition Gallery,115.694734,39.937268,ji re cha ting jin jun si ling bu jiu zhi chen lie guan,zhai tang zhen ma lan cun xia 109 jin ru zhai ma lu qian jin 6 gong li,cuan di xia cun
北京国际鲜花港,61417123,顺义区,杨镇鲜花港南路9号,Botanical Garden,116.794846,40.182796,bei jing guo ji xian hua gang,yang zhen xian hua gang nan lu 9 hao,shun yi qu
中关村Pedestrian Zone,51721478,中关村,中关村大街15号（近海淀大街）,Pedestrian Zone,116.314982,39.98017,zhong guan cun P e d e s t r i a n   Z o n e,zhong guan cun da jie 15 hao （ jin hai dian da jie ）,zhong guan cun
仙栖洞,61336292;61336228,仙栖洞,东关上村（近二渡）,Natural Scenery,115.749168,39.659458,xian qi dong,dong guan shang cun （ jin er du ）,xian qi dong
什刹海历史文化展览馆,83229842,地安门,地安门外大街烟袋斜街37号广福观(什刹海畔),Exhibition Centre,116.394775,39.939198,shi cha hai li shi wen hua zhan lan guan,di an men wai da jie yan dai xie jie 37 hao guang fu guan ( shi cha hai pan ),di an men
北京市西城区青少年科学技术馆,68044163,月坛,月坛北街3号,Exhibition Gallery,116.350296,39.918816,bei jing shi xi cheng qu qing shao nian ke xue ji zhu guan,yue tan bei jie 3 hao,yue tan
北京门头沟区Science Museum,69859472;69846866,门头沟城区,新桥大街40号,Science Museum,116.102013,39.939713,bei jing men tou gou qu S c i e n c e   M u s e u m,xin qiao da jie 40 hao,men tou gou cheng qu
望京乐园,59203849,望京,望京街9号望京国际商业中心B座6层,Amusement Park,116.484055,39.990192,wang jing le yuan,wang jing jie 9 hao wang jing guo ji shang ye zhong xin B zuo 6 ceng,wang jing
东坝郊野公园,65491802,东坝,康各庄路与管庄路交叉口西南角,City Park,116.573793,39.950146,dong ba jiao ye gong yuan,kang ge zhuang lu yu guan zhuang lu jiao cha kou xi nan jiao,dong ba
亢山广场,,昌平镇,府学路25号,Square,116.251968,40.22036,kang shan guang chang,fu xue lu 25 hao,chang ping zhen
抗战名将纪念馆,82599808,香山/植物园,香山北正黄旗18号,Memorial Hall,116.204788,39.989937,kang zhan ming jiang ji nian guan,xiang shan bei zheng huang qi 18 hao,xiang shan / zhi wu yuan
宛平城,83891255,卢沟桥,宛平城地区西五环卢沟桥东城北街,Historical Building,116.226082,39.851419,wan ping cheng,wan ping cheng di qu xi wu huan lu gou qiao dong cheng bei jie,lu gou qiao
左家庄街心公园,,亮马桥/三元桥,左家庄街道广顺南大街北侧（紧邻地铁14号线阜通站）,City Park,116.446909,39.952,zuo jia zhuang jie xin gong yuan,zuo jia zhuang jie dao guang shun nan da jie bei ce （ jin lin di tie 14 hao xian fu tong zhan ）,liang ma qiao / san yuan qiao
宣仁庙,,王府井/东单,东华门街道北池子大街2-4号（近凝和庙）,Religion,116.402985,39.922855,xuan ren miao,dong hua men jie dao bei chi zi da jie 2 - 4 hao （ jin ning he miao ）,wang fu jing / dong dan
二十四节气公园,,天坛,永定门东街,Cultural Park,116.407616,39.872723,er shi si jie qi gong yuan,yong ding men dong jie,tian tan
通惠河玉河遗址,,地安门,地安门东大街,Acient Ruins,116.399986,39.933796,tong hui he yu he yi zhi,di an men dong da jie,di an men
帽儿胡同,,地安门,交道口街道,Leisure Block,116.396233,39.936794,mao er hu tong,jiao dao kou jie dao,di an men
八大胡同,66515956,前门/大栅栏,珠市口西大街与南新华街交叉口东北角,Leisure Block,116.38739,39.890999,ba da hu tong,zhu shi kou xi da jie yu nan xin hua jie jiao cha kou dong bei jiao,qian men / da zha lan
基督教会朝阳堂,64330511,酒仙桥,东四环东风南路60号,Religion,116.491928,39.95335,ji du jiao hui zhao yang tang,dong si huan dong feng nan lu 60 hao,jiu xian qiao
基督教会珠市口堂,63016678,前门/大栅栏,前门大街129号（珠市口路口西南角）,Religion,116.398125,39.890972,ji du jiao hui zhu shi kou tang,qian men da jie 129 hao （ zhu shi kou lu kou xi nan jiao ）,qian men / da zha lan
永宁天主教堂,,延庆区其他,阜民街黄甲巷7号(延流路昌赤路),Religion,116.166916,40.523369,yong ning tian zhu jiao tang,fu min jie huang jia xiang 7 hao ( yan liu lu chang chi lu ),yan qing qu qi ta
丰台堂,87500214,草桥/公益西桥,世界花卉大观园西门南侧,Religion,116.347969,39.837406,feng tai tang,shi jie hua hui da guan yuan xi men nan ce,cao qiao / gong yi xi qiao
北京二十二院街艺术区,58760101,双井,百子湾路32号苹果社区内（今日美术馆附近）,Creative Industry Center,116.470016,39.899723,bei jing er shi er yuan jie yi zhu qu,bai zi wan lu 32 hao ping guo she qu nei （ jin ri mei zhu guan fu jin ）,shuang jing
孚王府,,朝阳门,朝阳门内大街路北137号,Historical Building,116.424988,39.925591,fu wang fu,zhao yang men nei da jie lu bei 137 hao,zhao yang men
百花洞,69191034,龙庆峡,龙庆峡风景区内（东南角）,Natural Scenery,116.007034,40.547558,bai hua dong,long qing xia feng jing qu nei （ dong nan jiao ）,long qing xia
神舟国旅,67676067,方庄/蒲黄榆,芳古路与南三环东路辅路交叉口西北40米,Travel Agency,116.43174,39.859211,shen zhou guo lv,fang gu lu yu nan san huan dong lu fu lu jiao cha kou xi bei 40 mi,fang zhuang / pu huang yu
太和殿,85007421,王府井/东单,景山前街4号故宫博物院内,Human Heritage,116.39711,39.917091,tai he dian,jing shan qian jie 4 hao gu gong bo wu yuan nei,wang fu jing / dong dan
中和殿,,东城区,景山前街4号故宫博物院内,Human Heritage,116.397087,39.917824,zhong he dian,jing shan qian jie 4 hao gu gong bo wu yuan nei,dong cheng qu
保和殿,85007422,王府井/东单,景山前街4号故宫博物院内,Human Heritage,116.396996,39.918438,bao he dian,jing shan qian jie 4 hao gu gong bo wu yuan nei,wang fu jing / dong dan
乾清宫,85007422,东城区,景山前街4号故宫博物院,Human Heritage,116.396973,39.920055,gan qing gong,jing shan qian jie 4 hao gu gong bo wu yuan,dong cheng qu
乾清门,,东城区,景山前街4号故宫博物院内,Human Heritage,116.396973,39.919254,gan qing men,jing shan qian jie 4 hao gu gong bo wu yuan nei,dong cheng qu
太和门,65132255,王府井/东单,景山前街4号故宫博物院内,Human Heritage,116.397202,39.915192,tai he men,jing shan qian jie 4 hao gu gong bo wu yuan nei,wang fu jing / dong dan
交泰殿,85007422,东城区,景山前街4号故宫博物院内（北侧）,Human Heritage,116.396912,39.92049,jiao tai dian,jing shan qian jie 4 hao gu gong bo wu yuan nei （ bei ce ）,dong cheng qu
皇极殿,85007422,王府井/东单,景山前街4号故宫博物院宁寿宫内,Human Heritage,116.40036,39.919949,huang ji dian,jing shan qian jie 4 hao gu gong bo wu yuan ning shou gong nei,wang fu jing / dong dan
石马峪民俗村,61021082,密云区其他,沙石路与二石路交叉口东北约160米,Countryside Tourism,116.905678,40.454159,shi ma yu min su cun,sha shi lu yu er shi lu jiao cha kou dong bei yue 160 mi,mi yun qu qi ta
西大庄科民俗村,69112002;69113700,延庆区其他,X012,Countryside Tourism,115.783752,40.521011,xi da zhuang ke min su cun,X 012,yan qing qu qi ta
上磨民俗村,136****1815,延庆区其他,延庆永宁镇上磨村,Acient Town,116.107224,40.51265,shang mo min su cun,yan qing yong ning zhen shang mo cun,yan qing qu qi ta
秀水湾民俗村,60185882,百里画廊,千家店镇六道河河西秀水湾36号,Acient Town,116.345711,40.693459,xiu shui wan min su cun,qian jia dian zhen liu dao he he xi xiu shui wan 36 hao,bai li hua lang
东四奥林匹克社区公园,,东四,豆瓣胡同2号楼东南侧,City Park,116.433548,39.928192,dong si ao lin pi ke she qu gong yuan,dou ban hu tong 2 hao lou dong nan ce,dong si
罗马湖,,后沙峪,后沙峪地区罗各庄村罗东路8号,Natural Scenery,116.518306,40.102511,luo ma hu,hou sha yu di qu luo ge zhuang cun luo dong lu 8 hao,hou sha yu
中青旅遨游网,89192089,建外大街,东大桥路8号尚都国际中心底商106号,Travel Agency,116.451137,39.919697,zhong qing lv ao you wang,dong da qiao lu 8 hao shang du guo ji zhong xin di shang 106 hao,jian wai da jie
亚运村升旗广场,,亚运村,亚运村北辰东路8号村长楼前,Square,116.403583,39.993391,ya yun cun sheng qi guang chang,ya yun cun bei chen dong lu 8 hao cun chang lou qian,ya yun cun
国际民俗旅游文化村,87740525,高碑店,高碑店路1438号,Countryside Tourism,116.528285,39.899695,guo ji min su lv you wen hua cun,gao bei dian lu 1438 hao,gao bei dian
世纪京华酒文化博物馆,63867643,北大地/万丰路,丰体北路6号,Museum,116.28038,39.868069,shi ji jing hua jiu wen hua bo wu guan,feng ti bei lu 6 hao,bei da di / wan feng lu
灿艺术中心,59789760;186****6120,798/大山子,酒仙桥路4号798艺术区B区11号高台阶厂库,Art Gallery,116.496521,39.985683,can yi zhu zhong xin,jiu xian qiao lu 4 hao 798 yi zhu qu B qu 11 hao gao tai jie chang ku,798 / da shan zi
隆安寺,67103852,广渠门内,广渠门内白桥南里1号,Religion,116.440277,39.895439,long an si,guang qu men nei bai qiao nan li 1 hao,guang qu men nei
淳亲王府,,东四,正义路5号院,Historical Building,116.416382,39.928555,chun qin wang fu,zheng yi lu 5 hao yuan,dong si
禄米仓,,朝阳门,朝内南小街,Historical Building,116.430641,39.917698,lu mi cang,zhao nei nan xiao jie,zhao yang men
单车公园,81746048,回龙观,回龙观体育公园内,City Park,116.341805,40.078781,dan che gong yuan,hui long guan ti yu gong yuan nei,hui long guan
西贯市清真寺,69768987;69760863,昌平区,西贯市村后街28号,Religion,116.146187,40.136402,xi guan shi qing zhen si,xi guan shi cun hou jie 28 hao,chang ping qu
风水坡森林公园,87757531,蟒山国家森林公园,崔村镇西峪村北风水坡,Forest Park,116.328491,40.260372,feng shui po sen lin gong yuan,cui cun zhen xi yu cun bei feng shui po,mang shan guo jia sen lin gong yuan
森鑫森林公园,89481740,南彩镇,潮白河畔,Forest Park,116.739494,40.085766,sen xin sen lin gong yuan,chao bai he pan,nan cai zhen
月明涧溶洞公园,,顺义区,龙湾屯镇唐洞村东,Natural Scenery,116.897355,40.22135,yue ming jian rong dong gong yuan,long wan tun zhen tang dong cun dong,shun yi qu
北京东区艺术中心,69598811,宋庄,朱庄水墨同盟画廊旁,Art Gallery,116.719261,39.964878,bei jing dong qu yi zhu zhong xin,zhu zhuang shui mo tong meng hua lang pang,song zhuang
仙台旅游区,68872492,门头沟区,以南2公里,Other Attractions/Side Trip,115.900574,40.031532,xian tai lv you qu,yi nan 2 gong li,men tou gou qu
双林寺,61340841,爨底下村,X012与上清水北大街交叉口正西方向252米,Religion,115.612366,39.951488,shuang lin si,X 012 yu shang qing shui bei da jie jiao cha kou zheng xi fang xiang 252 mi,cuan di xia cun
灵溪风景区,19910707626,门头沟区,妙峰山镇岭角村,Natural Scenery,115.975433,40.01778,ling xi feng jing qu,miao feng shan zhen ling jiao cun,men tou gou qu
百花谷自然景区,61826088,门头沟区,（百花山国家级自然保护区）,Natural Scenery,115.559792,39.85601,bai hua gu zi ran jing qu,（ bai hua shan guo jia ji zi ran bao hu qu ）,men tou gou qu
东山梨花园,60812631,门头沟区,军庄镇东山村东山大后街9号,Natural Scenery,116.14002,40.01135,dong shan li hua yuan,jun zhuang zhen dong shan cun dong shan da hou jie 9 hao,men tou gou qu
姚广孝墓塔,60761334,房山区,青龙湖镇常乐寺村（张宸华小区西北480米处）,Acient Ruins,116.086014,39.825188,yao guang xiao mu ta,qing long hu zhen chang le si cun （ zhang chen hua xiao qu xi bei 480 mi chu ）,fang shan qu
龙虎沟瀑布峰风景区,61340339;61622944,十渡镇,近郊十渡,Natural Scenery,115.602867,39.67577,long hu gou pu bu feng feng jing qu,jin jiao shi du,shi du zhen
没有共产党就没有新中国纪念馆,60368258;60368286,房山区,霞云岭堂上村,Memorial Hall,115.584648,39.780807,mei you gong chan dang jiu mei you xin zhong guo ji nian guan,xia yun ling tang shang cun,fang shan qu
夏都公园,69144238,延庆城区,湖北西路2号,City Park,115.974373,40.453564,xia du gong yuan,hu bei xi lu 2 hao,yan qing cheng qu
华冠天一博物馆,88512699,平谷城区,府前西街34号,Museum,117.102899,40.140234,hua guan tian yi bo wu guan,fu qian xi jie 34 hao,ping gu cheng qu
杨令公祠,,古北口,当铺后东街,Religion,117.166381,40.687798,yang ling gong ci,dang pu hou dong jie,gu bei kou
黄峪口风景区,,密云区其他,西石路与西黄路交叉口西180米,Natural Scenery,116.8302,40.610157,huang yu kou feng jing qu,xi shi lu yu xi huang lu jiao cha kou xi 180 mi,mi yun qu qi ta
卧虎山长城景区,81051177,古北口,古北口镇河西村,Natural Scenery,117.158958,40.68985,wo hu shan chang cheng jing qu,gu bei kou zhen he xi cun,gu bei kou
密云白河石滩漂风景区,69015028,密云区其他,密关路与立新村路交叉口西侧,Natural Scenery,116.832436,40.44112,mi yun bai he shi tan piao feng jing qu,mi guan lu yu li xin cun lu jiao cha kou xi ce,mi yun qu qi ta
万科公园,65865555,朝阳公园/团结湖,甜水西园甜水园街,City Park,116.477219,39.925529,wan ke gong yuan,tian shui xi yuan tian shui yuan jie,zhao yang gong yuan / tuan jie hu
黄村街心公园,69250487,黄村,黄村兴丰大街三段197号,City Park,116.338627,39.729066,huang cun jie xin gong yuan,huang cun xing feng da jie san duan 197 hao,huang cun
普法公园,69646747,商业街,迎宾中路15号,City Park,116.637115,40.314526,pu fa gong yuan,ying bin zhong lu 15 hao,shang ye jie
圆金梦黄金主题公园,61617090,怀柔区,杨树底下村,City Park,116.520699,40.541419,yuan jin meng huang jin zhu ti gong yuan,yang shu di xia cun,huai rou qu
国际交流中心,68323000,阜成门,展览馆路24号,Exhibition Centre,116.346222,39.926983,guo ji jiao liu zhong xin,zhan lan guan lu 24 hao,fu cheng men
平谷人民公园,69961679,平谷城区,平谷府前西街5号,City Park,117.107689,40.141171,ping gu ren min gong yuan,ping gu fu qian xi jie 5 hao,ping gu cheng qu
天元公园,,青塔,青塔西路（近巴厘岛）,Park/Square,116.261101,39.875927,tian yuan gong yuan,qing ta xi lu （ jin ba li dao ）,qing ta
通州运河公园,80855502;80855509,武夷花园,通胡大街70号,City Park,116.69173,39.906223,tong zhou yun he gong yuan,tong hu da jie 70 hao,wu yi hua yuan
龙熙温泉水世界,89282222-8605,庞各庄,庞各庄镇顺景路8号,Hot Spring,116.30216,39.62452,long xi wen quan shui shi jie,pang ge zhuang zhen shun jing lu 8 hao,pang ge zhuang
中国妇女儿童博物馆,65269678,建国门/北京站,北极阁路9号,Museum,116.423553,39.910465,zhong guo fu nv er tong bo wu guan,bei ji ge lu 9 hao,jian guo men / bei jing zhan
朝阳公园亚布洛尼滑雪场,65076591;189****8653,朝阳公园/团结湖,农展南路1号,Ski Resort,116.482605,39.944225,zhao yang gong yuan ya bu luo ni hua xue chang,nong zhan nan lu 1 hao,zhao yang gong yuan / tuan jie hu
万寿兴隆寺,,西四,北长街39号,Religion,116.390793,39.920277,wan shou xing long si,bei chang jie 39 hao,xi si
延庆水泉沟西水峪景区,,百里画廊,大庄科乡东南部水泉沟村,Natural Scenery,116.371918,40.753975,yan qing shui quan gou xi shui yu jing qu,da zhuang ke xiang dong nan bu shui quan gou cun,bai li hua lang
国家会议中心,84373300,亚运村,天辰东路7号,Landmark,116.38945,40.002914,guo jia hui yi zhong xin,tian chen dong lu 7 hao,ya yun cun
王府国际Travel Agency,85865564,大望路,东四环八里庄西里1号慈云寺远洋天地69号楼304室,Travel Agency,116.494611,39.912849,wang fu guo ji T r a v e l   A g e n c y,dong si huan ba li zhuang xi li 1 hao ci yun si yuan yang tian di 69 hao lou 304 shi,da wang lu
神舟国旅,51280116,朝阳公园/团结湖,东三环北路17号新时代证券大厦1层,Travel Agency,116.456383,39.924442,shen zhou guo lv,dong san huan bei lu 17 hao xin shi dai zheng quan da sha 1 ceng,zhao yang gong yuan / tuan jie hu
德胜公园,84032422,德外大街,旧鼓楼大街,City Park,116.382355,39.948473,de sheng gong yuan,jiu gu lou da jie,de wai da jie
中国民间国际旅游公司,,亮马桥/三元桥,霄云路21号嘉里大通中心5层,Travel Agency,116.465174,39.959964,zhong guo min jian guo ji lv you gong si,xiao yun lu 21 hao jia li da tong zhong xin 5 ceng,liang ma qiao / san yuan qiao
鸦儿胡同,,后海/什刹海,鼓楼西大街与鸦儿胡同交叉口西40米,Historical Building,116.392059,39.941113,ya er hu tong,gu lou xi da jie yu ya er hu tong jiao cha kou xi 40 mi,hou hai / shi cha hai
关岳庙,64050887,后海/什刹海,鼓楼西大街149号,Religion,116.38575,39.946861,guan yue miao,gu lou xi da jie 149 hao,hou hai / shi cha hai
通信电信博物馆,64041099,宣武门,骡马市大街9号中国联通北京分公司总部大楼,Museum,116.379402,39.890076,tong xin dian xin bo wu guan,luo ma shi da jie 9 hao zhong guo lian tong bei jing fen gong si zong bu da lou,xuan wu men
醇亲王府,64035858,后海/什刹海,后海北沿44号,Historical Building,116.384605,39.944981,chun qin wang fu,hou hai bei yan 44 hao,hou hai / shi cha hai
拈花寺,,后海/什刹海,大石桥胡同61号,Religion,116.387009,39.94733,nian hua si,da shi qiao hu tong 61 hao,hou hai / shi cha hai
西海,82565555;80882290,后海/什刹海,德胜门西顺城街与德胜门桥交叉口南80米,Natural Scenery,116.377571,39.947582,xi hai,de sheng men xi shun cheng jie yu de sheng men qiao jiao cha kou nan 80 mi,hou hai / shi cha hai
和园景逸大酒店朗月温泉,69457777,顺义区,边河路57号院2区,Hot Spring,116.486399,40.085529,he yuan jing yi da jiu dian lang yue wen quan,bian he lu 57 hao yuan 2 qu,shun yi qu
全国农业展览馆,59198331,亮马桥/三元桥,东三环北路16号,Exhibition Centre,116.465126,39.940552,quan guo nong ye zhan lan guan,dong san huan bei lu 16 hao,liang ma qiao / san yuan qiao
北京青年Travel Agency,57134545,西直门/动物园,西直门外德宝新园华侨酒店418室,Travel Agency,116.349084,39.941394,bei jing qing nian T r a v e l   A g e n c y,xi zhi men wai de bao xin yuan hua qiao jiu dian 418 shi,xi zhi men / dong wu yuan
新华社礼堂,,宣武门,佟麟阁路62号院,Modern Building,116.369873,39.90205,xin hua she li tang,tong lin ge lu 62 hao yuan,xuan wu men
未名湖,62754070,颐和园,颐和园路5号北京大学,Natural Scenery,116.310654,39.994823,wei ming hu,yi he yuan lu 5 hao bei jing da xue,yi he yuan
博雅塔,,颐和园,颐和园路5号,Historical Building,116.311844,39.993961,bo ya ta,yi he yuan lu 5 hao,yi he yuan
温榆河白各庄湖生态湿地,,沙河,沙河水库东,Natural Scenery,116.355598,40.124886,wen yu he bai ge zhuang hu sheng tai shi di,sha he shui ku dong,sha he
黄瓦财神庙,,地安门,鼓楼东大街117号,Religion,116.403206,39.940994,huang wa cai shen miao,gu lou dong da jie 117 hao,di an men
中商国际Travel Agency,84516266;84511688,亮马桥/三元桥,东三环北路1号中国旅贸大厦405室,Travel Agency,116.459267,39.953762,zhong shang guo ji T r a v e l   A g e n c y,dong san huan bei lu 1 hao zhong guo lv mao da sha 405 shi,liang ma qiao / san yuan qiao
中国Travel Agency总社,65593822;65593825,崇文门,东华门街道崇文门西大街3-3号,Travel Agency,116.41546,39.901627,zhong guo T r a v e l   A g e n c y zong she,dong hua men jie dao chong wen men xi da jie 3 - 3 hao,chong wen men
中青旅遨游网,89192080,崇文门,新怡家园5号楼1层5单元商业10号,Travel Agency,116.414398,39.899181,zhong qing lv ao you wang,xin yi jia yuan 5 hao lou 1 ceng 5 dan yuan shang ye 10 hao,chong wen men
枫华旅游,65911415,国贸/建外,建国门外大街3号京伦饭店6层,Travel Agency,116.453629,39.90892,feng hua lv you,jian guo men wai da jie 3 hao jing lun fan dian 6 ceng,guo mao / jian wai
兴海公园,,西红门,宏福路兴海家园星苑斜对面,Park/Square,116.333633,39.789303,xing hai gong yuan,hong fu lu xing hai jia yuan xing yuan xie dui mian,xi hong men
华丰国际Travel Agency,83548651,牛街,广安门内大街202号A座228,Travel Agency,116.363068,39.88866,hua feng guo ji T r a v e l   A g e n c y,guang an men nei da jie 202 hao A zuo 228,niu jie
老北京动态民俗文化城,,前门/大栅栏,大栅栏Pedestrian Zone7号,Other Attractions/Side Trip,116.396988,39.896053,lao bei jing dong tai min su wen hua cheng,da zha lan P e d e s t r i a n   Z o n e 7 hao,qian men / da zha lan
一得阁,63032145,前门/大栅栏,南新华街25号(和平门地铁站D2西南口步行440米),Art Gallery,116.384125,39.895958,yi de ge,nan xin hua jie 25 hao ( he ping men di tie zhan D 2 xi nan kou bu xing 440 mi ),qian men / da zha lan
勑建火神庙,,阜成门,琉璃厂东街29号,Religion,116.354256,39.922005,lai jian huo shen miao,liu li chang dong jie 29 hao,fu cheng men
天通艺园,84821199,天通苑,天通苑东一区11号楼对面大花园入口处,City Park,116.434593,40.070705,tian tong yi yuan,tian tong yuan dong yi qu 11 hao lou dui mian da hua yuan ru kou chu,tian tong yuan
中国Travel Agency,62717405;62717409,清河,育新花园西路与育新南路交叉口东南220米,Travel Agency,116.344929,40.053899,zhong guo T r a v e l   A g e n c y,yu xin hua yuan xi lu yu yu xin nan lu jiao cha kou dong nan 220 mi,qing he
凯撒旅游,64405588,安贞,北三环东路28号易亨大厦7层709室,Travel Agency,116.416075,39.968685,kai sa lv you,bei san huan dong lu 28 hao yi heng da sha 7 ceng 709 shi,an zhen
灵照寺,69180339,延庆城区,湖北西路5号,Religion,115.972527,40.456402,ling zhao si,hu bei xi lu 5 hao,yan qing cheng qu
南马场水库,,石景山区,黑石头村南马场,Modern Building,116.17392,39.977032,nan ma chang shui ku,hei shi tou cun nan ma chang,shi jing shan qu
五道营胡同,,安定门,安定门街道五道营胡同67号西门,Pedestrian Zone,116.40927,39.9484,wu dao ying hu tong,an ding men jie dao wu dao ying hu tong 67 hao xi men,an ding men
平北红色第一村,60189251,延庆区其他,沙塘沟村（近昌平碓臼峪）,Memorial Hall,116.166854,40.41016,ping bei hong se di yi cun,sha tang gou cun （ jin chang ping dui jiu yu ）,yan qing qu qi ta
龙仙宫,61336955,房山区,张坊镇东关村龙泉寺沟（近仙栖洞）,Natural Scenery,115.736366,39.66943,long xian gong,zhang fang zhen dong guan cun long quan si gou （ jin xian qi dong ）,fang shan qu
玉蜓公园,67692146,天坛,永定门东滨河路17号,Park/Square,116.418167,39.872631,yu ting gong yuan,yong ding men dong bin he lu 17 hao,tian tan
马致远故居,,门头沟区,西落坡村内,Former Residence of Celebrity,116.032532,39.959946,ma zhi yuan gu ju,xi luo po cun nei,men tou gou qu
平谷世纪广场,,平谷城区,新平北路（近林荫北街）,Square,117.107618,40.143771,ping gu shi ji guang chang,xin ping bei lu （ jin lin yin bei jie ）,ping gu cheng qu
平谷峨眉山,,平谷区,南独乐河镇峨眉山村,Natural Scenery,117.197227,40.220425,ping gu e mei shan,nan du le he zhen e mei shan cun,ping gu qu
京西古道风景区,61880498,妙峰山,妙峰山镇水峪嘴村,Acient Path,116.049703,39.966163,jing xi gu dao feng jing qu,miao feng shan zhen shui yu zui cun,miao feng shan
圣泉山观音寺,60637288,红螺寺,桥梓镇口头村圣泉山景区内,Religion,116.581759,40.365464,sheng quan shan guan yin si,qiao zi zhen kou tou cun sheng quan shan jing qu nei,hong luo si
马铃薯博物馆,60159988,延庆区其他,延农路希森马铃薯产业集团1楼,Museum,115.913824,40.451954,ma ling shu bo wu guan,yan nong lu xi sen ma ling shu chan ye ji tuan 1 lou,yan qing qu qi ta
华晟恒旅游,,月坛,三里河东路1-1号,Travel Agency,116.344553,39.917263,hua sheng heng lv you,san li he dong lu 1 - 1 hao,yue tan
涌溪公园,,安贞,安定路32号,City Park,116.406738,39.970146,yong xi gong yuan,an ding lu 32 hao,an zhen
中国国旅,88083871,航天桥,三里河路13号中国建筑文化中心1层,Travel Agency,116.333305,39.928945,zhong guo guo lv,san li he lu 13 hao zhong guo jian zhu wen hua zhong xin 1 ceng,hang tian qiao
春秋Travel Agency,65170418,朝阳门,朝内大街188号a座（鸿安国际商务大厦）,Travel Agency,116.424309,39.923729,chun qiu T r a v e l   A g e n c y,zhao nei da jie 188 hao a zuo （ hong an guo ji shang wu da sha ）,zhao yang men
树村郊野公园,,上地,上地街道树村路农大南路交汇处东,City Park,116.302643,40.027874,shu cun jiao ye gong yuan,shang di jie dao shu cun lu nong da nan lu jiao hui chu dong,shang di
明珠生态休闲公园,,密云区其他,京密路十里堡河槽镇(明珠花园小区对面),Park/Square,116.79097,40.354034,ming zhu sheng tai xiu xian gong yuan,jing mi lu shi li bao he cao zhen ( ming zhu hua yuan xiao qu dui mian ),mi yun qu qi ta
海洋国旅Travel Agency,51660337,亮马桥/三元桥,东三环北路甲2号京信大厦主楼5楼三区535室（近三元东桥）,Travel Agency,116.461647,39.954521,hai yang guo lv T r a v e l   A g e n c y,dong san huan bei lu jia 2 hao jing xin da sha zhu lou 5 lou san qu 535 shi （ jin san yuan dong qiao ）,liang ma qiao / san yuan qiao
中国国际贸易中心展厅,65052288,国贸/建外,建国门外大街1号,Exhibition Centre,116.45929,39.910103,zhong guo guo ji mao yi zhong xin zhan ting,jian guo men wai da jie 1 hao,guo mao / jian wai
千佛崖风景区,,天云山,黄土梁国家森林公园千佛崖景区,Natural Scenery,117.258301,40.30965,qian fo ya feng jing qu,huang tu liang guo jia sen lin gong yuan qian fo ya jing qu,tian yun shan
看丹公园,,看丹桥/新华街,看丹南路路南,Park/Square,116.267982,39.831371,kan dan gong yuan,kan dan nan lu lu nan,kan dan qiao / xin hua jie
常营清真古寺,65755914,管庄,朝阳北路与民族家园东路交叉路口西北侧,Religion,116.587097,39.925587,chang ying qing zhen gu si,zhao yang bei lu yu min zu jia yuan dong lu jiao cha lu kou xi bei ce,guan zhuang
谭鑫培故居,,虎坊桥,前门外樱桃斜街4473号,Former Residence of Celebrity,116.388557,39.893024,tan xin pei gu ju,qian men wai ying tao xie jie 4473 hao,hu fang qiao
畅春园公园,,颐和园,颐和园路,City Park,116.293381,39.997276,chang chun yuan gong yuan,yi he yuan lu,yi he yuan
曹勇国际艺术馆,,酒仙桥,酒仙桥路2号798艺术797路B02号,Art Gallery,116.49395,39.98637,cao yong guo ji yi zhu guan,jiu xian qiao lu 2 hao 798 yi zhu 797 lu B 02 hao,jiu xian qiao
北京台湾街,68656688,鲁谷,石景山路2号（国际雕塑公园西南侧远洋山水对面）,Leisure Block,116.236389,39.904331,bei jing tai wan jie,shi jing shan lu 2 hao （ guo ji diao su gong yuan xi nan ce yuan yang shan shui dui mian ）,lu gu
沙河水库,,沙河,北京新亚研修学院附近,Modern Building,116.329552,40.131275,sha he shui ku,bei jing xin ya yan xiu xue yuan fu jin,sha he
黄草湾郊野公园,,大屯,大屯街道北五环路（近姜庄湖高尔夫俱乐部）,City Park,116.435242,40.005802,huang cao wan jiao ye gong yuan,da tun jie dao bei wu huan lu （ jin jiang zhuang hu gao er fu ju le bu ）,da tun
视觉经典美术馆,65280057,王府井/东单,东单北大街北极阁三条32号,Art Gallery,116.419678,39.910351,shi jue jing dian mei zhu guan,dong dan bei da jie bei ji ge san tiao 32 hao,wang fu jing / dong dan
时尚体育公园,89232289,大兴区,半壁店森林公园东星明湖度假村内,Park/Square,116.438477,39.613384,shi shang ti yu gong yuan,ban bi dian sen lin gong yuan dong xing ming hu du jia cun nei,da xing qu
花市社区博物馆,67166227,崇文门,大街花市枣苑8-9号楼地下,Museum,116.429359,39.89584,hua shi she qu bo wu guan,da jie hua shi zao yuan 8 - 9 hao lou di xia,chong wen men
北京凤凰岭美术馆,62405836;186****1252,云岗,海淀区翠湖云中心,Art Gallery,116.195908,39.872437,bei jing feng huang ling mei zhu guan,hai dian qu cui hu yun zhong xin,yun gang
北京青年Travel Agency,63987730;4006556968,公主坟/万寿路,羊坊店街道羊坊店路11号中东大厦南楼304号（近军事博物馆）,Travel Agency,116.320744,39.903224,bei jing qing nian T r a v e l   A g e n c y,yang fang dian jie dao yang fang dian lu 11 hao zhong dong da sha nan lou 304 hao （ jin jun shi bo wu guan ）,gong zhu fen / wan shou lu
抱璞斋,,宣武门,南新华街琉璃厂文化街(和平门地铁站C1东南口步行490米),Art Gallery,116.384315,39.895679,bao pu zhai,nan xin hua jie liu li chang wen hua jie ( he ping men di tie zhan C 1 dong nan kou bu xing 490 mi ),xuan wu men
白乙化烈士纪念馆,61025708,桃源仙谷,琉辛路与河北路交叉东行100米,Memorial Hall,116.826996,40.565166,bai yi hua lie shi ji nian guan,liu xin lu yu he bei lu jiao cha dong xing 100 mi,tao yuan xian gu
槐新公园,,草桥/公益西桥,南四环中路142号,City Park,116.362152,39.825634,huai xin gong yuan,nan si huan zhong lu 142 hao,cao qiao / gong yi xi qiao
美术馆街心公园,64011816,东四,美术馆东街,City Park,116.410896,39.925842,mei zhu guan jie xin gong yuan,mei zhu guan dong jie,dong si
钓鱼台国际Travel Agency,64465840,左家庄,西坝河南路3号C座,Travel Agency,116.43409,39.958996,diao yu tai guo ji T r a v e l   A g e n c y,xi ba he nan lu 3 hao C zuo,zuo jia zhuang
妫水公园,,延庆区其他,东外小区,City Park,115.96096,40.456078,gui shui gong yuan,dong wai xiao qu,yan qing qu qi ta
沙厂水库,,密云区其他,京承高速穆家寨出口附近近羊山桥,Modern Building,117.037777,40.394687,sha chang shui ku,jing cheng gao su mu jia zhai chu kou fu jin jin yang shan qiao,mi yun qu qi ta
旺兴湖郊野公园,,旧宫,绿化隔离区内（近庑殿路）,City Park,116.436096,39.814407,wang xing hu jiao ye gong yuan,lv hua ge li qu nei （ jin wu dian lu ）,jiu gong
盘龙瀑风景区,60928604;84924248,盘山风景名胜区,南山村,Natural Scenery,117.276268,40.128929,pan long pu feng jing qu,nan shan cun,pan shan feng jing ming sheng qu
云瀑沟风景区,159****6098,延庆区其他,旧县镇香龙路三里庄村,Natural Scenery,116.039013,40.587158,yun pu gou feng jing qu,jiu xian zhen xiang long lu san li zhuang cun,yan qing qu qi ta
永宁古城,60189799;133****0022,延庆区其他,昌赤路,Historical Building,116.165466,40.526501,yong ning gu cheng,chang chi lu,yan qing qu qi ta
北京紫砂艺术馆,63106239,宣武门,琉璃厂西街,Art Gallery,116.37925,39.895065,bei jing zi sha yi zhu guan,liu li chang xi jie,xuan wu men
福地广场,,广内大街,菜市口大街1号,Park/Square,116.373611,39.887337,fu di guang chang,cai shi kou da jie 1 hao,guang nei da jie
东城毛泽东故居,,地安门,景山吉安所左巷8号,Former Residence of Celebrity,116.400665,39.92926,dong cheng mao ze dong gu ju,jing shan ji an suo zuo xiang 8 hao,di an men
上水湾自然风景区,81060280,密云区其他,西火路,Natural Scenery,116.89632,40.63794,shang shui wan zi ran feng jing qu,xi huo lu,mi yun qu qi ta
回龙园,81717050,回龙观,龙禧三街与育知路交叉口西北角,City Park,116.324913,40.082851,hui long yuan,long xi san jie yu yu zhi lu jiao cha kou xi bei jiao,hui long guan
旺泉峪长城,,渤海镇/慕田峪长城,怀柔响水湖,Historical Building,116.454312,40.452563,wang quan yu chang cheng,huai rou xiang shui hu,bo hai zhen / mu tian yu chang cheng
河防口长城,,怀北滑雪场,怀北镇河防口村（青龙峡）,Historical Building,116.67498,40.433334,he fang kou chang cheng,huai bei zhen he fang kou cun （ qing long xia ）,huai bei hua xue chang
巴旅天翔Travel Agency,52980136,六里桥/丽泽桥,莲花池西里29号公交调度中心906室,Travel Agency,116.305037,39.890477,ba lv tian xiang T r a v e l   A g e n c y,lian hua chi xi li 29 hao gong jiao diao du zhong xin 906 shi,liu li qiao / li ze qiao
孚郡王墓,,海淀区,北,Acient Ruins,116.114695,40.075295,fu jun wang mu,bei,hai dian qu
西单美食街,,西单,西单北大街109号西单婚庆大楼2楼（西单商场对面）,Leisure Block,116.37326,39.914101,xi dan mei shi jie,xi dan bei da jie 109 hao xi dan hun qing da lou 2 lou （ xi dan shang chang dui mian ）,xi dan
黄松峪水库,,石林峡,黄松峪乡胡关路黄松峪水库,Modern Building,117.250771,40.247849,huang song yu shui ku,huang song yu xiang hu guan lu huang song yu shui ku,shi lin xia
宣武区青少年Science Museum,63174940,宣武门,宣武门外大街137号,Science Museum,116.372818,39.897312,xuan wu qu qing shao nian S c i e n c e   M u s e u m,xuan wu men wai da jie 137 hao,xuan wu men
映画廊,59789029,798/大山子,酒仙桥路4号北京798艺术区七星中街,Exhibition Centre,116.496452,39.982174,ying hua lang,jiu xian qiao lu 4 hao bei jing 798 yi zhu qu qi xing zhong jie,798 / da shan zi
椒园寺遗址,,门头沟区,龙泉地区,Religion,116.076269,39.974959,jiao yuan si yi zhi,long quan di qu,men tou gou qu
牛口峪水库,,城关街道,西环路与房山大街交叉口西400米,Modern Building,115.964859,39.7019,niu kou yu shui ku,xi huan lu yu fang shan da jie jiao cha kou xi 400 mi,cheng guan jie dao
松榆里公园,,劲松/潘家园,松榆里33号,Park/Square,116.470146,39.874702,song yu li gong yuan,song yu li 33 hao,jing song / pan jia yuan
镇海寺郊野公园,,十八里店,小红门红坊路,City Park,116.487053,39.82877,zhen hai si jiao ye gong yuan,xiao hong men hong fang lu,shi ba li dian
国防艺术区,89579319,宋庄,徐宋路与小堡北街交叉口北40米,Leisure Block,116.723671,39.951771,guo fang yi zhu qu,xu song lu yu xiao bao bei jie jiao cha kou bei 40 mi,song zhuang
凯撒旅游,56496576,百子湾,西大望路甲22号合生汇写字楼四层（近世贸天阶东门）,Travel Agency,116.4814,39.893639,kai sa lv you,xi da wang lu jia 22 hao he sheng hui xie zi lou si ceng （ jin shi mao tian jie dong men ）,bai zi wan
海洋国际Travel Agency,68227318,公主坟/万寿路,复兴路乙20号汇通商务楼44号楼625室,Travel Agency,116.299534,39.906739,hai yang guo ji T r a v e l   A g e n c y,fu xing lu yi 20 hao hui tong shang wu lou 44 hao lou 625 shi,gong zhu fen / wan shou lu
中国科学国际Travel Agency,153****9735,中关村,中关村南三街15号中国科学院内,Travel Agency,116.327248,39.979911,zhong guo ke xue guo ji T r a v e l   A g e n c y,zhong guan cun nan san jie 15 hao zhong guo ke xue yuan nei,zhong guan cun
万泉文化公园,,苏州桥,中直东路（近万泉河路）,Cultural Park,116.301346,39.991497,wan quan wen hua gong yuan,zhong zhi dong lu （ jin wan quan he lu ）,su zhou qiao
台湾会馆,,前门/大栅栏,前门东大街大江胡同114号,Historical Building,116.400558,39.894604,tai wan hui guan,qian men dong da jie da jiang hu tong 114 hao,qian men / da zha lan
西湖园,,首都机场,二纬路与一经路交叉口西北角,City Park,116.607964,40.04882,xi hu yuan,er wei lu yu yi jing lu jiao cha kou xi bei jiao,shou du ji chang
北京鹿世界主题园,60684757;135****5946,怀柔电影旅游拍摄基地,安乐庄312号,Zoo,116.701949,40.294848,bei jing lu shi jie zhu ti yuan,an le zhuang 312 hao,huai rou dian ying lv you pai she ji di
海淀清真古寺,62558296,苏州桥,苏州街19号（苏州街地铁站A西北口步行440米）,Religion,116.305481,39.978794,hai dian qing zhen gu si,su zhou jie 19 hao （ su zhou jie di tie zhan A xi bei kou bu xing 440 mi ）,su zhou qiao
古城草堂,61611046,渤海镇/慕田峪长城,雁栖镇西栅子村南吉利,Historical Building,116.534431,40.46846,gu cheng cao tang,yan qi zhen xi zha zi cun nan ji li,bo hai zhen / mu tian yu chang cheng
草场地美术馆,64325598,798/大山子,机场辅路草场地美术馆b区46号（近798艺术区）,Art Gallery,116.503349,40.000275,cao chang di mei zhu guan,ji chang fu lu cao chang di mei zhu guan b qu 46 hao （ jin 798 yi zhu qu ）,798 / da shan zi
安定门京城老物件陈列室,,地安门,铃铛胡同甲4号,Exhibition Gallery,116.394844,39.942371,an ding men jing cheng lao wu jian chen lie shi,ling dang hu tong jia 4 hao,di an men
转山子水库,,密云区其他,水库北岸不老屯镇转山子村,Modern Building,116.922903,40.586653,zhuan shan zi shui ku,shui ku bei an bu lao tun zhen zhuan shan zi cun,mi yun qu qi ta
关渡河,,红螺寺,方向山路旁河滩,Other Attractions/Side Trip,116.564105,40.362936,guan du he,fang xiang shan lu pang he tan,hong luo si
美国使馆旧址,,前门/大栅栏,东华门街道前门东大街23号,Historical Building,116.401421,39.90081,mei guo shi guan jiu zhi,dong hua men jie dao qian men dong da jie 23 hao,qian men / da zha lan
北京青年Travel Agency,57227822;186****8810,六里桥/丽泽桥,丰台北路甲45号鼎恒中心商务楼,Travel Agency,116.300377,39.867039,bei jing qing nian T r a v e l   A g e n c y,feng tai bei lu jia 45 hao ding heng zhong xin shang wu lou,liu li qiao / li ze qiao
南海子公园,52386316;150****2905,大兴区,瀛海镇黄亦路16号,City Park,116.463761,39.777974,nan hai zi gong yuan,ying hai zhen huang yi lu 16 hao,da xing qu
北京青年Travel Agency,188****1206,双井,广渠门外大街8号A座1804室,Travel Agency,116.458572,39.892921,bei jing qing nian T r a v e l   A g e n c y,guang qu men wai da jie 8 hao A zuo 1804 shi,shuang jing
大运河森林公园,61569200,通州区,通怀路大运河森林公园,Forest Park,116.747147,39.870612,da yun he sen lin gong yuan,tong huai lu da yun he sen lin gong yuan,tong zhou qu
安外清真寺,84128869,安定门,安定门外大街青年湖南里上龙西里24号楼,Religion,116.405785,39.953476,an wai qing zhen si,an ding men wai da jie qing nian hu nan li shang long xi li 24 hao lou,an ding men
崇效寺,63541481,广内大街,白纸坊西街枣林西里,Religion,116.356964,39.882118,chong xiao si,bai zhi fang xi jie zao lin xi li,guang nei da jie
马甸清真寺,,牡丹园/北太平庄,马甸南村7号,Religion,116.378609,39.969196,ma dian qing zhen si,ma dian nan cun 7 hao,mu dan yuan / bei tai ping zhuang
汉路县城遗址,,宋庄,潞源北街与景行路交叉口西南角,Acient Ruins,116.725616,39.913708,han lu xian cheng yi zhi,lu yuan bei jie yu jing xing lu jiao cha kou xi nan jiao,song zhuang
北京青年Travel Agency,84848084,天通苑,立汤路186号龙德紫金公寓3-418（近龙德广场）,Travel Agency,116.414428,40.061943,bei jing qing nian T r a v e l   A g e n c y,li tang lu 186 hao long de zi jin gong yu 3 - 418 （ jin long de guang chang ）,tian tong yuan
白浮泉公园,,昌平镇,白浮泉路与南丰路交汇处,City Park,116.268837,40.212231,bai fu quan gong yuan,bai fu quan lu yu nan feng lu jiao hui chu,chang ping zhen
京城槐园,,东坝,姚家园路石油加油站对面,City Park,116.571297,39.942875,jing cheng huai yuan,yao jia yuan lu shi you jia you zhan dui mian,dong ba
京城梨园,85574859,朝阳区,平房地区姚家园路与东五环路交汇处东南角,City Park,116.550808,39.933832,jing cheng li yuan,ping fang di qu yao jia yuan lu yu dong wu huan lu jiao hui chu dong nan jiao,zhao yang qu
博大公园,,亦庄,天华南街,City Park,116.503296,39.796375,bo da gong yuan,tian hua nan jie,yi zhuang
北京西山国家森林公园,62720251;62720252,香山/植物园,闵庄路与香山南路交叉口西100米,Forest Park,116.192901,39.974997,bei jing xi shan guo jia sen lin gong yuan,min zhuang lu yu xiang shan nan lu jiao cha kou xi 100 mi,xiang shan / zhi wu yuan
众信旅游,65505598,大望路,东四环中路58号远洋国际中心a座108号,Travel Agency,116.49128,39.914627,zhong xin lv you,dong si huan zhong lu 58 hao yuan yang guo ji zhong xin a zuo 108 hao,da wang lu
众信旅游,66033678;66033698,西单,宣武门内大街宣武门商务酒店北侧约160米,Travel Agency,116.374788,39.900705,zhong xin lv you,xuan wu men nei da jie xuan wu men shang wu jiu dian bei ce yue 160 mi,xi dan
众信旅游,59203838,望京,阜荣街8号院1号楼1层A座01A,Travel Agency,116.48191,39.988884,zhong xin lv you,fu rong jie 8 hao yuan 1 hao lou 1 ceng A zuo 01 A,wang jing
众信旅游,64400877,安定门,安定门外大街183-10号京宝花园一层,Travel Agency,116.407677,39.952663,zhong xin lv you,an ding men wai da jie 183 - 10 hao jing bao hua yuan yi ceng,an ding men
飞扬Travel Agency,82387319,五道口,学院路六所大厦5层,Travel Agency,116.352231,40.001371,fei yang T r a v e l   A g e n c y,xue yuan lu liu suo da sha 5 ceng,wu dao kou
静之湖石涌泉汤泉中心,61709988,昌平区,兴寿镇桃峪口村桃下路静之湖度假酒店内,Hot Spring,116.440964,40.241718,jing zhi hu shi yong quan tang quan zhong xin,xing shou zhen tao yu kou cun tao xia lu jing zhi hu du jia jiu dian nei,chang ping qu
北京青年Travel Agency,57296736,广渠门内,国瑞北路20号,Travel Agency,116.425316,39.898891,bei jing qing nian T r a v e l   A g e n c y,guo rui bei lu 20 hao,guang qu men nei
江水泉公园,69185370,延庆城区,广兴街人民检察院北,City Park,115.977783,40.483253,jiang shui quan gong yuan,guang xing jie ren min jian cha yuan bei,yan qing cheng qu
段祺瑞宅,,朝阳门,仓南胡同5号,Historical Building,116.430283,39.928383,duan qi rui zhai,cang nan hu tong 5 hao,zhao yang men
洪承畴宅,68003887,地安门,地安门东大街南锣鼓巷59号,Historical Building,116.402809,39.938251,hong cheng chou zhai,di an men dong da jie nan luo gu xiang 59 hao,di an men
荣禄故居,,地安门,交道口菊儿胡同3号,Former Residence of Celebrity,116.407639,39.939346,rong lu gu ju,jiao dao kou ju er hu tong 3 hao,di an men
嵩祝寺及智珠寺,,东四,景山后街嵩祝院北巷23号,Religion,116.403999,39.928387,song zhu si ji zhi zhu si,jing shan hou jie song zhu yuan bei xiang 23 hao,dong si
大公主府,,密云县县城,美术馆后街23号,Historical Building,116.839584,40.380795,da gong zhu fu,mei zhu guan hou jie 23 hao,mi yun xian xian cheng
正源清真寺,66251966,新街口,冠英园西区40号,Religion,116.365997,39.937061,zheng yuan qing zhen si,guan ying yuan xi qu 40 hao,xin jie kou
端郡王府,,阜成门,平安里西大街43号,Historical Building,116.36145,39.933865,duan jun wang fu,ping an li xi da jie 43 hao,fu cheng men
棍贝子府,,新街口,新街口东街31号积水潭医院内,Historical Building,116.375862,39.943863,gun bei zi fu,xin jie kou dong jie 31 hao ji shui tan yi yuan nei,xin jie kou
南岗子天主教堂,67143341,广渠门内,永生巷6号,Religion,116.427727,39.88924,nan gang zi tian zhu jiao tang,yong sheng xiang 6 hao,guang qu men nei
利马窦墓,,阜成门,车公庄大街6号北京行政学院校园内,Acient Ruins,116.34771,39.93055,li ma dou mu,che gong zhuang da jie 6 hao bei jing xing zheng xue yuan xiao yuan nei,fu cheng men
星光影视园,60295656,西红门,北兴路东段2号,Film Base,116.361415,39.773271,xing guang ying shi yuan,bei xing lu dong duan 2 hao,xi hong men
北京科学中心,83059999,牡丹园/北太平庄,北辰路9号院,Science Museum,116.392632,39.970196,bei jing ke xue zhong xin,bei chen lu 9 hao yuan,mu dan yuan / bei tai ping zhuang
立水桥公园,,立水桥,安立路（近明天第一城）,City Park,116.40979,40.051392,li shui qiao gong yuan,an li lu （ jin ming tian di yi cheng ）,li shui qiao
青龙山旅游区,69909090,平谷区,大旺务村东688号,Natural Scenery,117.149486,40.079371,qing long shan lv you qu,da wang wu cun dong 688 hao,ping gu qu
密云吉祥寺,81090100,密云区其他,不老屯镇吉祥寺路边庄子村（近不老湖风景区）,Religion,116.967262,40.606071,mi yun ji xiang si,bu lao tun zhen ji xiang si lu bian zhuang zi cun （ jin bu lao hu feng jing qu ）,mi yun qu qi ta
番字石刻,,密云区其他,西火路番字牌小学东侧约110米,Acient Ruins,116.891258,40.739674,fan zi shi ke,xi huo lu fan zi pai xiao xue dong ce yue 110 mi,mi yun qu qi ta
神农峪风景区,,密云区其他,穆家峪镇峪村闸,Natural Scenery,117.035255,40.438465,shen nong yu feng jing qu,mu jia yu zhen yu cun zha,mi yun qu qi ta
福佑寺,,东城区,北长街20号,Religion,116.391441,39.920055,fu you si,bei chang jie 20 hao,dong cheng qu
欧美同学会会址,65257647,王府井/东单,东华门街道南河沿大街111号,Human Heritage,116.406529,39.90911,ou mei tong xue hui hui zhi,dong hua men jie dao nan he yan da jie 111 hao,wang fu jing / dong dan
胜泉亲水湾旅游景区,61948649,平谷区,华西路与泉水浴北路交叉口东南方向423米,Natural Scenery,117.100555,40.297546,sheng quan qin shui wan lv you jing qu,hua xi lu yu quan shui yu bei lu jiao cha kou dong nan fang xiang 423 mi,ping gu qu
轩辕庙遗址,,平谷区,山东庄镇轩辕路2号,Acient Ruins,117.159613,40.193694,xuan yuan miao yi zhi,shan dong zhuang zhen xuan yuan lu 2 hao,ping gu qu
牛栏山清真寺,,马坡牛栏山镇,昌金路牛栏山东口公交站,Religion,116.658798,40.2127,niu lan shan qing zhen si,chang jin lu niu lan shan dong kou gong jiao zhan,ma po niu lan shan zhen
回民营清真寺,,后沙峪,裕安路后沙峪安路,Religion,116.54274,40.118389,hui min ying qing zhen si,yu an lu hou sha yu an lu,hou sha yu
侯宝林故居,,东四,东四头条19号,Former Residence of Celebrity,116.419052,39.925117,hou bao lin gu ju,dong si tou tiao 19 hao,dong si
宝应寺,,广内大街,广安门登莱胡同29号,Religion,116.354774,39.888149,bao ying si,guang an men deng lai hu tong 29 hao,guang nei da jie
三圣庵,,虎坊桥,陶然亭北里黑窑厂街14号,Religion,116.382164,39.881859,san sheng an,tao ran ting bei li hei yao chang jie 14 hao,hu fang qiao
圣安寺,,牛街,宣武门外南横街西口,Religion,116.365158,39.883587,sheng an si,xuan wu men wai nan heng jie xi kou,niu jie
白水寺森林公园,,燕山,燕山中路西北侧（近燕山火车站）,Forest Park,115.950699,39.749737,bai shui si sen lin gong yuan,yan shan zhong lu xi bei ce （ jin yan shan huo che zhan ）,yan shan
京剧艺术博物馆,,阜成门,平安里西大街22号国家京剧院,Museum,116.365479,39.931957,jing ju yi zhu bo wu guan,ping an li xi da jie 22 hao guo jia jing ju yuan,fu cheng men
中国消防博物馆,87899935,大红门,马家堡东路187号,Museum,116.387444,39.83453,zhong guo xiao fang bo wu guan,ma jia bao dong lu 187 hao,da hong men
轩辕黄帝陵,,平谷区,北山路与桥山路交叉口北460米,Acient Ruins,117.158096,40.193398,xuan yuan huang di ling,bei shan lu yu qiao shan lu jiao cha kou bei 460 mi,ping gu qu
清河宝盛里植物园,,清河,永泰庄北路（近西贝九十九毡房）,Botanical Garden,116.366425,40.039639,qing he bao sheng li zhi wu yuan,yong tai zhuang bei lu （ jin xi bei jiu shi jiu zhan fang ）,qing he
龙潭湖冰雪嘉年华,67115570,左安门,龙潭路8号龙潭湖公园北门内,Theme Park,116.440738,39.880858,long tan hu bing xue jia nian hua,long tan lu 8 hao long tan hu gong yuan bei men nei,zuo an men
荣宝美术馆,63036802;63035279,宣武门,琉璃厂西街19号荣宝斋大厦,Art Gallery,116.383125,39.895721,rong bao mei zhu guan,liu li chang xi jie 19 hao rong bao zhai da sha,xuan wu men
安乐林小区,,天坛,安乐林头条2号,Park/Square,116.406876,39.863602,an le lin xiao qu,an le lin tou tiao 2 hao,tian tan
白塔寺,66166099,阜成门,西四宫门口东岔,Religion,116.362785,39.924896,bai ta si,xi si gong men kou dong cha,fu cheng men
柏林寺西,,安定门,环二环绿道,Religion,116.423706,39.950363,bai lin si xi,huan er huan lv dao,an ding men
北京市长青生命纪念园,85383888,次渠,黑庄户乡大鲁店,Memorial Park,116.590849,39.826569,bei jing shi chang qing sheng ming ji nian yuan,hei zhuang hu xiang da lu dian,ci qu
景山四合院,85208989,东四,富强胡同23号,Human Heritage,116.409027,39.919968,jing shan si he yuan,fu qiang hu tong 23 hao,dong si
琉璃渠,,门头沟区,龙泉镇琉璃渠后街155号,Acient Town,116.086876,39.971455,liu li qu,long quan zhen liu li qu hou jie 155 hao,men tou gou qu
天宁寺,63432507,复兴门,天宁寺前街甲3号（西二环与天宁寺前街交口西100米路北）,Religion,116.345963,39.894699,tian ning si,tian ning si qian jie jia 3 hao （ xi er huan yu tian ning si qian jie jiao kou xi 100 mi lu bei ）,fu xing men
洋桥温泉居,,洋桥/木樨园,洋桥南500米西丽华饭店后,Hot Spring,116.386635,39.852448,yang qiao wen quan ju,yang qiao nan 500 mi xi li hua fan dian hou,yang qiao / mu xi yuan
七棵树自由风艺术区,64189488,东坝,东坝地区东坝半截塔55号,Creative Industry Center,116.519585,39.966525,qi ke shu zi you feng yi zhu qu,dong ba di qu dong ba ban jie ta 55 hao,dong ba
长春健身园,,苏州桥,泉宗北路与万柳西路交叉口西50米,Park/Square,116.292336,39.96479,chang chun jian shen yuan,quan zong bei lu yu wan liu xi lu jiao cha kou xi 50 mi,su zhou qiao
狼各庄清真寺,,庞各庄,星顺路北京市大兴区(黄村一幼狼各庄分园)西侧约230米,Religion,116.349159,39.671951,lang ge zhuang qing zhen si,xing shun lu bei jing shi da xing qu ( huang cun yi you lang ge zhuang fen yuan ) xi ce yue 230 mi,pang ge zhuang
故宫九龙壁,65132255;85007421,东城区,景山前街4号故宫博物院宁寿宫内,Human Heritage,116.400444,39.918488,gu gong jiu long bi,jing shan qian jie 4 hao gu gong bo wu yuan ning shou gong nei,dong cheng qu
易游天下国际Travel Agency,,总部基地,航丰路1号时代财富天地1楼科丰桥,Travel Agency,116.287757,39.831737,yi you tian xia guo ji T r a v e l   A g e n c y,hang feng lu 1 hao shi dai cai fu tian di 1 lou ke feng qiao,zong bu ji di
北京汽车博物馆,63756666,看丹桥/新华街,看丹街道南四环西路126号,Museum,116.301666,39.828907,bei jing qi che bo wu guan,kan dan jie dao nan si huan xi lu 126 hao,kan dan qiao / xin hua jie
佳途行国际Travel Agency,,大望路,八里庄西里1号远洋天地68号楼101室,Travel Agency,116.492799,39.912419,jia tu xing guo ji T r a v e l   A g e n c y,ba li zhuang xi li 1 hao yuan yang tian di 68 hao lou 101 shi,da wang lu
如心会议中心,82316185,牡丹园/北太平庄,学院路37号,Other Attractions/Side Trip,116.349388,39.981758,ru xin hui yi zhong xin,xue yuan lu 37 hao,mu dan yuan / bei tai ping zhuang
密虹公园,,密云果园,新西路75号,City Park,116.83606,40.375992,mi hong gong yuan,xin xi lu 75 hao,mi yun guo yuan
圣尼古拉教堂,,东直门,东直门北大街东侧,Religion,116.434639,39.945427,sheng ni gu la jiao tang,dong zhi men bei da jie dong ce,dong zhi men
地铁文化公园,,西红门,西红门规划南环路（近地铁四号线西红门站）,Cultural Park,116.326203,39.781718,di tie wen hua gong yuan,xi hong men gui hua nan huan lu （ jin di tie si hao xian xi hong men zhan ）,xi hong men
798艺术区,59789114,酒仙桥,酒仙桥街道酒仙桥路2号,Creative Industry Center,116.495514,39.984932,7 9 8 yi zhu qu,jiu xian qiao jie dao jiu xian qiao lu 2 hao,jiu xian qiao
百花深处胡同,,新街口,新街口南大街（近护国寺街）,Pedestrian Zone,116.37429,39.93784,bai hua shen chu hu tong,xin jie kou nan da jie （ jin hu guo si jie ）,xin jie kou
钟楼湾胡同,,地安门,西北部鼓楼北侧,Leisure Block,116.396431,39.9426,zhong lou wan hu tong,xi bei bu gu lou bei ce,di an men
府学胡同,,东四,府学胡同和敬府宾馆东北侧约80米,Historical Building,116.412804,39.935661,fu xue hu tong,fu xue hu tong he jing fu bin guan dong bei ce yue 80 mi,dong si
礼士胡同,,朝阳门,礼士胡同72,Leisure Block,116.417763,39.92168,li shi hu tong,li shi hu tong 72,zhao yang men
北京青年Travel Agency,51660323,朝外大街,朝外大街19号,Travel Agency,116.43895,39.924931,bei jing qing nian T r a v e l   A g e n c y,zhao wai da jie 19 hao,zhao wai da jie
文津街,84676415,西四,府右街,Pedestrian Zone,116.386287,39.922532,wen jin jie,fu you jie,xi si
军事外交陈列馆,,德外大街,德胜门外大街6号院2号楼,Memorial Hall,116.38121,39.966076,jun shi wai jiao chen lie guan,de sheng men wai da jie 6 hao yuan 2 hao lou,de wai da jie
中外首工美术馆,84017922,王府井/东单,北河沿大街83号1楼,Art Gallery,116.405899,39.926762,zhong wai shou gong mei zhu guan,bei he yan da jie 83 hao 1 lou,wang fu jing / dong dan
北京基督教会宽街堂,84039432,地安门,地安门东大街吉祥胡同10号,Religion,116.401024,39.933147,bei jing ji du jiao hui kuan jie tang,di an men dong da jie ji xiang hu tong 10 hao,di an men
龙腾文化广场,,后沙峪,裕民大街38号1号楼,Park/Square,116.541046,40.102383,long teng wen hua guang chang,yu min da jie 38 hao 1 hao lou,hou sha yu
玉东园,88857654,颐和园,金河路颐和园西门路和金河的交叉口附近,City Park,116.257439,39.991333,yu dong yuan,jin he lu yi he yuan xi men lu he jin he de jiao cha kou fu jin,yi he yuan
丹青圃公园,,四季青,门头馨园路与门头馨东街交叉口东南280米,City Park,116.227074,39.975323,dan qing pu gong yuan,men tou xin yuan lu yu men tou xin dong jie jiao cha kou dong nan 280 mi,si ji qing
中国科学院学术会堂,59358118,中关村,中关村北一条15号,Other Attractions/Side Trip,116.322639,39.988171,zhong guo ke xue yuan xue zhu hui tang,zhong guan cun bei yi tiao 15 hao,zhong guan cun
白盒子之家WHITEBOX CHOICE,59784800,酒仙桥,酒仙桥路2号798艺术区B07号,Exhibition Centre,116.496613,39.986431,bai he zi zhi jia W H I T E B O X   C H O I C E,jiu xian qiao lu 2 hao 798 yi zhu qu B 07 hao,jiu xian qiao
神舟国旅,83545127,右安门,白纸坊东街1号楼3单元1层,Travel Agency,116.373022,39.878782,shen zhou guo lv,bai zhi fang dong jie 1 hao lou 3 dan yuan 1 ceng,you an men
中青旅遨游网,89192101,朝阳公园/团结湖,呼家楼向军北里6号楼汇鑫写字楼1层102室,Travel Agency,116.461044,39.926033,zhong qing lv ao you wang,hu jia lou xiang jun bei li 6 hao lou hui xin xie zi lou 1 ceng 102 shi,zhao yang gong yuan / tuan jie hu
北京青年Travel Agency,89355311;89355305,良乡,拱辰大街二号,Travel Agency,116.142351,39.741591,bei jing qing nian T r a v e l   A g e n c y,gong chen da jie er hao,liang xiang
望承公园,,望京,望京街道南湖渠西路220号,City Park,116.452019,39.995167,wang cheng gong yuan,wang jing jie dao nan hu qu xi lu 220 hao,wang jing
中商国际Travel Agency,66030202;66036262,西单,复兴门内大街45号(西单地铁站F2西北口步行280米),Travel Agency,116.371475,39.908695,zhong shang guo ji T r a v e l   A g e n c y,fu xing men nei da jie 45 hao ( xi dan di tie zhan F 2 xi bei kou bu xing 280 mi ),xi dan
金色福Travel Agency,51653333,管庄,朝阳路8号朗庭大厦A座822室,Travel Agency,116.598213,39.91116,jin se fu T r a v e l   A g e n c y,zhao yang lu 8 hao lang ting da sha A zuo 822 shi,guan zhuang
西峰寺,68872492,门头沟区,岢罗村西山窝中（近万佛陵园）,Religion,116.078903,39.885471,xi feng si,ke luo cun xi shan wo zhong （ jin wan fo ling yuan ）,men tou gou qu
中驰航服,65921722,三里屯/工体,工体东路15号（近东大桥）,Travel Agency,116.450828,39.929312,zhong chi hang fu,gong ti dong lu 15 hao （ jin dong da qiao ）,san li tun / gong ti
北京青年Travel Agency,83342755;83342766,望京,阜通东大街6号方恒国际中心D座815室,Travel Agency,116.48278,39.99102,bei jing qing nian T r a v e l   A g e n c y,fu tong dong da jie 6 hao fang heng guo ji zhong xin D zuo 815 shi,wang jing
八角文化广场,,古城/八角,八角社区路,Square,116.194733,39.915943,ba jiao wen hua guang chang,ba jiao she qu lu,gu cheng / ba jiao
东升文体公园,,清河,宝盛路（奥林匹克森林公园北园北侧）,City Park,116.375923,40.039799,dong sheng wen ti gong yuan,bao sheng lu （ ao lin pi ke sen lin gong yuan bei yuan bei ce ）,qing he
德青源生态园,,延庆区其他,古龙路,Other Attractions/Side Trip,115.829439,40.477811,de qing yuan sheng tai yuan,gu long lu,yan qing qu qi ta
八达岭古长城,61118002,八达岭,西残路东南侧,Acient Ruins,115.988478,40.344787,ba da ling gu chang cheng,xi can lu dong nan ce,ba da ling
东管头教堂,,六里桥/丽泽桥,东管头街123号,Religion,116.317001,39.861851,dong guan tou jiao tang,dong guan tou jie 123 hao,liu li qiao / li ze qiao
西顶庙,186****3399,远大路,西顶路金源时代购物中心对面,Religion,116.289864,39.960297,xi ding miao,xi ding lu jin yuan shi dai gou wu zhong xin dui mian,yuan da lu
北京金水桥国际Travel Agency有限公司,65133773;138****5770,前门/大栅栏,东交民巷新大陆6号,Travel Agency,116.400916,39.903126,bei jing jin shui qiao guo ji T r a v e l   A g e n c y you xian gong si,dong jiao min xiang xin da lu 6 hao,qian men / da zha lan
京浪岛公园,,门头沟区,龙泉镇三家店后街,City Park,116.095985,39.975674,jing lang dao gong yuan,long quan zhen san jia dian hou jie,men tou gou qu
行宫民俗旅游村,61973617,平谷区,S204与行宫路交叉口东北方向100米,Countryside Tourism,117.001327,40.254617,xing gong min su lv you cun,S 204 yu xing gong lu jiao cha kou dong bei fang xiang 100 mi,ping gu qu
郎园Vintage创意园,51660015,国贸/建外,通惠河北路郎家园6号（近万达广场）,Leisure Block,116.470367,39.906513,lang yuan V i n t a g e chuang yi yuan,tong hui he bei lu lang jia yuan 6 hao （ jin wan da guang chang ）,guo mao / jian wai
瑞桉国际Travel Agency,57168653,十里堡,八里庄西里97号住邦2000商务中心4号楼2106室,Travel Agency,116.49554,39.91461,rui an guo ji T r a v e l   A g e n c y,ba li zhuang xi li 97 hao zhu bang 2000 shang wu zhong xin 4 hao lou 2106 shi,shi li bao
青龙湖公园,83310645,青龙湖镇,王佐镇阅湖中街怪村西,City Park,116.0884,39.79767,qing long hu gong yuan,wang zuo zhen yue hu zhong jie guai cun xi,qing long hu zhen
海洋国际Travel Agency,68339990;68362062,西直门/动物园,西外大街新兴东巷甲15号金泰鑫侨大厦5楼,Travel Agency,116.348936,39.941106,hai yang guo ji T r a v e l   A g e n c y,xi wai da jie xin xing dong xiang jia 15 hao jin tai xin qiao da sha 5 lou,xi zhi men / dong wu yuan
凯撒旅游,67082198,崇文门,东打磨厂街34号新怡家园1号楼1层底商,Travel Agency,116.415174,39.899214,kai sa lv you,dong da mo chang jie 34 hao xin yi jia yuan 1 hao lou 1 ceng di shang,chong wen men
财主院,69816982;137****2312,爨底下村,斋堂镇爨柏景区爨底下村内,Historical Building,115.644264,39.99828,cai zhu yuan,zhai tang zhen cuan bai jing qu cuan di xia cun nei,cuan di xia cun
中天瀚海农业观光园,60673064,怀柔区,前辛庄村南口100米,Botanical Garden,116.568099,40.316119,zhong tian han hai nong ye guan guang yuan,qian xin zhuang cun nan kou 100 mi,huai rou qu
林枫花园,,草桥/公益西桥,地铁公益西桥站东侧,City Park,116.372093,39.835335,lin feng hua yuan,di tie gong yi xi qiao zhan dong ce,cao qiao / gong yi xi qiao
景泰公园,,沙子口,永定门外大街与民主北街交叉口东北角,City Park,116.401749,39.869236,jing tai gong yuan,yong ding men wai da jie yu min zhu bei jie jiao cha kou dong bei jiao,sha zi kou
北京公社,,酒仙桥,酒仙桥路4号798艺术区,Art Gallery,116.495865,39.982418,bei jing gong she,jiu xian qiao lu 4 hao 798 yi zhu qu,jiu xian qiao
站台中国,57626068,酒仙桥,酒仙桥路2号798艺术区中二街D07号,Art Gallery,116.495605,39.986061,zhan tai zhong guo,jiu xian qiao lu 2 hao 798 yi zhu qu zhong er jie D 07 hao,jiu xian qiao
大兴滨河森林公园,61210476,黄村,兴良路与天水大街交叉口北侧,City Park,116.313058,39.705364,da xing bin he sen lin gong yuan,xing liang lu yu tian shui da jie jiao cha kou bei ce,huang cun
凯撒旅游,139****1118,十里堡,朝阳北路珠江罗马嘉园东区53号楼107号,Travel Agency,116.51518,39.92344,kai sa lv you,zhao yang bei lu zhu jiang luo ma jia yuan dong qu 53 hao lou 107 hao,shi li bao
北京青年Travel Agency,87789401;87789401,建外大街,建国门外大街12号外贸大楼516室,Travel Agency,116.450325,39.907875,bei jing qing nian T r a v e l   A g e n c y,jian guo men wai da jie 12 hao wai mao da lou 516 shi,jian wai da jie
华远旅游,59138262,东大桥,朝阳北路237号复星国际中心,Travel Agency,116.455574,39.924133,hua yuan lv you,zhao yang bei lu 237 hao fu xing guo ji zhong xin,dong da qiao
爱嘉途旅游,84814116,天通苑,立汤路186号龙德广场家乐福1层,Travel Agency,116.414925,40.059368,ai jia tu lv you,li tang lu 186 hao long de guang chang jia le fu 1 ceng,tian tong yuan
燕山飞拉达,61622078,幽谷神潭,怀北镇上黄土梁48号,Other Attractions/Side Trip,116.675926,40.541458,yan shan fei la da,huai bei zhen shang huang tu liang 48 hao,you gu shen tan
京北大峡谷,138****5565,延庆区其他,水泉沟村北口,Natural Scenery,116.244568,40.430107,jing bei da xia gu,shui quan gou cun bei kou,yan qing qu qi ta
长城抗战纪念馆,81051801,古北口,京密路西100米,Memorial Hall,117.161644,40.681213,chang cheng kang zhan ji nian guan,jing mi lu xi 100 mi,gu bei kou
曙光防灾教育公园,88843101,远大路,紫竹院路正福寺76号（四季青桥东）,Cultural Park,116.282042,39.947521,shu guang fang zai jiao yu gong yuan,zi zhu yuan lu zheng fu si 76 hao （ si ji qing qiao dong ）,yuan da lu
杜仲公园,85367196,双桥,312路669路夜29路312号-23路联运,City Park,116.569321,39.893021,du zhong gong yuan,312 lu 669 lu ye 29 lu 312 hao - 23 lu lian yun,shuang qiao
中旅体育Travel Agency,68948259,魏公村,中关村南大街甲10号银海大厦,Travel Agency,116.32332,39.9636,zhong lv ti yu T r a v e l   A g e n c y,zhong guan cun nan da jie jia 10 hao yin hai da sha,wei gong cun
香屯,159****4134,延庆区其他,香屯村(近十三陵),Other Attractions/Side Trip,116.277573,40.406322,xiang tun,xiang tun cun ( jin shi san ling ),yan qing qu qi ta
红螺果脯博物馆,60693569,怀柔区,庙城镇郑重庄631号,Museum,116.619331,40.287151,hong luo guo fu bo wu guan,miao cheng zhen zheng zhong zhuang 631 hao,huai rou qu
枣林公园,,黄村,兴丰大街玫瑰城购物中心南侧,City Park,116.33651,39.752064,zao lin gong yuan,xing feng da jie mei gui cheng gou wu zhong xin nan ce,huang cun
中国国旅,51289662,亮马桥/三元桥,霄云路21号嘉里大通中心,Travel Agency,116.465376,39.959886,zhong guo guo lv,xiao yun lu 21 hao jia li da tong zhong xin,liang ma qiao / san yuan qiao
玫瑰园,,德外大街,德胜门外大街马甸公园对面（近马甸桥）,Botanical Garden,116.38192,39.970352,mei gui yuan,de sheng men wai da jie ma dian gong yuan dui mian （ jin ma dian qiao ）,de wai da jie
XYZ画廊,84599299,798/大山子,酒仙桥路4号798艺术区内（熊猫慢递对面）,Exhibition Centre,116.495369,39.985714,X Y Z hua lang,jiu xian qiao lu 4 hao 798 yi zhu qu nei （ xiong mao man di dui mian ）,798 / da shan zi
798桥艺术空间,188****1798,798/大山子,酒仙桥路创意产业研究院旁79号,Exhibition Centre,116.495743,39.984375,7 9 8 qiao yi zhu kong jian,jiu xian qiao lu chuang yi chan ye yan jiu yuan pang 79 hao,798 / da shan zi
永定河文化博物馆,69844602-2008;69839148,门头沟城区,门头沟路8号,Museum,116.09639,39.943008,yong ding he wen hua bo wu guan,men tou gou lu 8 hao,men tou gou cheng qu
滴水湖,,密云区其他,大城子镇,Natural Scenery,117.195297,40.456795,di shui hu,da cheng zi zhen,mi yun qu qi ta
北京青年Travel Agency,62163715,北下关,学院南路76号,Travel Agency,116.330238,39.957489,bei jing qing nian T r a v e l   A g e n c y,xue yuan nan lu 76 hao,bei xia guan
爱嘉途旅游,63264044,广外大街,马连道家乐福超市二层（马连道茶叶一条街）,Travel Agency,116.326141,39.882351,ai jia tu lv you,ma lian dao jia le fu chao shi er ceng （ ma lian dao cha ye yi tiao jie ）,guang wai da jie
湖南会馆,,菜市口/陶然亭,烂缦胡同101号,Historical Building,116.371979,39.885738,hu nan hui guan,lan man hu tong 101 hao,cai shi kou / tao ran ting
兴旺公园,,黄村,三合路与兴旺路交叉口南150米,City Park,116.313828,39.741264,xing wang gong yuan,san he lu yu xing wang lu jiao cha kou nan 150 mi,huang cun
长辛店二七公园,83876262,卢沟桥,西花园南里甲1号,City Park,116.206566,39.83189,chang xin dian er qi gong yuan,xi hua yuan nan li jia 1 hao,lu gou qiao
金面王朝,67383333-8004,北京欢乐谷,金蝉西路华侨城大剧院内（近欢乐谷）,Tours/Sightseeing Project,116.49839,39.867245,jin mian wang zhao,jin chan xi lu hua qiao cheng da ju yuan nei （ jin huan le gu ）,bei jing huan le gu
兴华公园,,西红门,欣宁街北口（近京良路）,Park/Square,116.329163,39.795967,xing hua gong yuan,xin ning jie bei kou （ jin jing liang lu ）,xi hong men
万科艺园,69456680,顺义区,白马路与天北路交叉口西800米路北,Other Attractions/Side Trip,116.522321,40.18336,wan ke yi yuan,bai ma lu yu tian bei lu jiao cha kou xi 800 mi lu bei,shun yi qu
天桥市民文化广场,,虎坊桥,天桥南大街7号（天桥地铁站A西北口旁）,Square,116.397728,39.883186,tian qiao shi min wen hua guang chang,tian qiao nan da jie 7 hao （ tian qiao di tie zhan A xi bei kou pang ）,hu fang qiao
西太平猴山,61347873,霞云岭国家森林公园,房山世界地质公园十渡园区七渡村七渡花果山景区内,Natural Scenery,115.57711,39.731216,xi tai ping hou shan,fang shan shi jie di zhi gong yuan shi du yuan qu qi du cun qi du hua guo shan jing qu nei,xia yun ling guo jia sen lin gong yuan
亚泰假日园Travel Agency,67135151,崇文门,葱店西街27号,Travel Agency,116.423103,39.889565,ya tai jia ri yuan T r a v e l   A g e n c y,cong dian xi jie 27 hao,chong wen men
临汾会馆,,前门/大栅栏,西打磨厂胡同105号,Historical Building,116.406425,39.898979,lin fen hui guan,xi da mo chang hu tong 105 hao,qian men / da zha lan
高鑫公园,,丰台区,樊羊路（近世界公园）,City Park,116.298309,39.797821,gao xin gong yuan,fan yang lu （ jin shi jie gong yuan ）,feng tai qu
坦博艺术中心,,田村,杏石口路30号,Art Gallery,116.251907,39.945717,tan bo yi zhu zhong xin,xing shi kou lu 30 hao,tian cun
中国国际Travel Agency,68058758;68059038,阜成门,阜成门外大街北京国宾酒店,Travel Agency,116.350624,39.924244,zhong guo guo ji T r a v e l   A g e n c y,fu cheng men wai da jie bei jing guo bin jiu dian,fu cheng men
中间美术馆,62730230,四季青,杏石口路50号中间艺术区内（近杏石口桥）,Art Gallery,116.231071,39.954102,zhong jian mei zhu guan,xing shi kou lu 50 hao zhong jian yi zhu qu nei （ jin xing shi kou qiao ）,si ji qing
金盛强世界花卉创意园,52105821,通州区,台湖镇国家大剧院舞美基地北门对面（小台湖饭庄）,Creative Industry Center,116.632308,39.841645,jin sheng qiang shi jie hua hui chuang yi yuan,tai hu zhen guo jia da ju yuan wu mei ji di bei men dui mian （ xiao tai hu fan zhuang ）,tong zhou qu
大稿国际艺术区,81566003,梨园,梨园地区怡乐中路422号,Creative Industry Center,116.636246,39.876495,da gao guo ji yi zhu qu,li yuan di qu yi le zhong lu 422 hao,li yuan
第四次世界妇女大会纪念公园,69644995,怀柔区,城南石厂环岛处（近916在国际会议中心站）,Memorial Park,116.626298,40.300976,di si ci shi jie fu nv da hui ji nian gong yuan,cheng nan shi chang huan dao chu （ jin 916 zai guo ji hui yi zhong xin zhan ）,huai rou qu
成仁华艺艺术馆,64668777,地安门,地安门东大街111号,Art Gallery,116.398827,39.933678,cheng ren hua yi yi zhu guan,di an men dong da jie 111 hao,di an men
安河桥清真寺,,颐和园,青龙桥西街与香山路交叉口西北100米,Religion,116.266441,40.0056,an he qiao qing zhen si,qing long qiao xi jie yu xiang shan lu jiao cha kou xi bei 100 mi,yi he yuan
清华园火车站遗址,,五道口,成府路路口西南小巷清华园铁路职工宿舍内,Historical Building,116.331772,39.99152,qing hua yuan huo che zhan yi zhi,cheng fu lu lu kou xi nan xiao xiang qing hua yuan tie lu zhi gong su she nei,wu dao kou
中青旅遨游旅行旗舰店,89192050,东直门,东直门南大街5号中青旅大厦1层,Travel Agency,116.432785,39.937786,zhong qing lv ao you lv xing qi jian dian,dong zhi men nan da jie 5 hao zhong qing lv da sha 1 ceng,dong zhi men
憩园,,右安门,马连道14号院(陶然亭地铁站D西南口步行150米),Natural Scenery,116.373482,39.87701,qi yuan,ma lian dao 14 hao yuan ( tao ran ting di tie zhan D xi nan kou bu xing 150 mi ),you an men
天马假期国际Travel Agency,57243237,劲松/潘家园,东三环南路辅路与弘燕南一路交叉口东南方向100米左右,Travel Agency,116.46051,39.865959,tian ma jia qi guo ji T r a v e l   A g e n c y,dong san huan nan lu fu lu yu hong yan nan yi lu jiao cha kou dong nan fang xiang 100 mi zuo you,jing song / pan jia yuan
荷塘月色,,五道口,双清路30号清华大学内,Other Attractions/Side Trip,116.325043,40.004234,he tang yue se,shuang qing lu 30 hao qing hua da xue nei,wu dao kou
凯撒旅游,85827588,石佛营,石佛营西里23号楼1楼（泛海国际对面）,Travel Agency,116.498438,39.934692,kai sa lv you,shi fo ying xi li 23 hao lou 1 lou （ fan hai guo ji dui mian ）,shi fo ying
神玉艺术馆,82088388;82086388,德外大街,北三环中路3号双全大厦4楼,Exhibition Gallery,116.390793,39.96904,shen yu yi zhu guan,bei san huan zhong lu 3 hao shuang quan da sha 4 lou,de wai da jie
承恩寺,68611900,模式口,模式口大街第九中学北门对面（近金顶街）,Religion,116.164917,39.936037,cheng en si,mo shi kou da jie di jiu zhong xue bei men dui mian （ jin jin ding jie ）,mo shi kou
平庄郊野公园,,田村,四季青镇旱河路,City Park,116.241058,39.944458,ping zhuang jiao ye gong yuan,si ji qing zhen han he lu,tian cun
森林国际Travel Agency,4006683030,和平里/国展中心,和平里东街12号中林商务楼4楼,Travel Agency,116.425629,39.957146,sen lin guo ji T r a v e l   A g e n c y,he ping li dong jie 12 hao zhong lin shang wu lou 4 lou,he ping li / guo zhan zhong xin
中华世纪坛,84187900,公主坟/万寿路,羊坊店街道复兴路甲9号,Museum,116.321397,39.910748,zhong hua shi ji tan,yang fang dian jie dao fu xing lu jia 9 hao,gong zhu fen / wan shou lu
北京大学博雅国际会议中心中华厅,82689999;82689998,五道口,中关村北大街127号北大博雅国际酒店内（近北大医院）,Exhibition Centre,116.313309,39.997768,bei jing da xue bo ya guo ji hui yi zhong xin zhong hua ting,zhong guan cun bei da jie 127 hao bei da bo ya guo ji jiu dian nei （ jin bei da yi yuan ）,wu dao kou
元典美术馆,64753932;86275503,望京,广顺北大街利泽西园一区112号楼2层,Art Gallery,116.462997,40.013407,yuan dian mei zhu guan,guang shun bei da jie li ze xi yuan yi qu 112 hao lou 2 ceng,wang jing
南磨房四合院博物馆,,北京欢乐谷,南磨房心连心广场,Museum,116.498924,39.871498,nan mo fang si he yuan bo wu guan,nan mo fang xin lian xin guang chang,bei jing huan le gu
中国国际Travel Agency,68681556,鲁谷,银河大街1号,Travel Agency,116.218644,39.906101,zhong guo guo ji T r a v e l   A g e n c y,yin he da jie 1 hao,lu gu
众信旅游,185****0023,中关村,善缘街1号立方庭大厦1楼1号,Travel Agency,116.308688,39.980368,zhong xin lv you,shan yuan jie 1 hao li fang ting da sha 1 lou 1 hao,zhong guan cun
众信旅游,85584144,亚运村,大屯路慧忠北里408号（安立路地铁站A1西北口步行210米）,Travel Agency,116.404341,40.002871,zhong xin lv you,da tun lu hui zhong bei li 408 hao （ an li lu di tie zhan A 1 xi bei kou bu xing 210 mi ）,ya yun cun
中国园林博物馆,63915025;63915017,云岗,射击场路15号,Museum,116.177152,39.878976,zhong guo yuan lin bo wu guan,she ji chang lu 15 hao,yun gang
北京时间博物馆,64087610,南锣鼓巷/鼓楼东大街,鼓楼东大街298号,Museum,116.396973,39.940338,bei jing shi jian bo wu guan,gu lou dong da jie 298 hao,nan luo gu xiang / gu lou dong da jie
中青旅遨游网,89192083,黄村,兴华大街3号枣园波普中心3号楼东侧1层,Travel Agency,116.331413,39.748302,zhong qing lv ao you wang,xing hua da jie 3 hao zao yuan bo pu zhong xin 3 hao lou dong ce 1 ceng,huang cun
喇叭沟门满族民俗博物馆,60623729;60623547,怀柔区,喇叭沟门满族乡喇叭沟门村2号,Museum,116.621276,40.901566,la ba gou men man zu min su bo wu guan,la ba gou men man zu xiang la ba gou men cun 2 hao,huai rou qu
京门铁路遗址公园,,门头沟城区,城子大街与九龙路交叉口西北角,City Park,116.098358,39.953999,jing men tie lu yi zhi gong yuan,cheng zi da jie yu jiu long lu jiao cha kou xi bei jiao,men tou gou cheng qu
中国铁道Travel Agency,51840985;51826161,公主坟/万寿路,北蜂窝路20号楼底商,Travel Agency,116.32933,39.900976,zhong guo tie dao T r a v e l   A g e n c y,bei feng wo lu 20 hao lou di shang,gong zhu fen / wan shou lu
奥加美术馆,64153388,三里屯/工体,东直门外大街26号,Art Gallery,116.44809,39.940651,ao jia mei zhu guan,dong zhi men wai da jie 26 hao,san li tun / gong ti
九道湾胡同,,北新桥/簋街,九道湾南巷,Pedestrian Zone,116.419083,39.939777,jiu dao wan hu tong,jiu dao wan nan xiang,bei xin qiao / gui jie
丰泰庵,,后海/什刹海,后海南沿26号,Religion,116.388023,39.939781,feng tai an,hou hai nan yan 26 hao,hou hai / shi cha hai
特色小街,,天坛,前门大街Pedestrian Zone内,Sightseeing District,116.398315,39.891659,te se xiao jie,qian men da jie P e d e s t r i a n   Z o n e nei,tian tan
广顺国际Travel Agency,58047777,望京,望京SOHO塔1-B座8层0811室,Travel Agency,116.480898,39.996918,guang shun guo ji T r a v e l   A g e n c y,wang jing S O H O ta 1 - B zuo 8 ceng 0811 shi,wang jing
亮马河会议中心万黛厅,65906688,亮马桥/三元桥,东三环北路8号亮马河大厦会议中心2楼（近农展馆北路）,Other Attractions/Side Trip,116.463148,39.946078,liang ma he hui yi zhong xin wan dai ting,dong san huan bei lu 8 hao liang ma he da sha hui yi zhong xin 2 lou （ jin nong zhan guan bei lu ）,liang ma qiao / san yuan qiao
幸运旅途,57258020,亦庄,亦庄文化园西路林肯公园6号院8号楼1405室,Travel Agency,116.492762,39.806911,xing yun lv tu,yi zhuang wen hua yuan xi lu lin ken gong yuan 6 hao yuan 8 hao lou 1405 shi,yi zhuang
青少年农业科普馆,,亮马桥/三元桥,东三环北路16号,Science Museum,116.466187,39.937862,qing shao nian nong ye ke pu guan,dong san huan bei lu 16 hao,liang ma qiao / san yuan qiao
雁栖湖,69661696;69661194,雁栖湖,怀北镇雁水路3号,Natural Scenery,116.667138,40.392464,yan qi hu,huai bei zhen yan shui lu 3 hao,yan qi hu
老北京传统商业博物馆,63036830,前门/大栅栏,前门西大街正阳市场3号楼老舍茶馆2层,Museum,116.393394,39.899738,lao bei jing chuan tong shang ye bo wu guan,qian men xi da jie zheng yang shi chang 3 hao lou lao she cha guan 2 ceng,qian men / da zha lan
中国山水Travel Agency,,西单,皮库胡同45号,Travel Agency,116.371625,39.910665,zhong guo shan shui T r a v e l   A g e n c y,pi ku hu tong 45 hao,xi dan
新视野国际Travel Agency,85117900,王府井/东单,东长安街10号g1-g2室,Travel Agency,116.409042,39.907482,xin shi ye guo ji T r a v e l   A g e n c y,dong chang an jie 10 hao g 1 - g 2 shi,wang fu jing / dong dan
王府国旅,58603988,亚运村,四区15号18层,Travel Agency,116.412487,39.989327,wang fu guo lv,si qu 15 hao 18 ceng,ya yun cun
龙潭书院,67187077,左安门,左安门内大街20号,Other Attractions/Side Trip,116.437927,39.877767,long tan shu yuan,zuo an men nei da jie 20 hao,zuo an men
北京高碑店琦檀宇艺术博物馆,139****2744,高碑店,高碑店古家具一条街161号,Museum,116.537671,39.902394,bei jing gao bei dian qi tan yu yi zhu bo wu guan,gao bei dian gu jia ju yi tiao jie 161 hao,gao bei dian
西藏文化博物馆,64935128,亚运村,北四环东路131号,Museum,116.414658,39.989311,xi cang wen hua bo wu guan,bei si huan dong lu 131 hao,ya yun cun
钧天坊古琴艺术中心,89202891,庞各庄,前苑上村西刘路,Art Gallery,116.421959,39.648705,jun tian fang gu qin yi zhu zhong xin,qian yuan shang cun xi liu lu,pang ge zhuang
亚运村全民健身园,133****4863,亚运村,安慧里4区8号楼北侧（近北苑路）,City Park,116.412216,39.992287,ya yun cun quan min jian shen yuan,an hui li 4 qu 8 hao lou bei ce （ jin bei yuan lu ）,ya yun cun
游客服务中心,,香山/植物园,卧佛寺路国家植物园北园内（东南角）,Park/Square,116.215149,39.994709,you ke fu wu zhong xin,wo fo si lu guo jia zhi wu yuan bei yuan nei （ dong nan jiao ）,xiang shan / zhi wu yuan
延庆寺,,魏公村,万寿寺路22号(万寿寺地铁站C东南口步行220米),Religion,116.312202,39.945969,yan qing si,wan shou si lu 22 hao ( wan shou si di tie zhan C dong nan kou bu xing 220 mi ),wei gong cun
小天鹅公园,,公主坟/万寿路,水利医院附近,City Park,116.309273,39.913166,xiao tian e gong yuan,shui li yi yuan fu jin,gong zhu fen / wan shou lu
温泉公园,68824087,海淀区,温泉地区温泉镇政府东西两侧,Park/Square,116.18276,40.049418,wen quan gong yuan,wen quan di qu wen quan zhen zheng fu dong xi liang ce,hai dian qu
中贸国际商务Travel Agency,4000170017,王府井/东单,东华门街道南河沿大街华龙街华龙写字间403室（近南湾子胡同）,Travel Agency,116.4071,39.910745,zhong mao guo ji shang wu T r a v e l   A g e n c y,dong hua men jie dao nan he yan da jie hua long jie hua long xie zi jian 403 shi （ jin nan wan zi hu tong ）,wang fu jing / dong dan
香村浓家,189****7399,石林峡,雕窝村石林峡北700米,Other Attractions/Side Trip,117.253654,40.267162,xiang cun nong jia,diao wo cun shi lin xia bei 700 mi,shi lin xia
北京易游假期Travel Agency有限公司,56296615,左安门,长青园路长青园7号1号楼,Travel Agency,116.424289,39.874189,bei jing yi you jia qi T r a v e l   A g e n c y you xian gong si,chang qing yuan lu chang qing yuan 7 hao 1 hao lou,zuo an men
北山公园,,昌平镇,城北街道中山口路北山,Park/Square,116.240234,40.236839,bei shan gong yuan,cheng bei jie dao zhong shan kou lu bei shan,chang ping zhen
君知雨农业生态园,61780544,昌平镇,南北庄路与南郝庄路交叉口北约180米,Other Attractions/Side Trip,116.209869,40.21608,jun zhi yu nong ye sheng tai yuan,nan bei zhuang lu yu nan hao zhuang lu jiao cha kou bei yue 180 mi,chang ping zhen
ccd300当代艺术与设计中心,64329300,朝阳区,草场地艺术区300号,Art Gallery,116.507759,39.998519,c c d 3 0 0 dang dai yi zhu yu she ji zhong xin,cao chang di yi zhu qu 300 hao,zhao yang qu
七棵树创意园,84316213,东坝,东坝地区半截塔路55号,Creative Industry Center,116.51931,39.967915,qi ke shu chuang yi yuan,dong ba di qu ban jie ta lu 55 hao,dong ba
世纪崇光国际Travel Agency,158****6182,公主坟/万寿路,复兴路63号,Travel Agency,116.290207,39.909008,shi ji chong guang guo ji T r a v e l   A g e n c y,fu xing lu 63 hao,gong zhu fen / wan shou lu
北京青旅,82015953,牡丹园/北太平庄,新街口外大街北京师范大学东北侧约120米,Travel Agency,116.369851,39.966163,bei jing qing lv,xin jie kou wai da jie bei jing shi fan da xue dong bei ce yue 120 mi,mu dan yuan / bei tai ping zhuang
中国民兵武器装备陈列馆,89590788,通州区,焦王庄北口（近陈列馆路）,Exhibition Gallery,116.670265,39.937592,zhong guo min bing wu qi zhuang bei chen lie guan,jiao wang zhuang bei kou （ jin chen lie guan lu ）,tong zhou qu
FOUND MUSEUM,,马泉营,崔各庄乡何各庄村1号地艺术区,Art Gallery,116.494453,40.043655,F O U N D   M U S E U M,cui ge zhuang xiang he ge zhuang cun 1 hao di yi zhu qu,ma quan ying
众信旅游,67791218,劲松/潘家园,劲松三区301号楼底商（劲松桥西南角）,Travel Agency,116.460121,39.884171,zhong xin lv you,jing song san qu 301 hao lou di shang （ jing song qiao xi nan jiao ）,jing song / pan jia yuan
众信旅游,87599306,草桥/公益西桥,马家堡西路26号院2号楼,Travel Agency,116.371483,39.841675,zhong xin lv you,ma jia bao xi lu 26 hao yuan 2 hao lou,cao qiao / gong yi xi qiao
仰山栖隐禅寺,,门头沟区,南樱路樱桃沟村内,Religion,116.050735,40.041805,yang shan qi yin shan si,nan ying lu ying tao gou cun nei,men tou gou qu
白瀑寺,61837783;136****6017,昌平区,雁翅镇淤白村,Religion,115.920898,40.117802,bai pu si,yan chi zhen yu bai cun,chang ping qu
小辛庄樱桃园,135****8998,回龙观,西集镇小辛庄村,Other Attractions/Side Trip,116.374229,40.095272,xiao xin zhuang ying tao yuan,xi ji zhen xiao xin zhuang cun,hui long guan
礼贤聚贤庄生态园种植园,89277035,大兴区,昕升村辛西路26号,Botanical Garden,116.341995,39.539135,li xian ju xian zhuang sheng tai yuan zhong zhi yuan,xin sheng cun xin xi lu 26 hao,da xing qu
新东安广场,,王府井/东单,王府井大街138号,Square,116.411522,39.915051,xin dong an guang chang,wang fu jing da jie 138 hao,wang fu jing / dong dan
大德寺,,昌平区,禾子涧路与老东路交叉口西北150米,Religion,115.92924,40.172917,da de si,he zi jian lu yu lao dong lu jiao cha kou xi bei 150 mi,chang ping qu
北京青年Travel Agency股份有限公司,69693270;69693271,斜街,迎宾中路甲27号,Travel Agency,116.636887,40.320057,bei jing qing nian T r a v e l   A g e n c y gu fen you xian gong si,ying bin zhong lu jia 27 hao,xie jie
天鹅湖生态旅游风景区,136****7174,房山区,张坊镇宋各庄村,Natural Scenery,115.708542,39.597557,tian e hu sheng tai lv you feng jing qu,zhang fang zhen song ge zhuang cun,fang shan qu
club med,64136565,东大桥,朝阳北路237号复星国际中心2905室（近燕莎桥）,Travel Agency,116.455536,39.924164,c l u b   m e d,zhao yang bei lu 237 hao fu xing guo ji zhong xin 2905 shi （ jin yan sha qiao ）,dong da qiao
明皇城东安门遗址,,王府井/东单,东安门大街55号(王府世纪大厦斜对面),Acient Ruins,116.40696,39.91544,ming huang cheng dong an men yi zhi,dong an men da jie 55 hao ( wang fu shi ji da sha xie dui mian ),wang fu jing / dong dan
玄门堂康体俱乐部,83505981,右安门,育新街47号清芷园会所（近陶然亭公园南门）,Other Attractions/Side Trip,116.372948,39.87252,xuan men tang kang ti ju le bu,yu xin jie 47 hao qing zhi yuan hui suo （ jin tao ran ting gong yuan nan men ）,you an men
南苑农场,67977008;67981866,西红门,南苑团河路北口车站南苑村绿化队,Other Attractions/Side Trip,116.379143,39.795456,nan yuan nong chang,nan yuan tuan he lu bei kou che zhan nan yuan cun lv hua dui,xi hong men
李遂生态园,89481188,南彩镇,龙太路4号,Botanical Garden,116.765068,40.100174,li sui sheng tai yuan,long tai lu 4 hao,nan cai zhen
后海野鸭岛,66162868,后海/什刹海,东明胡同2号,Natural Scenery,116.3806,39.944744,hou hai ye ya dao,dong ming hu tong 2 hao,hou hai / shi cha hai
朝阳公园游乐园,65383161;65065409,朝阳公园/团结湖,农展南路1号（朝阳公园内）,Amusement Park,116.481468,39.939625,zhao yang gong yuan you le yuan,nong zhan nan lu 1 hao （ zhao yang gong yuan nei ）,zhao yang gong yuan / tuan jie hu
天通苑水上乐园,59793581;188****4645,天通苑,天通苑北三区55号楼8单元202号,Water Park,116.42498,40.079765,tian tong yuan shui shang le yuan,tian tong yuan bei san qu 55 hao lou 8 dan yuan 202 hao,tian tong yuan
元代谷风景区,56235710,延庆区其他,新宝庄村东山,Natural Scenery,115.976755,40.405455,yuan dai gu feng jing qu,xin bao zhuang cun dong shan,yan qing qu qi ta
镇国寺,,草桥/公益西桥,镇国寺,Religion,116.352905,39.844205,zhen guo si,zhen guo si,cao qiao / gong yi xi qiao
紫溪庄园,61416016,顺义区,高各庄（近木北路）,Other Attractions/Side Trip,116.829781,40.093418,zi xi zhuang yuan,gao ge zhuang （ jin mu bei lu ）,shun yi qu
潮岭渔村,89617188,神堂峪,官地村村委会北1000米,Human Heritage,116.631189,40.431629,chao ling yu cun,guan di cun cun wei hui bei 1000 mi,shen tang yu
葡山公园,69841870,门头沟城区,滨河路葡山小区对面,City Park,116.113745,39.925408,pu shan gong yuan,bin he lu pu shan xiao qu dui mian,men tou gou cheng qu
中贸国际商务Travel Agency,4000170017,建外大街,建外大街16号楼东方瑞景1号楼2307房间,Travel Agency,116.443085,39.906654,zhong mao guo ji shang wu T r a v e l   A g e n c y,jian wai da jie 16 hao lou dong fang rui jing 1 hao lou 2307 fang jian,jian wai da jie
新桥公园,,门头沟城区,新桥大街与大峪后街交叉口处,City Park,116.102386,39.938057,xin qiao gong yuan,xin qiao da jie yu da yu hou jie jiao cha kou chu,men tou gou cheng qu
中医学院医史博物馆,64286679;64286672,安贞,北三环东路11号北京中医药大学,Museum,116.426674,39.970535,zhong yi xue yuan yi shi bo wu guan,bei san huan dong lu 11 hao bei jing zhong yi yao da xue,an zhen
中青旅遨游网,89192102,方庄/蒲黄榆,南三环紫芳园六区3号楼1层1单元102室,Travel Agency,116.439671,39.860821,zhong qing lv ao you wang,nan san huan zi fang yuan liu qu 3 hao lou 1 ceng 1 dan yuan 102 shi,fang zhuang / pu huang yu
花溪薰衣草庄园,,渤海镇/慕田峪长城,渤三路,Botanical Garden,116.508252,40.403602,hua xi xun yi cao zhuang yuan,bo san lu,bo hai zhen / mu tian yu chang cheng
乐活游,61136880,天通苑,立汤路186号龙德紫金2-916室,Travel Agency,116.414561,40.061641,le huo you,li tang lu 186 hao long de zi jin 2 - 916 shi,tian tong yuan
北京青年Travel Agency,150****6978,东直门,东直门外大街42号宇飞大厦804室,Travel Agency,116.437508,39.940189,bei jing qing nian T r a v e l   A g e n c y,dong zhi men wai da jie 42 hao yu fei da sha 804 shi,dong zhi men
玺园文化园,62878863,颐和园,颐和园路三岔口33号,Park/Square,116.277138,40.003029,xi yuan wen hua yuan,yi he yuan lu san cha kou 33 hao,yi he yuan
仰山公园,,亚运村,奥运村街道北五环仰山桥南侧,City Park,116.412498,40.018524,yang shan gong yuan,ao yun cun jie dao bei wu huan yang shan qiao nan ce,ya yun cun
稻香湖景欢乐岛温泉城堡,58718888;58718188,上庄,苏家坨稻香湖路28号,Hot Spring,116.184394,40.091438,dao xiang hu jing huan le dao wen quan cheng bao,su jia tuo dao xiang hu lu 28 hao,shang zhuang
小屯公园,134****9258,青塔,卢沟桥街道小屯西路与兴源路交叉口东南角,City Park,116.250122,39.870289,xiao tun gong yuan,lu gou qiao jie dao xiao tun xi lu yu xing yuan lu jiao cha kou dong nan jiao,qing ta
环球易飞商旅,64804966,亚运村,安立路慧中北里309号第五大道16楼,Travel Agency,116.407346,40.003236,huan qiu yi fei shang lv,an li lu hui zhong bei li 309 hao di wu da dao 16 lou,ya yun cun
凤凰中心,65207998;65207997,朝阳公园/团结湖,朝阳公园南路3号,Modern Building,116.473733,39.934656,feng huang zhong xin,zhao yang gong yuan nan lu 3 hao,zhao yang gong yuan / tuan jie hu
妫河森林公园,,延庆区其他,环湖南路妫水河,Forest Park,115.944771,40.444481,gui he sen lin gong yuan,huan hu nan lu gui shui he,yan qing qu qi ta
清河营郊野公园,,朝阳区,来广营乡北苑东路,City Park,116.444851,40.055259,qing he ying jiao ye gong yuan,lai guang ying xiang bei yuan dong lu,zhao yang qu
中唐国际Travel Agency,188****5666,公主坟/万寿路,羊坊店路18号光耀东方5561室,Travel Agency,116.322417,39.898637,zhong tang guo ji T r a v e l   A g e n c y,yang fang dian lu 18 hao guang yao dong fang 5561 shi,gong zhu fen / wan shou lu
平房天主堂,,朝阳区,平房街正街87号,Religion,116.54115,39.93963,ping fang tian zhu tang,ping fang jie zheng jie 87 hao,zhao yang qu
艾悠游信息技术有限公司,56296615,天坛,长青园路长青园7号,Travel Agency,116.42368,39.87487,ai you you xin xi ji zhu you xian gong si,chang qing yuan lu chang qing yuan 7 hao,tian tan
北京青年Travel Agency,156****1603,刘家窑/宋家庄,东铁匠营五间楼10号B座G26室,Travel Agency,116.42466,39.848171,bei jing qing nian T r a v e l   A g e n c y,dong tie jiang ying wu jian lou 10 hao B zuo G 26 shi,liu jia yao / song jia zhuang
房山基督教堂,81388077,良乡,太平庄南路太平庄社区菜市场南侧约30米,Religion,116.118937,39.733257,fang shan ji du jiao tang,tai ping zhuang nan lu tai ping zhuang she qu cai shi chang nan ce yue 30 mi,liang xiang
王平湿地,,门头沟区,韭园村（色坟村附近）,Natural Scenery,115.993629,39.969696,wang ping shi di,jiu yuan cun （ se fen cun fu jin ）,men tou gou qu
中国政协文史馆,66193254,复兴门,太平桥大街23号,Exhibition Gallery,116.362465,39.918877,zhong guo zheng xie wen shi guan,tai ping qiao da jie 23 hao,fu xing men
清源公园,,黄村,黄村镇清源西路孙庄子村北口向西200米,City Park,116.305763,39.733971,qing yuan gong yuan,huang cun zhen qing yuan xi lu sun zhuang zi cun bei kou xiang xi 200 mi,huang cun
东升清河培黎公园,,清河,清河南大街,City Park,116.349068,40.022572,dong sheng qing he pei li gong yuan,qing he nan da jie,qing he
嘉河公园,,马家堡/角门,300路公交车站对面,City Park,116.362625,39.853271,jia he gong yuan,300 lu gong jiao che zhan dui mian,ma jia bao / jiao men
北京航空航天博物馆,82339701,牡丹园/北太平庄,学院路37号北京航空航天大学校内（近北航东南门）,Museum,116.350685,39.981926,bei jing hang kong hang tian bo wu guan,xue yuan lu 37 hao bei jing hang kong hang tian da xue xiao nei （ jin bei hang dong nan men ）,mu dan yuan / bei tai ping zhuang
神舟国际Travel Agency,64253937;64269986,安贞,安定门外大街80号甲楼1层,Travel Agency,116.409015,39.959375,shen zhou guo ji T r a v e l   A g e n c y,an ding men wai da jie 80 hao jia lou 1 ceng,an zhen
北京海德温泉酒店,58395555;58395511,十里堡,青年路西里1号院,Hot Spring,116.516208,39.93549,bei jing hai de wen quan jiu dian,qing nian lu xi li 1 hao yuan,shi li bao
圜丘坛,67013036,天坛,天坛东里2号天坛公园,Natural Scenery,116.413155,39.876934,yuan qiu tan,tian tan dong li 2 hao tian tan gong yuan,tian tan
协和学术会堂,,王府井/东单,帅府园1号,Other Attractions/Side Trip,116.412834,39.91238,xie he xue zhu hui tang,shuai fu yuan 1 hao,wang fu jing / dong dan
鑫桃源生态园,186****7071;137****9231,平谷区,桃园大街11号,Botanical Garden,117.147726,40.362096,xin tao yuan sheng tai yuan,tao yuan da jie 11 hao,ping gu qu
通惠国际文化创意大街,158****5332,大望路,西大望路甲十二号北京国家广告产业园,Sightseeing District,116.475931,39.904073,tong hui guo ji wen hua chuang yi da jie,xi da wang lu jia shi er hao bei jing guo jia guang gao chan ye yuan,da wang lu
北京逍遥假期Travel Agency,56190709,建外大街,雅宝路12号华声国际大厦602室,Travel Agency,116.436092,39.914069,bei jing xiao yao jia qi T r a v e l   A g e n c y,ya bao lu 12 hao hua sheng guo ji da sha 602 shi,jian wai da jie
东晨Travel Agency,63469867;63262346,六里桥/丽泽桥,西站南路丽泽雅园小区9号楼1005室,Travel Agency,116.322556,39.870529,dong chen T r a v e l   A g e n c y,xi zhan nan lu li ze ya yuan xiao qu 9 hao lou 1005 shi,liu li qiao / li ze qiao
朱炳仁艺术博物馆,56049884,798/大山子,酒仙桥路4号北京798艺术区友谊大厦1层,Museum,116.491951,39.984074,zhu bing ren yi zhu bo wu guan,jiu xian qiao lu 4 hao bei jing 798 yi zhu qu you yi da sha 1 ceng,798 / da shan zi
后山艺术空间,84004774,东直门,东直门外香河园路1号当代MOMA园区T8楼北,Creative Industry Center,116.438118,39.9515,hou shan yi zhu kong jian,dong zhi men wai xiang he yuan lu 1 hao dang dai M O M A yuan qu T 8 lou bei,dong zhi men
通州清真寺,69543124,新华大街,回民胡同1号（近通州火车站）,Religion,116.669868,39.907455,tong zhou qing zhen si,hui min hu tong 1 hao （ jin tong zhou huo che zhan ）,xin hua da jie
北杨洼观音寺,,梨园,梨园北街北杨洼小区西门西侧,Religion,116.668884,39.888706,bei yang wa guan yin si,li yuan bei jie bei yang wa xiao qu xi men xi ce,li yuan
乾鼎老酒博物馆,64040299,地安门,赵府街69号(近张旺胡同),Museum,116.396606,39.944538,gan ding lao jiu bo wu guan,zhao fu jie 69 hao ( jin zhang wang hu tong ),di an men
中视国际Travel Agency,57112277,三里屯/工体,新中东街3号院1号楼701号,Travel Agency,116.442757,39.936653,zhong shi guo ji T r a v e l   A g e n c y,xin zhong dong jie 3 hao yuan 1 hao lou 701 hao,san li tun / gong ti
三里屯东五街银杏大道,,三里屯/工体,三里屯东五街,Pedestrian Zone,116.45742,39.943924,san li tun dong wu jie yin xing da dao,san li tun dong wu jie,san li tun / gong ti
环境国旅,67022357,天坛,金鱼池中街2号11号,Travel Agency,116.407776,39.891525,huan jing guo lv,jin yu chi zhong jie 2 hao 11 hao,tian tan
凯撒旅游,137****7604,亚运村,安慧北里逸园甲11号楼1层101-02室,Travel Agency,116.414146,40.002518,kai sa lv you,an hui bei li yi yuan jia 11 hao lou 1 ceng 101 - 02 shi,ya yun cun
众信旅游,68636190,鲁谷,鲁谷街道银河大街6号院1号楼银河财智中心1层106室,Travel Agency,116.22171,39.904305,zhong xin lv you,lu gu jie dao yin he da jie 6 hao yuan 1 hao lou yin he cai zhi zhong xin 1 ceng 106 shi,lu gu
众信旅游,87680160,方庄/蒲黄榆,方庄街道蒲芳路22号楼22-2幢1层底商（方庄环岛 邮局）,Travel Agency,116.430011,39.865541,zhong xin lv you,fang zhuang jie dao pu fang lu 22 hao lou 22 - 2 chuang 1 ceng di shang （ fang zhuang huan dao   you ju ）,fang zhuang / pu huang yu
中商国旅,88385556,阜成门,车公庄大街2号院1楼9号商铺,Travel Agency,116.353752,39.931831,zhong shang guo lv,che gong zhuang da jie 2 hao yuan 1 lou 9 hao shang pu,fu cheng men
和平国际Travel Agency,56024063,魏公村,中关村南大街甲6号铸诚大厦B1104室,Travel Agency,116.324905,39.964684,he ping guo ji T r a v e l   A g e n c y,zhong guan cun nan da jie jia 6 hao zhu cheng da sha B 1104 shi,wei gong cun
至活旅游,57011669;56629950,朝阳门,南竹竿胡同2号朝阳门银河SOHOD座3层50332室（近朝阳门、悦荷酒家）,Travel Agency,116.432983,39.920349,zhi huo lv you,nan zhu gan hu tong 2 hao zhao yang men yin he S O H O D zuo 3 ceng 50332 shi （ jin zhao yang men 、 yue he jiu jia ）,zhao yang men
竹园国际Travel Agency,85867676,十里堡,八里庄东里1号莱锦产业园a7,Travel Agency,116.498135,39.914585,zhu yuan guo ji T r a v e l   A g e n c y,ba li zhuang dong li 1 hao lai jin chan ye yuan a 7,shi li bao
德易家生活艺术空间,51303925,酒仙桥,东四环北路6号阳光上东2区1号,Art Gallery,116.480949,39.966141,de yi jia sheng huo yi zhu kong jian,dong si huan bei lu 6 hao yang guang shang dong 2 qu 1 hao,jiu xian qiao
延庆清真寺,,八达岭,岔道村（近八达岭长城）,Religion,115.994644,40.364662,yan qing qing zhen si,cha dao cun （ jin ba da ling chang cheng ）,ba da ling
慧商蓝海旅行网,4000185766,劲松/潘家园,东三环农光南里1号龙辉大厦4楼445室,Travel Agency,116.4618,39.880707,hui shang lan hai lv xing wang,dong san huan nong guang nan li 1 hao long hui da sha 4 lou 445 shi,jing song / pan jia yuan
奥特翔主题乐园,,亚运村,北四环东路73号远洋·未来广场购物中心F3层F3-31-A,Theme Park,116.433014,39.990425,ao te xiang zhu ti le yuan,bei si huan dong lu 73 hao yuan yang · wei lai guang chang gou wu zhong xin F 3 ceng F 3 - 31 - A,ya yun cun
雄腾展览室,66186333;66180081,阜成门,阜成门内大街201号（阜成门地铁站B东北口步行480米）,Exhibition Centre,116.362085,39.924005,xiong teng zhan lan shi,fu cheng men nei da jie 201 hao （ fu cheng men di tie zhan B dong bei kou bu xing 480 mi ）,fu cheng men
容泰创艺展览展示,66085231,阜成门,阜成门内大街乙346号,Exhibition Centre,116.360481,39.923607,rong tai chuang yi zhan lan zhan shi,fu cheng men nei da jie yi 346 hao,fu cheng men
南豆芽清真寺,,朝阳门,豆瓣胡同4号,Religion,116.432549,39.928135,nan dou ya qing zhen si,dou ban hu tong 4 hao,zhao yang men
凯撒旅游,58819980,苏州桥,长春桥路11号万柳亿城中心C1座底商（近万柳亿城大厦）,Travel Agency,116.301559,39.960075,kai sa lv you,chang chun qiao lu 11 hao wan liu yi cheng zhong xin C 1 zuo di shang （ jin wan liu yi cheng da sha ）,su zhou qiao
华汇紫薇公园,136****3846,亚运村,小营北路8号(关庄地铁站C东南口步行430米),City Park,116.428841,39.997177,hua hui zi wei gong yuan,xiao ying bei lu 8 hao ( guan zhuang di tie zhan C dong nan kou bu xing 430 mi ),ya yun cun
豫庐·王镛艺术研究馆,133****6156,和平门,琉璃厂东街115-9号（和平门地铁站c1东南口步行500米）,Art Gallery,116.384712,39.896126,yu lu · wang yong yi zhu yan jiu guan,liu li chang dong jie 115 - 9 hao （ he ping men di tie zhan c 1 dong nan kou bu xing 500 mi ）,he ping men
前门清真寺,,前门/大栅栏,大栅栏街道廊房二条扬威胡同（近大栅栏）,Religion,116.391685,39.896561,qian men qing zhen si,da zha lan jie dao lang fang er tiao yang wei hu tong （ jin da zha lan ）,qian men / da zha lan
鲁班祠,,高碑店,古家具一条街270号附近,Religion,116.540421,39.902924,lu ban ci,gu jia ju yi tiao jie 270 hao fu jin,gao bei dian
老乡亲,63013359,虎坊桥,琉璃厂东街31号附近,Other Attractions/Side Trip,116.387936,39.895293,lao xiang qin,liu li chang dong jie 31 hao fu jin,hu fang qiao
齐白石旧居纪念馆,64040179,安定门,交道口街道雨儿胡同13号院（南锣鼓巷地铁站E西北口步行340米）,Memorial Hall,116.40155,39.935799,qi bai shi jiu ju ji nian guan,jiao dao kou jie dao yu er hu tong 13 hao yuan （ nan luo gu xiang di tie zhan E xi bei kou bu xing 340 mi ）,an ding men
红厂设计创意产业园,133****6756,马泉营,何各庄村328号,Creative Industry Center,116.493004,40.037598,hong chang she ji chuang yi chan ye yuan,he ge zhuang cun 328 hao,ma quan ying
红砖美术馆,84576669,马泉营,何各庄村（顺白路与马泉营西路交叉口西北侧）,Art Gallery,116.499962,40.042332,hong zhuan mei zhu guan,he ge zhuang cun （ shun bai lu yu ma quan ying xi lu jiao cha kou xi bei ce ）,ma quan ying
三教庙,69550695,新华大街,大成街1号,Religion,116.66597,39.915134,san jiao miao,da cheng jie 1 hao,xin hua da jie
北京密云天门山风景区,69016673,密云区其他,石城镇琉辛路柳棵峪,Natural Scenery,116.780899,40.58004,bei jing mi yun tian men shan feng jing qu,shi cheng zhen liu xin lu liu ke yu,mi yun qu qi ta
四季大美国际Travel Agency,69385088,良乡,西潞北大街73号青年餐厅,Travel Agency,116.136395,39.736615,si ji da mei guo ji T r a v e l   A g e n c y,xi lu bei da jie 73 hao qing nian can ting,liang xiang
北京青年Travel Agency股份有限公司,87789621,广渠门外,外冠城名敦道4号楼1604号,Travel Agency,116.447784,39.893234,bei jing qing nian T r a v e l   A g e n c y gu fen you xian gong si,wai guan cheng ming dun dao 4 hao lou 1604 hao,guang qu men wai
门城湖公园,,门头沟城区,滨河路永定楼附近,City Park,116.120529,39.940639,men cheng hu gong yuan,bin he lu yong ding lou fu jin,men tou gou cheng qu
欧菲堡酒庄,60466369;138****9993,顺义区,龙湾屯镇柳庄户村,Other Attractions/Side Trip,116.873581,40.196949,ou fei bao jiu zhuang,long wan tun zhen liu zhuang hu cun,shun yi qu
八里桥音乐主题公园,85708077,管庄,瑞祥北街,Cultural Park,116.61721,39.909935,ba li qiao yin le zhu ti gong yuan,rui xiang bei jie,guan zhuang
要出发旅行网,4001181166,中关村,中关村海淀大街3号鼎好电子大厦A座9-10层（九华山庄；益泉；御林汤泉；美神宫）,Travel Agency,116.314766,39.984379,yao chu fa lv xing wang,zhong guan cun hai dian da jie 3 hao ding hao dian zi da sha A zuo 9 - 10 ceng （ jiu hua shan zhuang ； yi quan ； yu lin tang quan ； mei shen gong ）,zhong guan cun
北航逸夫科学馆,82316544,牡丹园/北太平庄,学院路37号,Science Museum,116.349915,39.981895,bei hang yi fu ke xue guan,xue yuan lu 37 hao,mu dan yuan / bei tai ping zhuang
